{"type":"FeatureCollection","features":[{"type":"Feature","properties":{"nazwa":"Pieniński Park Narodowy","powod":"park narodowy — zakaz wprowadzania psów","zrodlo":"OpenStreetMap relation/1984552, licencja ODbL"},"geometry":{"type":"MultiPolygon","coordinates":[[[[20.41752,49.405851],[20.418288,49.405858],[20.418803,49.405764],[20.41968,49.405581],[20.420014,49.405516],[20.420359,49.4054],[20.420575,49.405297],[20.42081,49.405187],[20.421052,49.405032],[20.42138,49.404797],[20.421815,49.404559],[20.421928,49.404492],[20.422395,49.4043],[20.4228,49.404112],[20.423334,49.403873],[20.423714,49.403699],[20.42418,49.403495],[20.424766,49.40326],[20.425086,49.403091],[20.425187,49.403057],[20.425584,49.403006],[20.425718,49.402983],[20.425928,49.402954],[20.426263,49.402893],[20.426668,49.402825],[20.426793,49.402793],[20.426903,49.402723],[20.426977,49.402655],[20.427148,49.402593],[20.427368,49.402484],[20.427711,49.402208],[20.427928,49.402022],[20.427964,49.401985],[20.42806,49.401767],[20.428187,49.401478],[20.428349,49.401114],[20.428414,49.400981],[20.428562,49.400632],[20.428693,49.400327],[20.428823,49.400065],[20.42897,49.39975],[20.429136,49.399375],[20.429305,49.399031],[20.429495,49.39866],[20.429594,49.398392],[20.42975,49.398022],[20.429959,49.397689],[20.430019,49.39754],[20.430195,49.397198],[20.430214,49.397147],[20.430329,49.396835],[20.430474,49.396595],[20.430551,49.396476],[20.430756,49.396256],[20.431134,49.395948],[20.43127,49.395885],[20.431404,49.395877],[20.431626,49.395913],[20.431821,49.395969],[20.431959,49.396008],[20.432381,49.396148],[20.43279,49.396373],[20.43327,49.396615],[20.433481,49.396778],[20.433771,49.397085],[20.434017,49.39734],[20.434241,49.397598],[20.434407,49.397908],[20.434487,49.398058],[20.434509,49.398188],[20.434554,49.398303],[20.434747,49.398707],[20.434814,49.398866],[20.434782,49.399253],[20.434705,49.399542],[20.434618,49.399786],[20.434479,49.400128],[20.434376,49.400337],[20.434255,49.400565],[20.4341,49.400862],[20.434042,49.401091],[20.434043,49.401317],[20.434074,49.401453],[20.434094,49.401542],[20.43408,49.401736],[20.434202,49.402062],[20.434365,49.402258],[20.43461,49.402578],[20.434932,49.403003],[20.435068,49.403235],[20.435281,49.403563],[20.4356,49.403992],[20.435729,49.404152],[20.435943,49.404509],[20.436119,49.404712],[20.436308,49.404934],[20.436529,49.405226],[20.436628,49.405432],[20.436727,49.405659],[20.436881,49.40595],[20.436988,49.406275],[20.436968,49.406507],[20.436917,49.406657],[20.436868,49.406875],[20.436571,49.407165],[20.436201,49.407393],[20.435821,49.407596],[20.435475,49.407751],[20.435059,49.407904],[20.434707,49.407984],[20.434336,49.408085],[20.434039,49.408144],[20.433652,49.408173],[20.433316,49.408184],[20.432937,49.408214],[20.432525,49.408217],[20.432075,49.408214],[20.43158,49.408161],[20.431207,49.408106],[20.430823,49.407946],[20.430535,49.407871],[20.430111,49.407811],[20.429717,49.407763],[20.42939,49.407805],[20.429126,49.407858],[20.428883,49.408053],[20.428727,49.408273],[20.428781,49.408494],[20.429004,49.408728],[20.429043,49.408909],[20.429116,49.409053],[20.429241,49.409377],[20.429311,49.409661],[20.429426,49.410012],[20.429447,49.410241],[20.429484,49.410545],[20.429478,49.410922],[20.429433,49.411291],[20.429326,49.411599],[20.429235,49.411984],[20.429211,49.41229],[20.429256,49.412652],[20.429249,49.412897],[20.429292,49.413307],[20.429279,49.413542],[20.42929,49.413762],[20.429305,49.414027],[20.429326,49.414268],[20.429303,49.414739],[20.429369,49.415086],[20.42946,49.415409],[20.429592,49.415723],[20.429803,49.416065],[20.430014,49.416382],[20.430205,49.416602],[20.430507,49.416829],[20.430808,49.41699],[20.431171,49.417145],[20.431458,49.417248],[20.431906,49.417403],[20.432112,49.417495],[20.432295,49.417581],[20.432644,49.417666],[20.433096,49.417815],[20.433569,49.417917],[20.434095,49.417977],[20.43476,49.417982],[20.43534,49.417941],[20.435937,49.417813],[20.436388,49.417661],[20.436721,49.417523],[20.43695,49.417299],[20.437066,49.416962],[20.437084,49.416654],[20.437165,49.416371],[20.437393,49.41593],[20.437503,49.415753],[20.437757,49.415405],[20.437842,49.415292],[20.438113,49.414947],[20.43821,49.414861],[20.438246,49.414776],[20.438639,49.414584],[20.439001,49.414503],[20.439391,49.414486],[20.440313,49.414472],[20.441002,49.414399],[20.441329,49.414331],[20.441738,49.414274],[20.442096,49.414171],[20.442556,49.413967],[20.442633,49.413911],[20.443213,49.413614],[20.443528,49.41341],[20.443661,49.413326],[20.443941,49.413083],[20.444268,49.412847],[20.444533,49.412584],[20.444917,49.412347],[20.445135,49.412257],[20.445538,49.412132],[20.445892,49.41202],[20.446352,49.411918],[20.446917,49.411907],[20.447807,49.411932],[20.448424,49.411958],[20.449194,49.412076],[20.449852,49.412187],[20.450331,49.412376],[20.450784,49.412599],[20.450929,49.412771],[20.4509,49.412926],[20.450881,49.413053],[20.450682,49.413124],[20.450348,49.413247],[20.450115,49.413379],[20.44991,49.41349],[20.449728,49.413567],[20.449452,49.413578],[20.449245,49.413629],[20.448852,49.413753],[20.448578,49.413917],[20.448246,49.414071],[20.448057,49.414177],[20.447771,49.414357],[20.447071,49.414744],[20.446439,49.415042],[20.446058,49.415253],[20.44577,49.415438],[20.44557,49.415587],[20.445555,49.415857],[20.445666,49.416075],[20.445978,49.416334],[20.446224,49.416291],[20.446457,49.416251],[20.446577,49.41623],[20.446595,49.416227],[20.446613,49.416231],[20.446847,49.416285],[20.447259,49.416146],[20.447949,49.416027],[20.448703,49.415818],[20.449076,49.415689],[20.44964,49.415203],[20.44976,49.415118],[20.449918,49.415025],[20.45001,49.415033],[20.451147,49.415135],[20.451638,49.415212],[20.452253,49.415259],[20.452784,49.415194],[20.453597,49.415049],[20.454039,49.415153],[20.454671,49.415122],[20.454913,49.415288],[20.455358,49.415583],[20.455744,49.415418],[20.455751,49.415415],[20.457706,49.41521],[20.458449,49.415197],[20.458875,49.415122],[20.459566,49.414847],[20.459859,49.414703],[20.460929,49.414589],[20.461071,49.414573],[20.461224,49.414554],[20.461249,49.414788],[20.461068,49.414969],[20.460807,49.415203],[20.460766,49.415259],[20.460714,49.41533],[20.460638,49.4161],[20.460617,49.41618],[20.460558,49.416401],[20.460499,49.416591],[20.460484,49.41661],[20.460273,49.417094],[20.460227,49.417123],[20.46005,49.417243],[20.459754,49.417389],[20.459713,49.41741],[20.459364,49.417499],[20.459323,49.417505],[20.45892,49.417786],[20.458534,49.41792],[20.458521,49.417941],[20.458388,49.417962],[20.457622,49.418293],[20.457049,49.418551],[20.456575,49.4185],[20.456561,49.418515],[20.456558,49.418539],[20.456482,49.418536],[20.456451,49.418525],[20.456366,49.418559],[20.456293,49.418593],[20.456233,49.418547],[20.454995,49.419262],[20.455565,49.419649],[20.456925,49.420861],[20.457608,49.421696],[20.458139,49.422544],[20.458569,49.423451],[20.458515,49.424024],[20.458109,49.424512],[20.457732,49.424943],[20.457301,49.425234],[20.456957,49.425425],[20.456687,49.425532],[20.45648,49.425597],[20.456164,49.425656],[20.455328,49.425621],[20.454669,49.425553],[20.4461,49.424955],[20.44519,49.42489],[20.443163,49.425099],[20.441834,49.425351],[20.441342,49.425538],[20.441175,49.425766],[20.440922,49.426089],[20.440768,49.426393],[20.440761,49.426572],[20.44075,49.426778],[20.440766,49.427033],[20.44074,49.427229],[20.440662,49.427375],[20.440611,49.427533],[20.440595,49.427608],[20.4405,49.427711],[20.440265,49.427941],[20.43984,49.428249],[20.439548,49.428541],[20.439389,49.428914],[20.439253,49.429128],[20.439059,49.429711],[20.438919,49.430024],[20.438848,49.430172],[20.438792,49.430355],[20.438723,49.430599],[20.43871,49.431201],[20.438709,49.43126],[20.438626,49.43143],[20.438488,49.431401],[20.4384,49.431563],[20.438319,49.431765],[20.438199,49.431984],[20.43803,49.432232],[20.437974,49.432296],[20.437355,49.432861],[20.437228,49.432825],[20.436754,49.432623],[20.436344,49.432691],[20.436052,49.432609],[20.436021,49.432596],[20.435927,49.432627],[20.435886,49.43248],[20.43588,49.432342],[20.435987,49.432192],[20.436099,49.432101],[20.436259,49.431978],[20.436215,49.4319],[20.435991,49.431876],[20.435709,49.431752],[20.435379,49.431664],[20.435154,49.431598],[20.435026,49.431578],[20.434749,49.431492],[20.43462,49.431401],[20.4346,49.431382],[20.434525,49.431246],[20.434463,49.431216],[20.433847,49.431731],[20.434101,49.431889],[20.433391,49.432497],[20.433084,49.432492],[20.432841,49.432485],[20.432512,49.432472],[20.432307,49.432442],[20.431992,49.432387],[20.431976,49.432476],[20.431963,49.43255],[20.431867,49.43254],[20.431782,49.432671],[20.431304,49.432757],[20.431022,49.432704],[20.430975,49.432803],[20.431063,49.432821],[20.431057,49.432855],[20.43104,49.432892],[20.430828,49.432855],[20.430691,49.432993],[20.430641,49.433046],[20.430616,49.433094],[20.430362,49.433265],[20.430273,49.43339],[20.430449,49.433429],[20.430424,49.433495],[20.43032,49.433556],[20.430294,49.433603],[20.430053,49.433823],[20.429648,49.434225],[20.429413,49.434273],[20.429228,49.434314],[20.428811,49.434275],[20.428259,49.434159],[20.428039,49.434131],[20.428027,49.434195],[20.428195,49.434427],[20.427898,49.434483],[20.427618,49.434438],[20.427346,49.434691],[20.427087,49.434675],[20.427145,49.434589],[20.426868,49.434546],[20.426599,49.434509],[20.426312,49.434424],[20.426024,49.434415],[20.425646,49.434378],[20.425848,49.434161],[20.426009,49.434063],[20.426187,49.433949],[20.426158,49.433946],[20.426456,49.433713],[20.426506,49.433678],[20.426563,49.433678],[20.426805,49.433186],[20.426721,49.433151],[20.426575,49.433107],[20.426642,49.433026],[20.426031,49.432871],[20.426068,49.432801],[20.426688,49.432946],[20.426714,49.432899],[20.426743,49.432846],[20.426787,49.432685],[20.426501,49.432515],[20.426461,49.432324],[20.425873,49.432241],[20.425751,49.432036],[20.426076,49.432018],[20.425942,49.43165],[20.425865,49.431645],[20.425846,49.431594],[20.425588,49.431556],[20.42562,49.43138],[20.424769,49.431282],[20.424843,49.431115],[20.4249,49.430976],[20.423721,49.430824],[20.42257,49.430615],[20.422559,49.430591],[20.422491,49.430577],[20.422497,49.430598],[20.422216,49.43054],[20.422167,49.43052],[20.422111,49.430614],[20.422051,49.43069],[20.421874,49.430923],[20.421847,49.430955],[20.421579,49.430967],[20.421648,49.431042],[20.421653,49.431128],[20.42165,49.431298],[20.421649,49.431442],[20.421555,49.431875],[20.421559,49.431929],[20.421577,49.432021],[20.421624,49.432281],[20.421695,49.432619],[20.421726,49.432749],[20.421788,49.432817],[20.422105,49.433104],[20.422315,49.433285],[20.422348,49.433312],[20.422348,49.433381],[20.422351,49.433465],[20.422296,49.433562],[20.422249,49.43364],[20.422062,49.433768],[20.422009,49.433805],[20.421727,49.434],[20.421549,49.434123],[20.42146,49.43418],[20.421297,49.43429],[20.42119,49.434364],[20.420973,49.434519],[20.420799,49.434785],[20.420567,49.434717],[20.420548,49.434712],[20.420416,49.434672],[20.420064,49.434935],[20.419823,49.434997],[20.419699,49.435035],[20.419535,49.435111],[20.418898,49.435173],[20.418899,49.435213],[20.418755,49.43522],[20.418734,49.435288],[20.417921,49.43531],[20.417877,49.435462],[20.417846,49.435561],[20.417496,49.43554],[20.417192,49.435522],[20.417112,49.435738],[20.41653,49.435658],[20.416506,49.435726],[20.416168,49.435821],[20.415731,49.43593],[20.415662,49.435985],[20.415607,49.436014],[20.41547,49.436083],[20.415394,49.436157],[20.415124,49.436112],[20.415039,49.436163],[20.414423,49.436119],[20.414427,49.436183],[20.414717,49.436225],[20.414078,49.436319],[20.4137,49.436317],[20.413322,49.436278],[20.413051,49.436218],[20.413028,49.436096],[20.413012,49.435902],[20.412961,49.435806],[20.412909,49.435756],[20.412877,49.435724],[20.412535,49.435665],[20.412562,49.435731],[20.412596,49.435817],[20.4127,49.436071],[20.412744,49.43618],[20.412423,49.436445],[20.41242,49.436479],[20.412219,49.436467],[20.411845,49.436439],[20.411257,49.436396],[20.411093,49.436353],[20.410546,49.436086],[20.410322,49.435996],[20.410007,49.435893],[20.409832,49.435853],[20.409696,49.435831],[20.409626,49.435835],[20.408938,49.435936],[20.408772,49.435965],[20.408671,49.436018],[20.40826,49.436001],[20.407921,49.436033],[20.407863,49.436037],[20.407112,49.436113],[20.406479,49.435994],[20.405828,49.435762],[20.405353,49.43554],[20.404731,49.43537],[20.404447,49.435316],[20.404255,49.435324],[20.403323,49.435332],[20.402979,49.435394],[20.402723,49.435403],[20.402475,49.435388],[20.40187,49.435458],[20.401237,49.435469],[20.400641,49.435259],[20.40001,49.435222],[20.398744,49.435148],[20.39877,49.434879],[20.398482,49.43486],[20.398363,49.434492],[20.397991,49.434516],[20.397996,49.434479],[20.398002,49.434194],[20.397266,49.43409],[20.397248,49.434031],[20.397053,49.433938],[20.397532,49.433879],[20.397081,49.433391],[20.39674,49.433398],[20.396626,49.433186],[20.396418,49.432957],[20.396476,49.432788],[20.396587,49.432643],[20.396186,49.432558],[20.395867,49.432468],[20.39593,49.432241],[20.395647,49.431992],[20.395673,49.431935],[20.395574,49.431591],[20.395487,49.431413],[20.395347,49.431286],[20.395156,49.431122],[20.395045,49.43103],[20.394941,49.43094],[20.394948,49.430856],[20.394809,49.430847],[20.394698,49.430714],[20.394455,49.430579],[20.394375,49.430554],[20.394261,49.430515],[20.39394,49.430426],[20.3939,49.43041],[20.393781,49.430349],[20.393455,49.430156],[20.393415,49.430114],[20.393284,49.429981],[20.393267,49.429882],[20.393181,49.429737],[20.39218,49.429453],[20.392077,49.429491],[20.392049,49.4295],[20.391925,49.429478],[20.39188,49.42946],[20.39174,49.4294],[20.391658,49.429335],[20.391191,49.428967],[20.390993,49.428918],[20.390906,49.428859],[20.390736,49.42874],[20.390462,49.428511],[20.390239,49.428453],[20.390002,49.428415],[20.389953,49.428401],[20.389654,49.428167],[20.389079,49.427908],[20.38861,49.427696],[20.388408,49.427616],[20.388203,49.427451],[20.387932,49.427373],[20.387837,49.427443],[20.387754,49.427365],[20.387731,49.427376],[20.387998,49.427647],[20.388032,49.427751],[20.38809,49.427934],[20.388097,49.427997],[20.388042,49.427972],[20.387335,49.42762],[20.387369,49.427996],[20.38703,49.428482],[20.387568,49.428839],[20.38784,49.429091],[20.387827,49.429234],[20.387882,49.429536],[20.387451,49.429617],[20.387252,49.42954],[20.38705,49.429151],[20.386771,49.428737],[20.386297,49.428352],[20.386019,49.428344],[20.385193,49.428359],[20.385064,49.427957],[20.384939,49.427911],[20.384953,49.427639],[20.384841,49.42747],[20.384469,49.427277],[20.384414,49.427149],[20.384363,49.427048],[20.384174,49.426665],[20.384008,49.426595],[20.382939,49.426875],[20.382863,49.426982],[20.382569,49.427131],[20.382397,49.427201],[20.382216,49.427369],[20.382005,49.427555],[20.381641,49.427739],[20.381217,49.427868],[20.380326,49.428101],[20.380144,49.428116],[20.379712,49.428185],[20.379511,49.428213],[20.379315,49.428229],[20.378958,49.428335],[20.378611,49.428368],[20.378271,49.428383],[20.378022,49.428468],[20.377234,49.428464],[20.377535,49.428726],[20.377257,49.428716],[20.377229,49.42873],[20.376758,49.428527],[20.376402,49.428522],[20.376004,49.428555],[20.375953,49.42852],[20.375523,49.428614],[20.375461,49.428577],[20.375197,49.428609],[20.375023,49.428536],[20.374839,49.428602],[20.374516,49.428766],[20.374415,49.428699],[20.374273,49.428781],[20.374192,49.428814],[20.374067,49.428902],[20.373985,49.428984],[20.373526,49.428815],[20.373511,49.42872],[20.373126,49.428439],[20.372941,49.428307],[20.372751,49.428234],[20.37268,49.428206],[20.372582,49.428198],[20.372411,49.42806],[20.372246,49.427966],[20.372229,49.427921],[20.372034,49.427887],[20.371657,49.427559],[20.371422,49.427463],[20.371289,49.427369],[20.371085,49.427186],[20.370915,49.426982],[20.37062,49.42687],[20.370457,49.426846],[20.37031,49.426832],[20.370026,49.426804],[20.369747,49.426776],[20.369645,49.426757],[20.369477,49.426716],[20.369318,49.426676],[20.3691,49.42661],[20.368994,49.42658],[20.368724,49.426589],[20.368668,49.42635],[20.368485,49.426255],[20.368071,49.426082],[20.367987,49.42607],[20.367977,49.426083],[20.367866,49.426056],[20.367853,49.426161],[20.367856,49.426184],[20.367871,49.426314],[20.367934,49.4265],[20.367854,49.426528],[20.367804,49.426598],[20.3678,49.426688],[20.367792,49.42681],[20.36779,49.426875],[20.36776,49.427009],[20.3676,49.42727],[20.367431,49.427541],[20.367384,49.427774],[20.367388,49.427802],[20.367392,49.427827],[20.367359,49.427968],[20.366536,49.428134],[20.3659,49.428245],[20.365289,49.428279],[20.364675,49.42829],[20.364653,49.42829],[20.364048,49.428116],[20.36398,49.428086],[20.363324,49.427837],[20.362886,49.427707],[20.362821,49.427587],[20.362774,49.427572],[20.362731,49.427567],[20.362612,49.427572],[20.362643,49.42753],[20.362367,49.427572],[20.362326,49.427592],[20.362278,49.427593],[20.362333,49.427214],[20.36243,49.426997],[20.362536,49.426793],[20.362645,49.426572],[20.362669,49.426479],[20.362702,49.426409],[20.362662,49.426449],[20.36261,49.426564],[20.362363,49.426856],[20.362235,49.427028],[20.362191,49.427165],[20.362183,49.427393],[20.362143,49.427585],[20.362022,49.427574],[20.36206,49.427472],[20.361886,49.427433],[20.361848,49.427137],[20.361973,49.426927],[20.362078,49.426696],[20.362078,49.426523],[20.362221,49.426353],[20.362257,49.426289],[20.362263,49.42628],[20.362065,49.426268],[20.36211,49.426046],[20.362115,49.425955],[20.362077,49.425764],[20.36212,49.42561],[20.362159,49.425523],[20.362461,49.425262],[20.3625,49.424969],[20.362449,49.424875],[20.362412,49.424807],[20.362339,49.424727],[20.362103,49.424445],[20.361888,49.424369],[20.36179,49.424398],[20.361234,49.424626],[20.360741,49.424911],[20.359915,49.425372],[20.359723,49.425507],[20.359545,49.425593],[20.359321,49.425668],[20.359321,49.42568],[20.359347,49.425749],[20.359165,49.425798],[20.358736,49.425915],[20.358388,49.425944],[20.357716,49.425977],[20.357398,49.426017],[20.357156,49.426066],[20.356852,49.426141],[20.356379,49.426233],[20.354499,49.426603],[20.354475,49.428021],[20.354438,49.428126],[20.354436,49.428552],[20.354519,49.428635],[20.354486,49.428791],[20.354463,49.429528],[20.354332,49.429757],[20.354131,49.43007],[20.353894,49.430474],[20.353725,49.43101],[20.35352,49.431588],[20.353419,49.431826],[20.353336,49.432117],[20.353378,49.432472],[20.353274,49.43296],[20.352815,49.433427],[20.353007,49.434146],[20.353111,49.434467],[20.353282,49.43503],[20.353723,49.436177],[20.353976,49.436871],[20.354206,49.437483],[20.354258,49.437626],[20.353803,49.437735],[20.353443,49.437719],[20.352782,49.437862],[20.352524,49.437902],[20.352394,49.437962],[20.352286,49.437963],[20.351987,49.43801],[20.351088,49.43822],[20.350917,49.43821],[20.350824,49.43818],[20.350787,49.438223],[20.350603,49.438367],[20.35027,49.43838],[20.349937,49.438462],[20.349548,49.438564],[20.349203,49.438598],[20.348846,49.438636],[20.348752,49.438659],[20.347302,49.438674],[20.346954,49.438681],[20.346141,49.438775],[20.346038,49.438816],[20.345636,49.43883],[20.345228,49.438761],[20.344892,49.438803],[20.344835,49.438839],[20.344811,49.438854],[20.344457,49.43893],[20.34413,49.438966],[20.343888,49.439023],[20.343688,49.438986],[20.343458,49.439027],[20.343408,49.439032],[20.343407,49.439009],[20.343184,49.438616],[20.342984,49.438468],[20.342563,49.438493],[20.342214,49.438476],[20.34201,49.438402],[20.34149,49.438336],[20.341231,49.438366],[20.340647,49.43843],[20.340016,49.43846],[20.338823,49.438574],[20.338593,49.438418],[20.338231,49.438367],[20.337699,49.438546],[20.337517,49.438608],[20.337447,49.438624],[20.337379,49.43864],[20.337084,49.438624],[20.337045,49.438457],[20.336976,49.438159],[20.33695,49.438041],[20.336897,49.437745],[20.336766,49.43725],[20.335989,49.43736],[20.335842,49.437178],[20.334934,49.437481],[20.333309,49.438027],[20.332458,49.437354],[20.33192,49.437076],[20.33171,49.436883],[20.331133,49.437017],[20.330716,49.437004],[20.330347,49.436756],[20.329918,49.43647],[20.329507,49.436039],[20.329378,49.435714],[20.32935,49.435662],[20.329373,49.435427],[20.329516,49.43537],[20.329302,49.434681],[20.329125,49.434522],[20.328507,49.434311],[20.328156,49.43394],[20.327861,49.433457],[20.3277,49.433096],[20.327637,49.433114],[20.327585,49.433035],[20.326992,49.432794],[20.326714,49.433077],[20.326585,49.43304],[20.326407,49.432989],[20.326313,49.432952],[20.326209,49.432911],[20.326006,49.432829],[20.325424,49.432598],[20.325188,49.432438],[20.324828,49.432188],[20.324777,49.432122],[20.324734,49.432067],[20.324723,49.432053],[20.324701,49.432036],[20.324698,49.432011],[20.324625,49.431863],[20.324442,49.431672],[20.324343,49.431596],[20.324495,49.431585],[20.324696,49.431402],[20.324742,49.431248],[20.324798,49.431099],[20.32492,49.430766],[20.324847,49.430607],[20.32481,49.430527],[20.32479,49.430488],[20.324782,49.43047],[20.324773,49.430454],[20.324553,49.430463],[20.324528,49.430377],[20.324621,49.430218],[20.324608,49.430198],[20.324597,49.430192],[20.324007,49.429844],[20.323283,49.429512],[20.322945,49.429434],[20.322898,49.429196],[20.32269,49.429021],[20.322097,49.428789],[20.321869,49.428683],[20.32202,49.428284],[20.32204,49.427946],[20.322312,49.427556],[20.323024,49.426967],[20.323472,49.426596],[20.323755,49.426361],[20.32396,49.426192],[20.324157,49.426029],[20.324352,49.425868],[20.324259,49.425777],[20.32418,49.425701],[20.32457,49.425287],[20.324843,49.425021],[20.324712,49.424752],[20.324802,49.42458],[20.325445,49.424353],[20.325554,49.424],[20.325982,49.423587],[20.326942,49.422947],[20.327191,49.42263],[20.327111,49.422295],[20.327126,49.422286],[20.327154,49.422282],[20.327285,49.422191],[20.327371,49.422138],[20.327486,49.422069],[20.327547,49.422024],[20.327761,49.421866],[20.328007,49.421486],[20.327948,49.421357],[20.327665,49.421354],[20.327263,49.42118],[20.326925,49.420909],[20.326817,49.420749],[20.327242,49.420504],[20.327042,49.420274],[20.326628,49.420139],[20.326586,49.419919],[20.326422,49.419847],[20.326251,49.419765],[20.326139,49.419655],[20.326673,49.419642],[20.327488,49.419595],[20.32773,49.419213],[20.327868,49.419088],[20.327827,49.418723],[20.327433,49.418457],[20.32744,49.418443],[20.327403,49.418439],[20.327365,49.418419],[20.326927,49.418431],[20.326336,49.418019],[20.325492,49.417489],[20.325536,49.41733],[20.325614,49.417185],[20.325943,49.416897],[20.326679,49.416367],[20.327135,49.415964],[20.327442,49.415768],[20.327649,49.415667],[20.328077,49.415507],[20.328568,49.415373],[20.329143,49.415168],[20.329525,49.415055],[20.329837,49.414903],[20.330467,49.41457],[20.330742,49.414383],[20.331007,49.414317],[20.331109,49.414239],[20.331184,49.414142],[20.331329,49.413963],[20.331422,49.413911],[20.331606,49.413707],[20.331801,49.413548],[20.331558,49.413397],[20.331616,49.413195],[20.331418,49.4131],[20.331242,49.41301],[20.331269,49.412931],[20.331331,49.412867],[20.331671,49.412789],[20.332405,49.412532],[20.332813,49.412319],[20.333327,49.412052],[20.333855,49.411861],[20.334304,49.411664],[20.335195,49.411235],[20.335484,49.410966],[20.335524,49.410854],[20.33569,49.410675],[20.335714,49.410692],[20.335843,49.410573],[20.336082,49.410344],[20.336041,49.41059],[20.336241,49.410685],[20.336591,49.410889],[20.336879,49.411094],[20.337271,49.411371],[20.337156,49.411464],[20.337153,49.411524],[20.337294,49.411404],[20.337395,49.41134],[20.337678,49.411173],[20.337735,49.411267],[20.337832,49.411208],[20.337876,49.411236],[20.338054,49.411092],[20.338195,49.410981],[20.338254,49.410933],[20.338299,49.410961],[20.338682,49.410898],[20.338793,49.410961],[20.339316,49.410887],[20.339405,49.410873],[20.33949,49.410857],[20.339582,49.410846],[20.3397,49.410828],[20.339911,49.410931],[20.339944,49.410908],[20.339987,49.410873],[20.340052,49.410838],[20.340167,49.410889],[20.340211,49.410864],[20.340241,49.410852],[20.340268,49.410837],[20.340294,49.410823],[20.340336,49.410805],[20.340405,49.410806],[20.340531,49.410804],[20.340582,49.410771],[20.340627,49.410741],[20.340664,49.410711],[20.340703,49.410691],[20.340755,49.410722],[20.340779,49.410704],[20.340802,49.410687],[20.340833,49.410664],[20.34096,49.410511],[20.34134,49.410707],[20.341475,49.41068],[20.341796,49.410931],[20.341909,49.410898],[20.341943,49.410927],[20.342041,49.410885],[20.342007,49.410858],[20.342681,49.410667],[20.343387,49.410493],[20.343619,49.410876],[20.343688,49.410959],[20.343718,49.410981],[20.343753,49.411013],[20.343789,49.411041],[20.343864,49.411309],[20.343886,49.411373],[20.343797,49.411728],[20.343643,49.412154],[20.34352,49.412376],[20.343354,49.412471],[20.343333,49.41253],[20.343293,49.412726],[20.343275,49.412882],[20.343287,49.413088],[20.343294,49.413213],[20.343375,49.41385],[20.343343,49.413939],[20.343207,49.414011],[20.343112,49.414194],[20.343243,49.414343],[20.343252,49.414357],[20.34345,49.414489],[20.343594,49.414579],[20.343645,49.414858],[20.343577,49.415089],[20.343565,49.415168],[20.343641,49.415295],[20.3437,49.415272],[20.344036,49.415202],[20.344114,49.415055],[20.344185,49.415015],[20.344214,49.414854],[20.344174,49.414673],[20.344131,49.41452],[20.344218,49.41425],[20.344304,49.414119],[20.344294,49.413963],[20.344392,49.413773],[20.344556,49.413644],[20.344756,49.413564],[20.345243,49.413391],[20.345632,49.413288],[20.345927,49.413147],[20.346256,49.412991],[20.346491,49.412936],[20.34695,49.41274],[20.34737,49.412556],[20.34762,49.412961],[20.347729,49.41312],[20.347779,49.413003],[20.34792,49.412951],[20.348075,49.412839],[20.348283,49.412612],[20.348754,49.41251],[20.34886,49.412341],[20.349337,49.412244],[20.349151,49.412401],[20.349184,49.412456],[20.349447,49.412379],[20.349649,49.412358],[20.349899,49.412272],[20.349993,49.412424],[20.350511,49.41234],[20.35062,49.412302],[20.351368,49.412207],[20.351503,49.412174],[20.351359,49.411872],[20.35147,49.411845],[20.351651,49.411851],[20.35172,49.411931],[20.352156,49.411982],[20.352303,49.412057],[20.352976,49.412057],[20.353004,49.412129],[20.353262,49.412149],[20.353583,49.412097],[20.353648,49.412217],[20.353795,49.412189],[20.353974,49.41218],[20.353972,49.412082],[20.354133,49.412045],[20.354149,49.411931],[20.354585,49.411902],[20.354727,49.411791],[20.354793,49.411856],[20.354966,49.411714],[20.355001,49.411819],[20.35531,49.411801],[20.355407,49.411891],[20.3556,49.411914],[20.355619,49.411991],[20.355882,49.411971],[20.356369,49.412172],[20.356603,49.41236],[20.356743,49.412549],[20.356799,49.412592],[20.356976,49.413],[20.356987,49.413107],[20.357118,49.413623],[20.357309,49.413596],[20.357564,49.413511],[20.357758,49.413401],[20.357774,49.413367],[20.3582,49.413194],[20.358384,49.413006],[20.358572,49.41295],[20.359169,49.412633],[20.359537,49.41259],[20.359809,49.412522],[20.360094,49.412478],[20.360337,49.412245],[20.360491,49.412183],[20.360883,49.411927],[20.360964,49.411828],[20.361064,49.411779],[20.361497,49.411451],[20.361573,49.411324],[20.361909,49.411183],[20.361864,49.410916],[20.362018,49.410802],[20.362136,49.410786],[20.362383,49.410622],[20.362566,49.410543],[20.362519,49.410377],[20.362657,49.410159],[20.362831,49.40999],[20.362967,49.409802],[20.36323,49.409767],[20.363733,49.4096],[20.363803,49.40944],[20.36412,49.40925],[20.364565,49.4091],[20.364644,49.408882],[20.366944,49.408178],[20.367076,49.408303],[20.368233,49.408908],[20.368532,49.408964],[20.368916,49.408918],[20.370423,49.408872],[20.37016,49.409047],[20.370134,49.409132],[20.370433,49.409264],[20.370675,49.409352],[20.370981,49.409562],[20.371166,49.409566],[20.371231,49.409533],[20.371671,49.409605],[20.371955,49.409504],[20.372341,49.409414],[20.373203,49.409468],[20.37326,49.409391],[20.373246,49.409333],[20.37341,49.409332],[20.37341,49.409262],[20.373482,49.409354],[20.373583,49.409118],[20.373604,49.409088],[20.373647,49.409027],[20.37415,49.408951],[20.374267,49.408871],[20.374918,49.408574],[20.376556,49.407839],[20.378179,49.406895],[20.379311,49.406227],[20.380151,49.405827],[20.380436,49.405578],[20.381702,49.405801],[20.385697,49.406495],[20.386089,49.406535],[20.386586,49.406653],[20.387035,49.406772],[20.387162,49.406809],[20.387557,49.406996],[20.387652,49.406986],[20.388063,49.407106],[20.38852,49.407238],[20.388669,49.40724],[20.388754,49.407296],[20.389267,49.407397],[20.389592,49.407397],[20.389936,49.407504],[20.390228,49.407604],[20.390503,49.407594],[20.390553,49.407607],[20.390839,49.407707],[20.391172,49.407782],[20.391232,49.407709],[20.391955,49.407891],[20.392074,49.407846],[20.392591,49.407849],[20.392502,49.407392],[20.39274,49.407391],[20.392749,49.40761],[20.393304,49.407505],[20.393553,49.407424],[20.393704,49.406993],[20.393986,49.40704],[20.393976,49.407139],[20.394149,49.407157],[20.394363,49.407169],[20.394671,49.407166],[20.394979,49.407116],[20.394928,49.40737],[20.395236,49.407379],[20.395803,49.407497],[20.395703,49.407682],[20.396015,49.407757],[20.396007,49.40782],[20.396305,49.407851],[20.396227,49.408163],[20.396218,49.408292],[20.396307,49.408274],[20.396804,49.408413],[20.397076,49.408466],[20.397178,49.408256],[20.397501,49.40835],[20.397715,49.408246],[20.397672,49.408551],[20.397977,49.408665],[20.398239,49.408734],[20.398456,49.408756],[20.398547,49.408681],[20.398835,49.408827],[20.398881,49.408964],[20.399264,49.409153],[20.399397,49.409077],[20.399541,49.408714],[20.399737,49.408258],[20.400029,49.408499],[20.400304,49.408928],[20.400128,49.409161],[20.400087,49.409255],[20.400278,49.409047],[20.400632,49.40883],[20.400775,49.408915],[20.400469,49.409224],[20.400786,49.409471],[20.401049,49.409322],[20.401421,49.409207],[20.401663,49.409334],[20.402116,49.409093],[20.402238,49.409103],[20.402401,49.408991],[20.402569,49.409022],[20.402581,49.40913],[20.402803,49.409097],[20.403142,49.408764],[20.403575,49.408724],[20.403839,49.408726],[20.403933,49.408706],[20.404669,49.408618],[20.404934,49.408676],[20.40513,49.40867],[20.405277,49.40864],[20.40544,49.408648],[20.405595,49.408674],[20.40578,49.40868],[20.406206,49.408567],[20.406387,49.408569],[20.406794,49.408648],[20.407326,49.408676],[20.407499,49.408764],[20.407675,49.408787],[20.407853,49.408898],[20.408691,49.40898],[20.408912,49.409061],[20.409547,49.408343],[20.40995,49.407981],[20.41037,49.407792],[20.410548,49.407545],[20.410783,49.407061],[20.411111,49.406373],[20.411275,49.406336],[20.411812,49.406127],[20.412016,49.405873],[20.411969,49.405707],[20.412076,49.405483],[20.412544,49.405073],[20.412606,49.405057],[20.412665,49.405065],[20.412681,49.405075],[20.412756,49.405107],[20.412845,49.40515],[20.413105,49.405283],[20.413426,49.405484],[20.413515,49.405581],[20.413703,49.405789],[20.413882,49.406043],[20.414354,49.406456],[20.416713,49.406343],[20.417092,49.406288],[20.417321,49.406238],[20.41752,49.405851]]]]}},{"type":"Feature","properties":{"nazwa":"Rezerwat Wąwóz Homole","powod":"rezerwat przyrody — ścisły zakaz, mimo położenia poza PPN","zrodlo":"OpenStreetMap way/158215832, licencja ODbL"},"geometry":{"type":"MultiPolygon","coordinates":[[[[20.554046,49.398353],[20.553636,49.398292],[20.552486,49.397287],[20.551531,49.39714],[20.547608,49.395143],[20.544462,49.395581],[20.544143,49.395569],[20.5437,49.395615],[20.543321,49.39572],[20.542788,49.395887],[20.542757,49.395883],[20.542449,49.396236],[20.541865,49.397174],[20.543332,49.39794],[20.543677,49.39806],[20.54494,49.399178],[20.545452,49.400057],[20.545498,49.401549],[20.545881,49.402301],[20.546087,49.402743],[20.546532,49.403624],[20.546764,49.404156],[20.544383,49.405417],[20.544561,49.406828],[20.546182,49.407043],[20.548348,49.406036],[20.548791,49.405705],[20.549218,49.405301],[20.549217,49.405298],[20.549733,49.404889],[20.550113,49.404559],[20.55056,49.404246],[20.551309,49.403674],[20.552537,49.402525],[20.552837,49.402063],[20.553079,49.401038],[20.553148,49.400881],[20.553435,49.400218],[20.553471,49.40007],[20.554357,49.399231],[20.5542,49.398544],[20.554046,49.398353]]]]}},{"type":"Feature","properties":{"nazwa":"Rezerwat Biała Woda","powod":"rezerwat przyrody — wyłączony z ruchu psów","zrodlo":"OpenStreetMap relation/2118788, licencja ODbL"},"geometry":{"type":"MultiPolygon","coordinates":[[[[20.571916,49.403518],[20.571929,49.403669],[20.571949,49.403897],[20.57208,49.403979],[20.572525,49.404037],[20.572733,49.404121],[20.572772,49.404154],[20.572868,49.404233],[20.572924,49.40429],[20.572926,49.404293],[20.573054,49.404423],[20.57308,49.404437],[20.573855,49.404843],[20.574032,49.404874],[20.574134,49.404893],[20.574224,49.405035],[20.574248,49.405074],[20.574257,49.405087],[20.574474,49.404873],[20.574475,49.404869],[20.574551,49.404538],[20.574585,49.404019],[20.57594,49.403917],[20.575973,49.40395],[20.576118,49.404133],[20.576662,49.404142],[20.577078,49.404118],[20.577645,49.404049],[20.577977,49.403974],[20.578211,49.403717],[20.578323,49.40329],[20.57816,49.402798],[20.578157,49.402791],[20.578333,49.402664],[20.578583,49.402375],[20.578653,49.401994],[20.578901,49.401717],[20.579248,49.401586],[20.579542,49.401478],[20.579987,49.401312],[20.580477,49.401145],[20.581329,49.400928],[20.581396,49.400901],[20.581491,49.40083],[20.581504,49.400793],[20.581527,49.400728],[20.581563,49.400698],[20.581631,49.400519],[20.581766,49.400346],[20.581933,49.400082],[20.582178,49.399812],[20.582166,49.399789],[20.582542,49.399591],[20.582973,49.399802],[20.583276,49.399915],[20.583321,49.399812],[20.583336,49.39951],[20.583333,49.399224],[20.582818,49.398981],[20.582884,49.398829],[20.583042,49.398685],[20.583243,49.398485],[20.583355,49.398481],[20.583556,49.398706],[20.584118,49.399073],[20.584499,49.399534],[20.58482,49.39978],[20.58514,49.399503],[20.585526,49.399546],[20.586206,49.399514],[20.586484,49.399406],[20.586801,49.399223],[20.58641,49.398974],[20.586562,49.398901],[20.586783,49.398795],[20.586856,49.398514],[20.586511,49.398445],[20.585943,49.398778],[20.585553,49.39842],[20.586038,49.398011],[20.586553,49.397969],[20.586639,49.397945],[20.58737,49.397693],[20.587592,49.397698],[20.587882,49.397657],[20.587953,49.397144],[20.587739,49.39694],[20.587653,49.396868],[20.587482,49.396811],[20.58715,49.396802],[20.58709,49.396761],[20.586931,49.396676],[20.586778,49.396129],[20.587148,49.396089],[20.587294,49.396036],[20.587291,49.395982],[20.587498,49.3959],[20.58748,49.39581],[20.587566,49.395803],[20.587652,49.395774],[20.587701,49.395774],[20.587824,49.395733],[20.58794,49.395315],[20.586192,49.396014],[20.585886,49.395901],[20.585466,49.39604],[20.585112,49.396361],[20.583967,49.396512],[20.583344,49.39685],[20.582887,49.396956],[20.582336,49.396705],[20.581632,49.396872],[20.580895,49.397342],[20.580708,49.397453],[20.580913,49.39781],[20.580928,49.397893],[20.580964,49.397962],[20.58094,49.398128],[20.581045,49.398211],[20.581187,49.398231],[20.58136,49.398207],[20.581583,49.398233],[20.581524,49.39857],[20.581185,49.398834],[20.581123,49.398882],[20.581022,49.398962],[20.580884,49.399305],[20.580489,49.399369],[20.579957,49.39985],[20.579392,49.400021],[20.578915,49.400252],[20.578788,49.400418],[20.578882,49.400513],[20.579094,49.400654],[20.579263,49.400724],[20.57935,49.40074],[20.57942,49.400733],[20.579491,49.400718],[20.579569,49.400717],[20.57966,49.40071],[20.579756,49.40068],[20.579956,49.400564],[20.580145,49.400436],[20.580434,49.400216],[20.580489,49.400037],[20.580526,49.399973],[20.580567,49.399965],[20.580603,49.399969],[20.580618,49.399993],[20.580626,49.400048],[20.580665,49.400211],[20.580685,49.400256],[20.580725,49.400296],[20.580799,49.400327],[20.580876,49.400345],[20.581017,49.400333],[20.581118,49.400316],[20.581233,49.400299],[20.581287,49.400314],[20.581297,49.400349],[20.581214,49.400467],[20.581162,49.400499],[20.581048,49.400557],[20.580967,49.400634],[20.580901,49.40066],[20.58077,49.400665],[20.580632,49.400723],[20.580436,49.400804],[20.580259,49.400879],[20.580168,49.400921],[20.580091,49.400922],[20.580008,49.400905],[20.57996,49.400908],[20.579869,49.400944],[20.579734,49.400946],[20.579615,49.400911],[20.579521,49.400846],[20.5794,49.400835],[20.579105,49.400826],[20.578972,49.400758],[20.578914,49.400756],[20.578789,49.400789],[20.578678,49.4008],[20.578585,49.400769],[20.578534,49.400748],[20.578498,49.400795],[20.578387,49.400826],[20.578343,49.400871],[20.578376,49.400912],[20.578459,49.400938],[20.578531,49.401076],[20.578482,49.401113],[20.578421,49.401179],[20.578367,49.401182],[20.578317,49.401201],[20.578217,49.401193],[20.578127,49.401079],[20.577977,49.40109],[20.577945,49.401242],[20.577903,49.40134],[20.578098,49.401456],[20.578226,49.401496],[20.578183,49.40155],[20.577973,49.401529],[20.57787,49.401584],[20.577765,49.401574],[20.577593,49.401472],[20.577526,49.401491],[20.577584,49.4016],[20.577696,49.401681],[20.577841,49.401674],[20.577996,49.401689],[20.577975,49.401734],[20.577858,49.401704],[20.577745,49.40172],[20.577634,49.401736],[20.577549,49.401778],[20.577552,49.401832],[20.577666,49.401892],[20.576755,49.402099],[20.575944,49.402238],[20.57508,49.402418],[20.574576,49.402467],[20.57406,49.402687],[20.573377,49.402547],[20.572672,49.402649],[20.572317,49.402839],[20.572016,49.403131],[20.571828,49.403256],[20.571856,49.403339],[20.57187,49.403392],[20.571893,49.403444],[20.571903,49.403472],[20.571916,49.403518]]],[[[20.591675,49.393582],[20.59208,49.394257],[20.591913,49.394287],[20.591824,49.394382],[20.592041,49.394481],[20.593066,49.395076],[20.593663,49.395257],[20.594153,49.395288],[20.594619,49.394908],[20.595392,49.394487],[20.59576,49.39406],[20.595882,49.393787],[20.595779,49.393592],[20.595366,49.393538],[20.595202,49.393218],[20.595508,49.392763],[20.596036,49.39267],[20.596686,49.39251],[20.596777,49.392196],[20.59666,49.39182],[20.596648,49.3918],[20.596575,49.391799],[20.595093,49.392114],[20.594816,49.392319],[20.594159,49.392376],[20.593447,49.392373],[20.59275,49.392627],[20.592651,49.392819],[20.592335,49.392859],[20.592274,49.393125],[20.592069,49.393225],[20.59182,49.393447],[20.591675,49.393582]]]]}},{"type":"Feature","properties":{"nazwa":"Ruiny zamku Czorsztyn","powod":"teren zabytkowy — psy niewpuszczane","zrodlo":"OpenStreetMap way/166829014, licencja ODbL","otoczka_m":60},"geometry":{"type":"MultiPolygon","coordinates":[[[[20.313934,49.434944],[20.313905,49.435084],[20.313822,49.435215],[20.313691,49.435327],[20.313519,49.435414],[20.313319,49.435468],[20.313105,49.435486],[20.31289,49.435468],[20.31269,49.435414],[20.312519,49.435327],[20.312387,49.435215],[20.312304,49.435084],[20.312276,49.434944],[20.312304,49.434803],[20.312387,49.434672],[20.312519,49.43456],[20.31269,49.434474],[20.31289,49.434419],[20.313105,49.434401],[20.313319,49.434419],[20.313519,49.434474],[20.313691,49.43456],[20.313822,49.434672],[20.313905,49.434803],[20.313934,49.434944]]]]}}]}