{"type":"FeatureCollection","name":"Godła Szalayowskie — Szczawnica","attribution":"Dane lokalizacji: godlaszalayowskie.pl (Sebastian Ciesielka). Użycie w aplikacji wymaga zgody autora.","features":[{"type":"Feature","geometry":{"type":"Point","coordinates":[20.474926,49.426782]},"properties":{"nazwa":"Pod Aniołem Stróżem","adres":"Główna 29","opis":"Malowana tablica z klęczącym aniołem o złocistych skrzydłach, ze złożonymi do modlitwy dłońmi, na jasnobłękitnym tle i zielonym pagórku. Podpis „Pod aniołem stróżem\" pisany ozdobną kursywą. Zawieszona na ciemno deskowanej ścianie domu.","typ":"godlo_szalayowskie","poszlaka":"Godło z aniołem wiązane z rodziną Zachwiejów (wg rodzinnych wspominek). Zdjęcie potwierdza napis na tablicy; nie rozstrzyga, czy dotyczy tego domu, czy sąsiedniego „Pod aniołkiem\".","zdjecie":"godlo_pod_aniolem_strozem.jpg"}},{"type":"Feature","geometry":{"type":"Point","coordinates":[20.486438,49.423419]},"properties":{"nazwa":"Pod aniołkiem","adres":"Główna 31","opis":"Malowana tablica z kroczącym aniołkiem o szarych skrzydłach, w błękitnej szarfie, na tle nieba z obłokami. Pod spodem czarny pas z podpisem „Pod aniołkiem\".","typ":"godlo_szalayowskie","poszlaka":"Godło z aniołem wiązane z rodziną Zachwiejów (wg rodzinnych wspominek); niepewne, czy dotyczy tego domu, czy sąsiedniego „Pod Aniołem Stróżem”.","zdjecie":"godlo_pod_aniolkiem.jpg"}},{"type":"Feature","geometry":{"type":"Point","coordinates":[20.490922,49.420609]},"properties":{"nazwa":"Pod basami","adres":"Szalaya 110","opis":"","typ":"godlo_szalayowskie"}},{"type":"Feature","geometry":{"type":"Point","coordinates":[20.486935,49.425506]},"properties":{"nazwa":"Pod Batorym","adres":"Park Górny 13","opis":"Godło hotelu Batory — nazwa od patrona hotelu, króla Stefana Batorego; w tym obiekcie Henryk Sienkiewicz pisał „Wiry”.","typ":"godlo_szalayowskie"}},{"type":"Feature","geometry":{"type":"Point","coordinates":[20.496491,49.42002]},"properties":{"nazwa":"Pod beczką","adres":"Szlachtowska 28","opis":"","typ":"godlo_szalayowskie"}},{"type":"Feature","geometry":{"type":"Point","coordinates":[20.473863,49.427029]},"properties":{"nazwa":"Pod Bożą Opatrznością","adres":"Główna 46","opis":"Malowana tablica z Okiem Opatrzności w trójkącie otoczonym wieńcem obłoków, na błękitnym niebie. Pod spodem czarny pas z podpisem „Pod bożą opatrznością\".","typ":"godlo_szalayowskie","zdjecie":"godlo_pod_boza_opatrznoscia.jpg"}},{"type":"Feature","geometry":{"type":"Point","coordinates":[20.463701,49.424651]},"properties":{"nazwa":"Pod bucikiem","adres":"Flisacka 25a","opis":"Malowana tablica z bucikiem — trzewikiem ze złotą koroną — w czerwonym owalu na zielonym pagórku, na niebieskim tle. Pod spodem podpis „Pod bucikiem\" ozdobną kursywą.","typ":"godlo_szalayowskie","zdjecie":"godlo_pod_bucikiem.jpg"}},{"type":"Feature","geometry":{"type":"Point","coordinates":[20.469984,49.427649]},"properties":{"nazwa":"Pod Bzem","adres":"Główna 94","opis":"Malowana tablica z kiścią kwitnącego bzu na zielonym pagórku, na turkusowym tle. Pod spodem ciemny pas z podpisem „Pod bzem\" ozdobną kursywą.","typ":"godlo_szalayowskie","zdjecie":"godlo_pod_bzem.jpg"}},{"type":"Feature","geometry":{"type":"Point","coordinates":[20.486919,49.423162]},"properties":{"nazwa":"Pod capkiem","adres":"Główna 48","opis":"","typ":"godlo_szalayowskie"}},{"type":"Feature","geometry":{"type":"Point","coordinates":[20.48738,49.423298]},"properties":{"nazwa":"Pod dziadkiem","adres":"Szalaya 50","opis":"","typ":"godlo_szalayowskie"}},{"type":"Feature","geometry":{"type":"Point","coordinates":[20.473211,49.427056]},"properties":{"nazwa":"Pod dzwonem","adres":"Główna 37","opis":"Malowana tablica z ciemnym dzwonem nad zielonym pagórkiem, na szarym tle. Pod spodem czarny pas z podpisem „Pod dzwonem\".","typ":"godlo_szalayowskie","poszlaka":"Wg wspominek dzwon w godle mieli Słowikowie — godło wskazywałoby dom tej rodziny.","zdjecie":"godlo_pod_dzwonem.jpg"}},{"type":"Feature","geometry":{"type":"Point","coordinates":[20.476756,49.426272]},"properties":{"nazwa":"Pod gackiem","adres":"Główna 25","opis":"Malowana tablica z nietoperzem o rozpostartych skrzydłach nad zielonym pagórkiem, na jasnobłękitnym tle. Pod spodem podpis „Pod gackiem\".","typ":"godlo_szalayowskie","zdjecie":"godlo_pod_gackiem.jpg"}},{"type":"Feature","geometry":{"type":"Point","coordinates":[20.485953,49.421955]},"properties":{"nazwa":"Pod gołąbiem","adres":"Zawodzie 12","opis":"","typ":"godlo_szalayowskie"}},{"type":"Feature","geometry":{"type":"Point","coordinates":[20.465965,49.426485]},"properties":{"nazwa":"Pod Grajcarkiem","adres":"Nad Grajcarkiem 14","opis":"Dom stoi nad potokiem Grajcarek — nazwa godła pochodzi wprost od potoku (potwierdza to i adres „Nad Grajcarkiem 14”, i opis nadania).","typ":"godlo_szalayowskie"}},{"type":"Feature","geometry":{"type":"Point","coordinates":[20.483966,49.424805]},"properties":{"nazwa":"Pod gwiazdą","adres":"Szalaya 19","opis":"","typ":"godlo_szalayowskie"}},{"type":"Feature","geometry":{"type":"Point","coordinates":[20.485812,49.42359]},"properties":{"nazwa":"Pod góralem","adres":"Szalaya 27","opis":"Malowana tablica z góralem na zielonym pagórku, na jasnobłękitnym tle. Pod spodem szary pas z podpisem „Pod góralem\" ozdobną kursywą.","typ":"godlo_szalayowskie","zdjecie":"godlo_pod_goralem.jpg"}},{"type":"Feature","geometry":{"type":"Point","coordinates":[20.488638,49.430466]},"properties":{"nazwa":"Pod hamernikiem","adres":"Kowalczyk 3b","opis":"Godło willi „Hamernik” rodziny Hamerskich — nazwa od nazwiska gospodarzy, które samo nawiązuje do hamernika, rzemieślnika z hamerni (kuźni wodnej).","typ":"godlo_szalayowskie"}},{"type":"Feature","geometry":{"type":"Point","coordinates":[20.472779,49.427347]},"properties":{"nazwa":"Pod hiszpanem","adres":"Główna 62","opis":"Malowana tablica z Hiszpanem w kapeluszu i pludrach, stojącym na zielonym pagórku, na turkusowym tle. Pod spodem podpis „Pod hiszpanem\".","typ":"godlo_szalayowskie","zdjecie":"godlo_pod_hiszpanem.jpg"}},{"type":"Feature","geometry":{"type":"Point","coordinates":[20.48606,49.423]},"properties":{"nazwa":"Pod Huzarem","adres":"Szalaya 38","opis":"","typ":"godlo_szalayowskie"}},{"type":"Feature","geometry":{"type":"Point","coordinates":[20.488759,49.422455]},"properties":{"nazwa":"Pod jabłkiem","adres":"Szalaya 75","opis":"","typ":"godlo_szalayowskie"}},{"type":"Feature","geometry":{"type":"Point","coordinates":[20.486579,49.423006]},"properties":{"nazwa":"Pod jarzębiną","adres":"Szalaya 41a","opis":"","typ":"godlo_szalayowskie"}},{"type":"Feature","geometry":{"type":"Point","coordinates":[20.483393,49.424599]},"properties":{"nazwa":"Pod jałowcem","adres":"Szalaya 15","opis":"","typ":"godlo_szalayowskie"}},{"type":"Feature","geometry":{"type":"Point","coordinates":[20.495899,49.42854]},"properties":{"nazwa":"Pod jemiołą","adres":"Św. Krzyża  49","opis":"","typ":"godlo_szalayowskie"}},{"type":"Feature","geometry":{"type":"Point","coordinates":[20.499702,49.424591]},"properties":{"nazwa":"Pod kapliczką","adres":"Sopotnicka 22c","opis":"","typ":"godlo_szalayowskie"}},{"type":"Feature","geometry":{"type":"Point","coordinates":[20.487441,49.424756]},"properties":{"nazwa":"Pod klonem","adres":"Park Górny 16","opis":"","typ":"godlo_szalayowskie"}},{"type":"Feature","geometry":{"type":"Point","coordinates":[20.500657,49.419802]},"properties":{"nazwa":"Pod kogutkiem","adres":"Szlachtowska 68","opis":"","typ":"godlo_szalayowskie","poszlaka":"Pod tym adresem działa pensjonat „U Koguta” — nazwa godła prawdopodobnie od nazwiska/przydomka gospodarzy (Kogut)."}},{"type":"Feature","geometry":{"type":"Point","coordinates":[20.487953,49.422873]},"properties":{"nazwa":"Pod konikiem","adres":"Szalaya 55","opis":"Malowana tablica z ciemnym konikiem stojącym bokiem, na przygaszonym tle. Pod spodem jasny pas z podpisem „Pod konikiem\".","typ":"godlo_szalayowskie","zdjecie":"godlo_pod_konikiem.jpg"}},{"type":"Feature","geometry":{"type":"Point","coordinates":[20.48984,49.420747]},"properties":{"nazwa":"Pod kosynierem","adres":"Szalaya 96","opis":"Malowana tablica z kosynierem w białej sukmanie i rogatywce, z kosą postawioną na sztorc, na spłowiałym błękitnym tle. Pod spodem podpis „Pod kosynierem\".","typ":"godlo_szalayowskie","zdjecie":"godlo_pod_kosynierem.jpg"}},{"type":"Feature","geometry":{"type":"Point","coordinates":[20.487296,49.423004]},"properties":{"nazwa":"Pod kotwicą","adres":"Szalaya 53","opis":"","typ":"godlo_szalayowskie"}},{"type":"Feature","geometry":{"type":"Point","coordinates":[20.488928,49.422348]},"properties":{"nazwa":"Pod kozakiem","adres":"Szalaya 77","opis":"Malowana tablica z kozakiem w czerwonym stroju i futrzanej czapce, na białym koniu stojącym na zielonym pagórku. Pod spodem czarny pas z podpisem „Pod kozakiem\" pisanym ozdobną kursywą.","typ":"godlo_szalayowskie","zdjecie":"godlo_pod_kozakiem.jpg"}},{"type":"Feature","geometry":{"type":"Point","coordinates":[20.472474,49.427184]},"properties":{"nazwa":"Pod kołem","adres":"Główna 45","opis":"Malowana tablica z drewnianym kołem od wozu w czerwonej obręczy, na szarym tle. Pod spodem ciemny pas z podpisem „Pod kołem\".","typ":"godlo_szalayowskie","zdjecie":"godlo_pod_kolem.jpg"}},{"type":"Feature","geometry":{"type":"Point","coordinates":[20.50032,49.429906]},"properties":{"nazwa":"Pod krakowiakiem","adres":"Sopotnicka 28","opis":"Malowana tablica z krakowiakiem w stroju ludowym, na przygaszonym tle. Pod spodem jasny pas z podpisem „Pod krakowiakiem\".","typ":"godlo_szalayowskie","zdjecie":"godlo_pod_krakowiakiem.jpg"}},{"type":"Feature","geometry":{"type":"Point","coordinates":[20.565529,49.40747]},"properties":{"nazwa":"Pod kukucką","adres":"Biała Woda 57","opis":"Od wielopokoleniowego przydomka rodowego gospodarzy z Białej Wody — rodzina „Kukucowie” (dziś apartamenty „U Kukuca”) podaje wprost, że nazwa wzięła się od lokalnego przydomka nadanego rodzinie przed wiekami.","typ":"godlo_szalayowskie"}},{"type":"Feature","geometry":{"type":"Point","coordinates":[20.488168,49.422877]},"properties":{"nazwa":"Pod lisem","adres":"Szalaya 62","opis":"","typ":"godlo_szalayowskie"}},{"type":"Feature","geometry":{"type":"Point","coordinates":[20.474226,49.427002]},"properties":{"nazwa":"Pod Matką Boską","adres":"Główna 38","opis":"Malowana tablica z Matką Boską Częstochowską i Dzieciątkiem w złotych aureolach, na ciemnym tle. Pod spodem podpis „Pod Matką Boską\".","typ":"godlo_szalayowskie","zdjecie":"godlo_pod_matka_boska.jpg"}},{"type":"Feature","geometry":{"type":"Point","coordinates":[20.489704,49.420638]},"properties":{"nazwa":"Pod matroną","adres":"Szalaya 96","opis":"","typ":"godlo_szalayowskie"}},{"type":"Feature","geometry":{"type":"Point","coordinates":[20.471997,49.427448]},"properties":{"nazwa":"Pod owocami","adres":"Główna 70","opis":"Malowana tablica z owocami nad zielonym pagórkiem. Pod spodem czarny pas z podpisem „Pod owocami\" ozdobną kursywą.","typ":"godlo_szalayowskie","zdjecie":"godlo_pod_owocami.jpg"}},{"type":"Feature","geometry":{"type":"Point","coordinates":[20.482802,49.424614]},"properties":{"nazwa":"Pod Palenicą","adres":"Szalaya 11 ?","opis":"","typ":"godlo_szalayowskie","poszlaka":"Nazwa nawiązuje do góry Palenica nad Szczawnicą; związek z konkretnym domem w centrum nieustalony."}},{"type":"Feature","geometry":{"type":"Point","coordinates":[20.472689,49.42715]},"properties":{"nazwa":"Pod pielgrzymem","adres":"Główna 43","opis":"Malowana tablica z pielgrzymem w kapeluszu, z kijem i sakwą, idącym przez zielone wzgórze obok drzew. Pod spodem podpis „Pod pielgrzymem\".","typ":"godlo_szalayowskie","zdjecie":"godlo_pod_pielgrzymem.jpg"}},{"type":"Feature","geometry":{"type":"Point","coordinates":[20.486731,49.423653]},"properties":{"nazwa":"Pod pieskiem","adres":"Szalaya 44a","opis":"","typ":"godlo_szalayowskie"}},{"type":"Feature","geometry":{"type":"Point","coordinates":[20.488796,49.42279]},"properties":{"nazwa":"Pod polską koroną","adres":"Szalaya 69","opis":"","typ":"godlo_szalayowskie"}},{"type":"Feature","geometry":{"type":"Point","coordinates":[20.484642,49.42724]},"properties":{"nazwa":"Pod pomarańczą","adres":"Zdrojowa 19","opis":"","typ":"godlo_szalayowskie"}},{"type":"Feature","geometry":{"type":"Point","coordinates":[20.486753,49.423246]},"properties":{"nazwa":"Pod rakiem","adres":"Szalaya 43","opis":"","typ":"godlo_szalayowskie","ciekawostka":"W latach 1892–1894 w domu mieściła się klasa szkolna."}},{"type":"Feature","geometry":{"type":"Point","coordinates":[20.486468,49.423]},"properties":{"nazwa":"Pod rybą","adres":"Szalaya 41","opis":"","typ":"godlo_szalayowskie","ciekawostka":"Dom żydowskiego kupca Mandela Chiela Mechela (sklep bławatny i trafika)."}},{"type":"Feature","geometry":{"type":"Point","coordinates":[20.48661,49.423444]},"properties":{"nazwa":"Pod różą","adres":"Szalaya 39","opis":"","typ":"godlo_szalayowskie"}},{"type":"Feature","geometry":{"type":"Point","coordinates":[20.462774,49.425678]},"properties":{"nazwa":"Pod sarenką","adres":"Główna 162","opis":"Malowana tablica z sarenką stojącą na trawiastym pagórku, z podpisem „Pod Sarenką” pisanym ozdobną kursywą. Zawieszona na deskowanej ścianie domu przy ulicy Głównej.","typ":"godlo_szalayowskie","zdjecie":"godlo_pod_sarenka.jpg"}},{"type":"Feature","geometry":{"type":"Point","coordinates":[20.473456,49.42719]},"properties":{"nazwa":"Pod sercem","adres":"Główna 56","opis":"","typ":"godlo_szalayowskie","poszlaka":"Wg relacji serce w godle mieli Malinowscy; historyczny dom „Pod sercem” (Hermana Schimla) stał na Miedziusiu i został zburzony w 1943 r. — obecna tablica przy Głównej 56 to lokalizacja wtórna."}},{"type":"Feature","geometry":{"type":"Point","coordinates":[20.484381,49.425743]},"properties":{"nazwa":"Pod siekierkami","adres":"Zdrojowa 12","opis":"Malowana tablica z dwiema skrzyżowanymi ciupagami na jasnym tle. Pod spodem ciemny pas z podpisem „Pod siekierkami\" ozdobną kursywą.","typ":"godlo_szalayowskie","zdjecie":"godlo_pod_siekierkami.jpg"}},{"type":"Feature","geometry":{"type":"Point","coordinates":[20.481012,49.426514]},"properties":{"nazwa":"Pod Sienkiewiczem","adres":"Główna 12","opis":"Budynek przy Głównej 12 to siedziba Szkoły Podstawowej nr 1 im. Henryka Sienkiewicza — godło nazwano od patrona szkoły, upamiętniając pisarza, który trzykrotnie bywał w Szczawnicy (1868, 1879, 1909).","typ":"godlo_szalayowskie"}},{"type":"Feature","geometry":{"type":"Point","coordinates":[20.466021,49.428761]},"properties":{"nazwa":"Pod skrzypkiem","adres":"Pod Sadami 9b","opis":"","typ":"godlo_szalayowskie"}},{"type":"Feature","geometry":{"type":"Point","coordinates":[20.472248,49.427408]},"properties":{"nazwa":"Pod sokołem","adres":"Główna 68","opis":"","typ":"godlo_szalayowskie"}},{"type":"Feature","geometry":{"type":"Point","coordinates":[20.479576,49.427582]},"properties":{"nazwa":"Pod sową","adres":"Park Dolny 16","opis":"","typ":"godlo_szalayowskie"}},{"type":"Feature","geometry":{"type":"Point","coordinates":[20.48323,49.424368]},"properties":{"nazwa":"Pod srebrnym orłem","adres":"Szalaya 14","opis":"","typ":"godlo_szalayowskie"}},{"type":"Feature","geometry":{"type":"Point","coordinates":[20.473138,49.427219]},"properties":{"nazwa":"Pod sroką","adres":"Główna 58","opis":"Malowana tablica ze sroką w locie nad zielonym pagórkiem, na szarozielonym tle. Pod spodem jasny pas z podpisem „Pod sroką\" ozdobną kursywą.","typ":"godlo_szalayowskie","zdjecie":"godlo_pod_sroka.jpg"}},{"type":"Feature","geometry":{"type":"Point","coordinates":[20.488498,49.422681]},"properties":{"nazwa":"Pod strzelbą","adres":"Szalaya 73","opis":"","typ":"godlo_szalayowskie"}},{"type":"Feature","geometry":{"type":"Point","coordinates":[20.486178,49.423361]},"properties":{"nazwa":"Pod strzelcem","adres":"Szalaya 30","opis":"","typ":"godlo_szalayowskie"}},{"type":"Feature","geometry":{"type":"Point","coordinates":[20.474298,49.427909]},"properties":{"nazwa":"Pod Słowackim","adres":"Aleja parkowa 7","opis":"","typ":"godlo_szalayowskie"}},{"type":"Feature","geometry":{"type":"Point","coordinates":[20.473007,49.427088]},"properties":{"nazwa":"Pod słowikiem","adres":"Główna 39","opis":"Malowana tablica ze słowikiem na gałązce, w kręgu wschodzącego słońca, na ciemnym tle. Pod spodem podpis „Pod słowikiem\" ozdobną kursywą.","typ":"godlo_szalayowskie","zdjecie":"godlo_pod_slowikiem.jpg"}},{"type":"Feature","geometry":{"type":"Point","coordinates":[20.483683,49.424639]},"properties":{"nazwa":"Pod słońcem","adres":"Szalaya 17","opis":"Malowana tablica ze słońcem o długich, pomarańczowych promieniach nad zielonym pagórkiem, na bladobłękitnym niebie. Pod spodem ciemny pas z podpisem „Pod słońcem\" pisanym ozdobną kursywą.","typ":"godlo_szalayowskie","ciekawostka":"Dom Jana Węglarza-Barychowskiego, który postawił pierwszy krzyż na Bryjarce.","zdjecie":"godlo_pod_sloncem.jpg","zdjecie_autor":"Januszk57, Wikimedia Commons","zdjecie_licencja":"CC BY-SA 4.0"}},{"type":"Feature","geometry":{"type":"Point","coordinates":[20.472524,49.427379]},"properties":{"nazwa":"Pod topolą","adres":"Główna 66","opis":"Bardzo zniszczona tablica na spękanych deskach — malowidło niemal całkiem wytarte, z podpisu „Pod topolą\" zostały pojedyncze litery.","typ":"godlo_szalayowskie","zdjecie":"godlo_pod_topola.jpg"}},{"type":"Feature","geometry":{"type":"Point","coordinates":[20.471398,49.427287]},"properties":{"nazwa":"Pod trzema koronami","adres":"Główna 59","opis":"Malowana tablica z trzema złotymi koronami nad zielonym wzgórzem, na szarym tle. Pod spodem jasny pas z podpisem „Pod trzema koronami\".","typ":"godlo_szalayowskie","poszlaka":"Nazwa niemal na pewno od masywu Trzech Koron — najbardziej charakterystycznego widoku Pienin; brak źródła wprost dla tego domu.","zdjecie":"godlo_pod_trzema_koronami.jpg"}},{"type":"Feature","geometry":{"type":"Point","coordinates":[20.482248,49.42517]},"properties":{"nazwa":"Pod trzema różami","adres":"Główna 1","opis":"","typ":"godlo_szalayowskie"}},{"type":"Feature","geometry":{"type":"Point","coordinates":[20.471408,49.427474]},"properties":{"nazwa":"Pod tygrysem","adres":"Główna 78","opis":"Mocno spłowiała tablica z tygrysem na piaskowym pagórku. Napis „Pod tygrysem\" ledwo widoczny na wytartej desce.","typ":"godlo_szalayowskie","zdjecie":"godlo_pod_tygrysem.jpg"}},{"type":"Feature","geometry":{"type":"Point","coordinates":[20.488935,49.422141]},"properties":{"nazwa":"Pod ułanem","adres":"Szalaya 81","opis":"","typ":"godlo_szalayowskie"}},{"type":"Feature","geometry":{"type":"Point","coordinates":[20.472332,49.427207]},"properties":{"nazwa":"Pod wietrznym młynem","adres":"Główna 47","opis":"Malowana tablica z wiatrakiem stojącym na zielonym wzgórzu, na granatowym niebie. Pod spodem czarny pas z podpisem „Pod wietrznym młynem\".","typ":"godlo_szalayowskie","zdjecie":"godlo_pod_wietrznym_mlynem.jpg"}},{"type":"Feature","geometry":{"type":"Point","coordinates":[20.489099,49.422597]},"properties":{"nazwa":"Pod wieńcem","adres":"Szalaya 70","opis":"","typ":"godlo_szalayowskie"}},{"type":"Feature","geometry":{"type":"Point","coordinates":[20.488747,49.422923]},"properties":{"nazwa":"Pod wilkiem","adres":"Szalaya 68","opis":"","typ":"godlo_szalayowskie"}},{"type":"Feature","geometry":{"type":"Point","coordinates":[20.471583,49.42728]},"properties":{"nazwa":"Pod winogronem","adres":"Główna 57","opis":"Malowana tablica z kiścią winogron i liśćmi winorośli, na szarozielonym tle. Pod spodem podpis „Pod winogronem\" ozdobną kursywą.","typ":"godlo_szalayowskie","zdjecie":"godlo_pod_winogronem.jpg"}},{"type":"Feature","geometry":{"type":"Point","coordinates":[20.487836,49.424102]},"properties":{"nazwa":"Pod wiosłem","adres":"Park Górny 17a","opis":"","typ":"godlo_szalayowskie"}},{"type":"Feature","geometry":{"type":"Point","coordinates":[20.500279,49.430775]},"properties":{"nazwa":"Pod wodospadem","adres":"Sopotnicka 35a","opis":"Malowana tablica z wodospadem spadającym po skale, na ciemnym pasie podpis „Pod wodospadem\" ozdobną kursywą.","typ":"godlo_szalayowskie","poszlaka":"Dom przy ul. Sopotnickiej — głównej drodze do wodospadu Zaskalnik; nazwa zapewne od położenia, brak źródła wprost.","zdjecie":"godlo_pod_wodospadem.jpg"}},{"type":"Feature","geometry":{"type":"Point","coordinates":[20.46863,49.427732]},"properties":{"nazwa":"Pod wykrotem","adres":"Skotnicka 6a","opis":"","typ":"godlo_szalayowskie"}},{"type":"Feature","geometry":{"type":"Point","coordinates":[20.481793,49.42586]},"properties":{"nazwa":"Pod węgierską koroną","adres":"Główna 6","opis":"","typ":"godlo_szalayowskie","poszlaka":"Prawdopodobne nawiązanie do węgierskiego pochodzenia rodu Szalayów i historycznych związków Szczawnicy z Węgrami; brak źródła wprost dla tego domu."}},{"type":"Feature","geometry":{"type":"Point","coordinates":[20.488168,49.422507]},"properties":{"nazwa":"Pod węgrzynem","adres":"Szalaya 72","opis":"Malowana tablica z podpisem „Pod węgrzynem\" ozdobną kursywą, na spłowiałym błękitnozielonym tle, zawieszona na drewnianej ścianie.","typ":"godlo_szalayowskie","zdjecie":"godlo_pod_wegrzynem.jpg"}},{"type":"Feature","geometry":{"type":"Point","coordinates":[20.483915,49.42321]},"properties":{"nazwa":"Pod wężem","adres":"Zawodzie 17","opis":"","typ":"godlo_szalayowskie","poszlaka":"Wg prasy godło węża (smoka) nosiła rodzina Węglarzów, „wojująca z Szalayem” — nazwa miała być złośliwą aluzją Szalaya do skłóconych z nim gospodarzy."}},{"type":"Feature","geometry":{"type":"Point","coordinates":[20.488024,49.422761]},"properties":{"nazwa":"Pod zającem","adres":"Szalaya 61","opis":"","typ":"godlo_szalayowskie"}},{"type":"Feature","geometry":{"type":"Point","coordinates":[20.480304,49.427786]},"properties":{"nazwa":"Pod Zawiszą","adres":"Park Dolny 12","opis":"","typ":"godlo_szalayowskie"}},{"type":"Feature","geometry":{"type":"Point","coordinates":[20.473626,49.428622]},"properties":{"nazwa":"Pod zbójem Pipikasem","adres":"Zielona 1a ?","opis":"Upamiętnia Pipikasa — legendarnego pienińskiego zbójnika, z którym tradycja wiąże Koci Zamek w Szczawnicy (wg legendy skalny zameczek „należał do zbójnika imieniem Pipikas”).","typ":"godlo_szalayowskie"}},{"type":"Feature","geometry":{"type":"Point","coordinates":[20.487639,49.422655]},"properties":{"nazwa":"Pod złotym lwem","adres":"Szalaya 56","opis":"","typ":"godlo_szalayowskie"}},{"type":"Feature","geometry":{"type":"Point","coordinates":[20.483179,49.424663]},"properties":{"nazwa":"Pod łukiem","adres":"Szalaya 13","opis":"","typ":"godlo_szalayowskie"}},{"type":"Feature","geometry":{"type":"Point","coordinates":[20.486195,49.42295]},"properties":{"nazwa":"Pod św. Teresą","adres":"Szalaya 38","opis":"","typ":"godlo_szalayowskie"}},{"type":"Feature","geometry":{"type":"Point","coordinates":[20.452098,49.426375]},"properties":{"nazwa":"Pod świerkami","adres":"Główna 212","opis":"","typ":"godlo_szalayowskie"}},{"type":"Feature","properties":{"nazwa":"Pod Kozicą","adres":"przy Drodze Pienińskiej","opis":"Malowana tablica z kozicą stojącą bokiem na zielonym pagórku, na szaroniebieskim tle. Pod spodem czarny pas z podpisem „Pod Kozicą\" pisanym ozdobną kursywą. Zawieszona na rudo bejcowanej, deskowanej ścianie domu przy Drodze Pienińskiej.","typ":"godlo_szalayowskie","poszlaka":"","zdjecie":"godlo_pod_kozica.jpg"},"geometry":{"type":"Point","coordinates":[20.457207,49.418895]}},{"type":"Feature","properties":{"nazwa":"Pod klekotem","adres":"Główna 17","opis":"Malowana tablica z bocianem stojącym na jednej nodze, na jasnozielonym tle. Pod spodem jasny pas z podpisem „Pod klekotem\" ozdobną kursywą.","typ":"godlo_szalayowskie","zdjecie":"godlo_pod_klekotem.jpg"},"geometry":{"type":"Point","coordinates":[20.478038083274267,49.4265106591843]}}]}