<?xml version="1.0" encoding="UTF-8"?>
<gpx version="1.1" creator="szlakipienin.pl" xmlns="http://www.topografix.com/GPX/1/1">
  <metadata>
    <name>Słowacki akcent</name>
    <desc>10.5 km, 175 min, 350 m podejść. Opis trasy: https://szlakipienin.pl/szlaki/slowacki-akcent</desc>
    <link href="https://szlakipienin.pl/szlaki/slowacki-akcent"><text>Słowacki akcent</text></link>
  </metadata>
  <trk>
    <name>Słowacki akcent</name>
    <trkseg>
      <trkpt lat="49.42647" lon="20.46807"></trkpt>
      <trkpt lat="49.4258" lon="20.47038"></trkpt>
      <trkpt lat="49.42577" lon="20.47088"></trkpt>
      <trkpt lat="49.42598" lon="20.47249"></trkpt>
      <trkpt lat="49.42592" lon="20.47336"></trkpt>
      <trkpt lat="49.42576" lon="20.47488"></trkpt>
      <trkpt lat="49.42502" lon="20.47874"></trkpt>
      <trkpt lat="49.4259" lon="20.47953"></trkpt>
      <trkpt lat="49.42554" lon="20.48026"></trkpt>
      <trkpt lat="49.42521" lon="20.48031"></trkpt>
      <trkpt lat="49.42513" lon="20.48056"></trkpt>
      <trkpt lat="49.42432" lon="20.48022"></trkpt>
      <trkpt lat="49.42414" lon="20.48129"></trkpt>
      <trkpt lat="49.42362" lon="20.48191"></trkpt>
      <trkpt lat="49.42356" lon="20.48145"></trkpt>
      <trkpt lat="49.42312" lon="20.4819"></trkpt>
      <trkpt lat="49.42227" lon="20.4823"></trkpt>
      <trkpt lat="49.4222" lon="20.4822"></trkpt>
      <trkpt lat="49.42237" lon="20.48106"></trkpt>
      <trkpt lat="49.42231" lon="20.48071"></trkpt>
      <trkpt lat="49.42219" lon="20.48035"></trkpt>
      <trkpt lat="49.4216" lon="20.48022"></trkpt>
      <trkpt lat="49.42126" lon="20.47989"></trkpt>
      <trkpt lat="49.42132" lon="20.47876"></trkpt>
      <trkpt lat="49.42096" lon="20.47797"></trkpt>
      <trkpt lat="49.42079" lon="20.47716"></trkpt>
      <trkpt lat="49.42047" lon="20.47671"></trkpt>
      <trkpt lat="49.42006" lon="20.47687"></trkpt>
      <trkpt lat="49.41986" lon="20.47671"></trkpt>
      <trkpt lat="49.41947" lon="20.47702"></trkpt>
      <trkpt lat="49.41939" lon="20.47672"></trkpt>
      <trkpt lat="49.41929" lon="20.47687"></trkpt>
      <trkpt lat="49.41899" lon="20.47634"></trkpt>
      <trkpt lat="49.41883" lon="20.47628"></trkpt>
      <trkpt lat="49.41872" lon="20.47653"></trkpt>
      <trkpt lat="49.41843" lon="20.47643"></trkpt>
      <trkpt lat="49.41821" lon="20.47657"></trkpt>
      <trkpt lat="49.4178" lon="20.47585"></trkpt>
      <trkpt lat="49.41684" lon="20.47676"></trkpt>
      <trkpt lat="49.4164" lon="20.4769"></trkpt>
      <trkpt lat="49.41359" lon="20.47674"></trkpt>
      <trkpt lat="49.41405" lon="20.47624"></trkpt>
      <trkpt lat="49.41542" lon="20.47208"></trkpt>
      <trkpt lat="49.41571" lon="20.47084"></trkpt>
      <trkpt lat="49.41547" lon="20.46981"></trkpt>
      <trkpt lat="49.41605" lon="20.46661"></trkpt>
      <trkpt lat="49.41603" lon="20.46426"></trkpt>
      <trkpt lat="49.4156" lon="20.46456"></trkpt>
      <trkpt lat="49.41364" lon="20.46873"></trkpt>
      <trkpt lat="49.41348" lon="20.46944"></trkpt>
      <trkpt lat="49.4131" lon="20.46923"></trkpt>
      <trkpt lat="49.4124" lon="20.46952"></trkpt>
      <trkpt lat="49.41176" lon="20.46885"></trkpt>
      <trkpt lat="49.41121" lon="20.46751"></trkpt>
      <trkpt lat="49.41078" lon="20.46596"></trkpt>
      <trkpt lat="49.4106" lon="20.4639"></trkpt>
      <trkpt lat="49.41026" lon="20.4638"></trkpt>
      <trkpt lat="49.40944" lon="20.46432"></trkpt>
      <trkpt lat="49.40778" lon="20.46466"></trkpt>
      <trkpt lat="49.40745" lon="20.46494"></trkpt>
      <trkpt lat="49.40713" lon="20.465"></trkpt>
      <trkpt lat="49.4066" lon="20.46471"></trkpt>
      <trkpt lat="49.40715" lon="20.46391"></trkpt>
      <trkpt lat="49.40962" lon="20.46129"></trkpt>
      <trkpt lat="49.41101" lon="20.46033"></trkpt>
      <trkpt lat="49.41125" lon="20.45993"></trkpt>
      <trkpt lat="49.41222" lon="20.45755"></trkpt>
      <trkpt lat="49.4128" lon="20.45657"></trkpt>
      <trkpt lat="49.41346" lon="20.45399"></trkpt>
      <trkpt lat="49.41385" lon="20.45351"></trkpt>
      <trkpt lat="49.41464" lon="20.45178"></trkpt>
      <trkpt lat="49.41462" lon="20.45077"></trkpt>
      <trkpt lat="49.41395" lon="20.45005"></trkpt>
      <trkpt lat="49.41389" lon="20.44932"></trkpt>
      <trkpt lat="49.41441" lon="20.44842"></trkpt>
      <trkpt lat="49.41589" lon="20.44648"></trkpt>
      <trkpt lat="49.41627" lon="20.44644"></trkpt>
      <trkpt lat="49.41663" lon="20.44764"></trkpt>
      <trkpt lat="49.41652" lon="20.44998"></trkpt>
      <trkpt lat="49.41757" lon="20.45405"></trkpt>
      <trkpt lat="49.41806" lon="20.45539"></trkpt>
      <trkpt lat="49.41985" lon="20.45795"></trkpt>
      <trkpt lat="49.42073" lon="20.45869"></trkpt>
      <trkpt lat="49.42207" lon="20.45915"></trkpt>
      <trkpt lat="49.42343" lon="20.46021"></trkpt>
      <trkpt lat="49.42396" lon="20.46172"></trkpt>
      <trkpt lat="49.42403" lon="20.46339"></trkpt>
      <trkpt lat="49.42442" lon="20.46328"></trkpt>
      <trkpt lat="49.42475" lon="20.46544"></trkpt>
      <trkpt lat="49.42493" lon="20.46581"></trkpt>
      <trkpt lat="49.42602" lon="20.46631"></trkpt>
      <trkpt lat="49.4263" lon="20.46684"></trkpt>
      <trkpt lat="49.42647" lon="20.46807"></trkpt>
    </trkseg>
  </trk>
</gpx>
