<?xml version="1.0" encoding="UTF-8"?>
<gpx version="1.1" creator="szlakipienin.pl" xmlns="http://www.topografix.com/GPX/1/1">
  <metadata>
    <name>„Wilcza Chata”</name>
    <desc>16 km, 290 min, 730 m podejść. Opis trasy: https://szlakipienin.pl/szlaki/wilcza-chata</desc>
    <link href="https://szlakipienin.pl/szlaki/wilcza-chata"><text>„Wilcza Chata”</text></link>
  </metadata>
  <trk>
    <name>„Wilcza Chata”</name>
    <trkseg>
      <trkpt lat="49.42522" lon="20.48256"></trkpt>
      <trkpt lat="49.42617" lon="20.48466"></trkpt>
      <trkpt lat="49.4277" lon="20.4863"></trkpt>
      <trkpt lat="49.42863" lon="20.48685"></trkpt>
      <trkpt lat="49.42885" lon="20.48732"></trkpt>
      <trkpt lat="49.42873" lon="20.48785"></trkpt>
      <trkpt lat="49.42846" lon="20.4874"></trkpt>
      <trkpt lat="49.42797" lon="20.48716"></trkpt>
      <trkpt lat="49.42596" lon="20.48723"></trkpt>
      <trkpt lat="49.42494" lon="20.49103"></trkpt>
      <trkpt lat="49.42416" lon="20.49221"></trkpt>
      <trkpt lat="49.42455" lon="20.49346"></trkpt>
      <trkpt lat="49.42476" lon="20.49377"></trkpt>
      <trkpt lat="49.4253" lon="20.49541"></trkpt>
      <trkpt lat="49.42628" lon="20.49606"></trkpt>
      <trkpt lat="49.42685" lon="20.49676"></trkpt>
      <trkpt lat="49.42738" lon="20.49686"></trkpt>
      <trkpt lat="49.42846" lon="20.49806"></trkpt>
      <trkpt lat="49.4288" lon="20.49892"></trkpt>
      <trkpt lat="49.43006" lon="20.49964"></trkpt>
      <trkpt lat="49.43044" lon="20.5003"></trkpt>
      <trkpt lat="49.43075" lon="20.50046"></trkpt>
      <trkpt lat="49.43113" lon="20.50106"></trkpt>
      <trkpt lat="49.43133" lon="20.50118"></trkpt>
      <trkpt lat="49.43233" lon="20.50104"></trkpt>
      <trkpt lat="49.4333" lon="20.50226"></trkpt>
      <trkpt lat="49.43395" lon="20.50272"></trkpt>
      <trkpt lat="49.43568" lon="20.50297"></trkpt>
      <trkpt lat="49.43687" lon="20.50336"></trkpt>
      <trkpt lat="49.4377" lon="20.50397"></trkpt>
      <trkpt lat="49.43797" lon="20.50401"></trkpt>
      <trkpt lat="49.43907" lon="20.50308"></trkpt>
      <trkpt lat="49.44101" lon="20.50213"></trkpt>
      <trkpt lat="49.44242" lon="20.50243"></trkpt>
      <trkpt lat="49.44396" lon="20.50167"></trkpt>
      <trkpt lat="49.44505" lon="20.50269"></trkpt>
      <trkpt lat="49.4457" lon="20.50302"></trkpt>
      <trkpt lat="49.44667" lon="20.50308"></trkpt>
      <trkpt lat="49.44787" lon="20.5029"></trkpt>
      <trkpt lat="49.44937" lon="20.50432"></trkpt>
      <trkpt lat="49.45004" lon="20.50458"></trkpt>
      <trkpt lat="49.45048" lon="20.50462"></trkpt>
      <trkpt lat="49.45105" lon="20.50426"></trkpt>
      <trkpt lat="49.45167" lon="20.50424"></trkpt>
      <trkpt lat="49.45262" lon="20.50321"></trkpt>
      <trkpt lat="49.45294" lon="20.50304"></trkpt>
      <trkpt lat="49.45388" lon="20.50339"></trkpt>
      <trkpt lat="49.45422" lon="20.50382"></trkpt>
      <trkpt lat="49.45502" lon="20.5061"></trkpt>
      <trkpt lat="49.45579" lon="20.5075"></trkpt>
      <trkpt lat="49.45636" lon="20.50785"></trkpt>
      <trkpt lat="49.45676" lon="20.50857"></trkpt>
      <trkpt lat="49.45729" lon="20.51054"></trkpt>
      <trkpt lat="49.45729" lon="20.51223"></trkpt>
      <trkpt lat="49.45743" lon="20.51283"></trkpt>
      <trkpt lat="49.45861" lon="20.51421"></trkpt>
      <trkpt lat="49.45858" lon="20.51438"></trkpt>
      <trkpt lat="49.45806" lon="20.51446"></trkpt>
      <trkpt lat="49.45703" lon="20.51431"></trkpt>
      <trkpt lat="49.4567" lon="20.51706"></trkpt>
      <trkpt lat="49.45584" lon="20.51873"></trkpt>
      <trkpt lat="49.45525" lon="20.5185"></trkpt>
      <trkpt lat="49.45459" lon="20.51881"></trkpt>
      <trkpt lat="49.45458" lon="20.52011"></trkpt>
      <trkpt lat="49.4545" lon="20.52022"></trkpt>
      <trkpt lat="49.45388" lon="20.52009"></trkpt>
      <trkpt lat="49.45338" lon="20.519"></trkpt>
      <trkpt lat="49.45325" lon="20.51906"></trkpt>
      <trkpt lat="49.45319" lon="20.51941"></trkpt>
      <trkpt lat="49.45354" lon="20.5209"></trkpt>
      <trkpt lat="49.45408" lon="20.52125"></trkpt>
      <trkpt lat="49.45629" lon="20.52402"></trkpt>
      <trkpt lat="49.45685" lon="20.52419"></trkpt>
      <trkpt lat="49.4575" lon="20.52366"></trkpt>
      <trkpt lat="49.45765" lon="20.52376"></trkpt>
      <trkpt lat="49.45774" lon="20.52441"></trkpt>
      <trkpt lat="49.45869" lon="20.5266"></trkpt>
      <trkpt lat="49.45902" lon="20.52691"></trkpt>
      <trkpt lat="49.45926" lon="20.52751"></trkpt>
      <trkpt lat="49.45924" lon="20.52802"></trkpt>
      <trkpt lat="49.45891" lon="20.52931"></trkpt>
      <trkpt lat="49.45916" lon="20.53087"></trkpt>
      <trkpt lat="49.45907" lon="20.53166"></trkpt>
      <trkpt lat="49.45892" lon="20.53113"></trkpt>
      <trkpt lat="49.45857" lon="20.53055"></trkpt>
      <trkpt lat="49.45796" lon="20.52991"></trkpt>
      <trkpt lat="49.4571" lon="20.53041"></trkpt>
      <trkpt lat="49.4566" lon="20.53135"></trkpt>
      <trkpt lat="49.45573" lon="20.532"></trkpt>
      <trkpt lat="49.45428" lon="20.53216"></trkpt>
      <trkpt lat="49.45361" lon="20.53165"></trkpt>
      <trkpt lat="49.45284" lon="20.53082"></trkpt>
      <trkpt lat="49.45217" lon="20.52976"></trkpt>
      <trkpt lat="49.45179" lon="20.52949"></trkpt>
      <trkpt lat="49.4511" lon="20.53016"></trkpt>
      <trkpt lat="49.44928" lon="20.53086"></trkpt>
      <trkpt lat="49.44898" lon="20.53113"></trkpt>
      <trkpt lat="49.44775" lon="20.53114"></trkpt>
      <trkpt lat="49.44763" lon="20.53047"></trkpt>
      <trkpt lat="49.44674" lon="20.53009"></trkpt>
      <trkpt lat="49.44653" lon="20.52926"></trkpt>
      <trkpt lat="49.44604" lon="20.52865"></trkpt>
      <trkpt lat="49.44448" lon="20.5286"></trkpt>
      <trkpt lat="49.44442" lon="20.52845"></trkpt>
      <trkpt lat="49.4438" lon="20.52823"></trkpt>
      <trkpt lat="49.44278" lon="20.52833"></trkpt>
      <trkpt lat="49.44262" lon="20.52811"></trkpt>
      <trkpt lat="49.44204" lon="20.52808"></trkpt>
      <trkpt lat="49.44011" lon="20.52693"></trkpt>
      <trkpt lat="49.43935" lon="20.52683"></trkpt>
      <trkpt lat="49.43901" lon="20.52493"></trkpt>
      <trkpt lat="49.43904" lon="20.52453"></trkpt>
      <trkpt lat="49.43879" lon="20.52395"></trkpt>
      <trkpt lat="49.43814" lon="20.5232"></trkpt>
      <trkpt lat="49.43767" lon="20.52206"></trkpt>
      <trkpt lat="49.43718" lon="20.5216"></trkpt>
      <trkpt lat="49.43672" lon="20.5214"></trkpt>
      <trkpt lat="49.43764" lon="20.51986"></trkpt>
      <trkpt lat="49.43749" lon="20.5196"></trkpt>
      <trkpt lat="49.43712" lon="20.51969"></trkpt>
      <trkpt lat="49.43697" lon="20.52005"></trkpt>
      <trkpt lat="49.43576" lon="20.52113"></trkpt>
      <trkpt lat="49.43543" lon="20.52116"></trkpt>
      <trkpt lat="49.43509" lon="20.52091"></trkpt>
      <trkpt lat="49.43471" lon="20.52032"></trkpt>
      <trkpt lat="49.43458" lon="20.51946"></trkpt>
      <trkpt lat="49.43389" lon="20.51765"></trkpt>
      <trkpt lat="49.43306" lon="20.51681"></trkpt>
      <trkpt lat="49.43298" lon="20.51586"></trkpt>
      <trkpt lat="49.43233" lon="20.51549"></trkpt>
      <trkpt lat="49.43208" lon="20.51512"></trkpt>
      <trkpt lat="49.43137" lon="20.5127"></trkpt>
      <trkpt lat="49.4311" lon="20.51225"></trkpt>
      <trkpt lat="49.43038" lon="20.51203"></trkpt>
      <trkpt lat="49.43009" lon="20.51124"></trkpt>
      <trkpt lat="49.42947" lon="20.51059"></trkpt>
      <trkpt lat="49.42918" lon="20.50955"></trkpt>
      <trkpt lat="49.42859" lon="20.50997"></trkpt>
      <trkpt lat="49.4285" lon="20.50963"></trkpt>
      <trkpt lat="49.42782" lon="20.50859"></trkpt>
      <trkpt lat="49.42701" lon="20.50823"></trkpt>
      <trkpt lat="49.42631" lon="20.50766"></trkpt>
      <trkpt lat="49.42515" lon="20.50719"></trkpt>
      <trkpt lat="49.42432" lon="20.50597"></trkpt>
      <trkpt lat="49.42242" lon="20.50406"></trkpt>
      <trkpt lat="49.42173" lon="20.50454"></trkpt>
      <trkpt lat="49.42159" lon="20.50449"></trkpt>
      <trkpt lat="49.42118" lon="20.50305"></trkpt>
      <trkpt lat="49.42099" lon="20.50206"></trkpt>
      <trkpt lat="49.42096" lon="20.50089"></trkpt>
      <trkpt lat="49.42055" lon="20.49975"></trkpt>
      <trkpt lat="49.42025" lon="20.49773"></trkpt>
      <trkpt lat="49.42063" lon="20.49546"></trkpt>
      <trkpt lat="49.42036" lon="20.4944"></trkpt>
      <trkpt lat="49.42061" lon="20.49282"></trkpt>
      <trkpt lat="49.42055" lon="20.49166"></trkpt>
      <trkpt lat="49.42111" lon="20.48968"></trkpt>
      <trkpt lat="49.42259" lon="20.48824"></trkpt>
      <trkpt lat="49.42341" lon="20.48627"></trkpt>
      <trkpt lat="49.42464" lon="20.48463"></trkpt>
      <trkpt lat="49.4247" lon="20.48413"></trkpt>
      <trkpt lat="49.42451" lon="20.48325"></trkpt>
      <trkpt lat="49.42477" lon="20.48281"></trkpt>
      <trkpt lat="49.42522" lon="20.48256"></trkpt>
    </trkseg>
  </trk>
</gpx>
