<?xml version="1.0" encoding="UTF-8"?>
<gpx version="1.1" creator="szlakipienin.pl" xmlns="http://www.topografix.com/GPX/1/1">
  <metadata>
    <name>Mnisia ścieżka</name>
    <desc>23 km, 380 min, 620 m podejść. Opis trasy: https://szlakipienin.pl/szlaki/mnisia-sciezka</desc>
    <link href="https://szlakipienin.pl/szlaki/mnisia-sciezka"><text>Mnisia ścieżka</text></link>
  </metadata>
  <trk>
    <name>Mnisia ścieżka</name>
    <trkseg>
      <trkpt lat="49.42647" lon="20.46807"></trkpt>
      <trkpt lat="49.4258" lon="20.47038"></trkpt>
      <trkpt lat="49.42577" lon="20.47088"></trkpt>
      <trkpt lat="49.42598" lon="20.47249"></trkpt>
      <trkpt lat="49.42592" lon="20.47336"></trkpt>
      <trkpt lat="49.42576" lon="20.47488"></trkpt>
      <trkpt lat="49.42481" lon="20.47992"></trkpt>
      <trkpt lat="49.42501" lon="20.48027"></trkpt>
      <trkpt lat="49.42521" lon="20.48031"></trkpt>
      <trkpt lat="49.42501" lon="20.4806"></trkpt>
      <trkpt lat="49.42432" lon="20.48022"></trkpt>
      <trkpt lat="49.42414" lon="20.48129"></trkpt>
      <trkpt lat="49.42362" lon="20.48191"></trkpt>
      <trkpt lat="49.42356" lon="20.48145"></trkpt>
      <trkpt lat="49.42312" lon="20.4819"></trkpt>
      <trkpt lat="49.42227" lon="20.4823"></trkpt>
      <trkpt lat="49.4222" lon="20.4822"></trkpt>
      <trkpt lat="49.42237" lon="20.48106"></trkpt>
      <trkpt lat="49.42231" lon="20.48071"></trkpt>
      <trkpt lat="49.42219" lon="20.48035"></trkpt>
      <trkpt lat="49.4216" lon="20.48022"></trkpt>
      <trkpt lat="49.42126" lon="20.47989"></trkpt>
      <trkpt lat="49.42132" lon="20.47876"></trkpt>
      <trkpt lat="49.42096" lon="20.47797"></trkpt>
      <trkpt lat="49.42079" lon="20.47716"></trkpt>
      <trkpt lat="49.42047" lon="20.47671"></trkpt>
      <trkpt lat="49.42006" lon="20.47687"></trkpt>
      <trkpt lat="49.41986" lon="20.47671"></trkpt>
      <trkpt lat="49.41947" lon="20.47702"></trkpt>
      <trkpt lat="49.41939" lon="20.47672"></trkpt>
      <trkpt lat="49.41929" lon="20.47687"></trkpt>
      <trkpt lat="49.41899" lon="20.47634"></trkpt>
      <trkpt lat="49.41883" lon="20.47628"></trkpt>
      <trkpt lat="49.41872" lon="20.47653"></trkpt>
      <trkpt lat="49.41843" lon="20.47643"></trkpt>
      <trkpt lat="49.41821" lon="20.47657"></trkpt>
      <trkpt lat="49.4178" lon="20.47585"></trkpt>
      <trkpt lat="49.41684" lon="20.47676"></trkpt>
      <trkpt lat="49.4164" lon="20.4769"></trkpt>
      <trkpt lat="49.41359" lon="20.47674"></trkpt>
      <trkpt lat="49.41405" lon="20.47624"></trkpt>
      <trkpt lat="49.41542" lon="20.47208"></trkpt>
      <trkpt lat="49.41571" lon="20.47084"></trkpt>
      <trkpt lat="49.41547" lon="20.46981"></trkpt>
      <trkpt lat="49.41605" lon="20.46661"></trkpt>
      <trkpt lat="49.41603" lon="20.46426"></trkpt>
      <trkpt lat="49.4156" lon="20.46456"></trkpt>
      <trkpt lat="49.41364" lon="20.46873"></trkpt>
      <trkpt lat="49.41348" lon="20.46944"></trkpt>
      <trkpt lat="49.4131" lon="20.46923"></trkpt>
      <trkpt lat="49.4124" lon="20.46952"></trkpt>
      <trkpt lat="49.41176" lon="20.46885"></trkpt>
      <trkpt lat="49.41142" lon="20.46813"></trkpt>
      <trkpt lat="49.41078" lon="20.46596"></trkpt>
      <trkpt lat="49.4106" lon="20.4639"></trkpt>
      <trkpt lat="49.41026" lon="20.4638"></trkpt>
      <trkpt lat="49.40944" lon="20.46432"></trkpt>
      <trkpt lat="49.40778" lon="20.46466"></trkpt>
      <trkpt lat="49.40745" lon="20.46494"></trkpt>
      <trkpt lat="49.40713" lon="20.465"></trkpt>
      <trkpt lat="49.4066" lon="20.46471"></trkpt>
      <trkpt lat="49.40392" lon="20.46752"></trkpt>
      <trkpt lat="49.4033" lon="20.46756"></trkpt>
      <trkpt lat="49.40268" lon="20.4695"></trkpt>
      <trkpt lat="49.40108" lon="20.47191"></trkpt>
      <trkpt lat="49.40039" lon="20.4727"></trkpt>
      <trkpt lat="49.40011" lon="20.47296"></trkpt>
      <trkpt lat="49.39926" lon="20.47201"></trkpt>
      <trkpt lat="49.39858" lon="20.47055"></trkpt>
      <trkpt lat="49.3989" lon="20.46909"></trkpt>
      <trkpt lat="49.39872" lon="20.46857"></trkpt>
      <trkpt lat="49.39879" lon="20.4683"></trkpt>
      <trkpt lat="49.399" lon="20.46819"></trkpt>
      <trkpt lat="49.39887" lon="20.46761"></trkpt>
      <trkpt lat="49.39901" lon="20.46741"></trkpt>
      <trkpt lat="49.39926" lon="20.46744"></trkpt>
      <trkpt lat="49.39911" lon="20.46658"></trkpt>
      <trkpt lat="49.39957" lon="20.46629"></trkpt>
      <trkpt lat="49.39995" lon="20.46515"></trkpt>
      <trkpt lat="49.39881" lon="20.4647"></trkpt>
      <trkpt lat="49.39818" lon="20.46384"></trkpt>
      <trkpt lat="49.39777" lon="20.46205"></trkpt>
      <trkpt lat="49.39686" lon="20.45957"></trkpt>
      <trkpt lat="49.39689" lon="20.45864"></trkpt>
      <trkpt lat="49.39659" lon="20.45748"></trkpt>
      <trkpt lat="49.39655" lon="20.45677"></trkpt>
      <trkpt lat="49.39622" lon="20.45621"></trkpt>
      <trkpt lat="49.3966" lon="20.45371"></trkpt>
      <trkpt lat="49.39647" lon="20.45087"></trkpt>
      <trkpt lat="49.39612" lon="20.4498"></trkpt>
      <trkpt lat="49.39637" lon="20.44944"></trkpt>
      <trkpt lat="49.39648" lon="20.44845"></trkpt>
      <trkpt lat="49.39636" lon="20.44645"></trkpt>
      <trkpt lat="49.39535" lon="20.44259"></trkpt>
      <trkpt lat="49.3934" lon="20.44036"></trkpt>
      <trkpt lat="49.3933" lon="20.43902"></trkpt>
      <trkpt lat="49.39305" lon="20.43796"></trkpt>
      <trkpt lat="49.39172" lon="20.43426"></trkpt>
      <trkpt lat="49.39144" lon="20.43302"></trkpt>
      <trkpt lat="49.39148" lon="20.4315"></trkpt>
      <trkpt lat="49.3917" lon="20.43106"></trkpt>
      <trkpt lat="49.39188" lon="20.42844"></trkpt>
      <trkpt lat="49.39181" lon="20.4283"></trkpt>
      <trkpt lat="49.3919" lon="20.42794"></trkpt>
      <trkpt lat="49.39175" lon="20.42778"></trkpt>
      <trkpt lat="49.392" lon="20.42623"></trkpt>
      <trkpt lat="49.3919" lon="20.42577"></trkpt>
      <trkpt lat="49.39206" lon="20.42533"></trkpt>
      <trkpt lat="49.39225" lon="20.42379"></trkpt>
      <trkpt lat="49.39259" lon="20.42311"></trkpt>
      <trkpt lat="49.39324" lon="20.42266"></trkpt>
      <trkpt lat="49.39448" lon="20.42125"></trkpt>
      <trkpt lat="49.39491" lon="20.42008"></trkpt>
      <trkpt lat="49.39571" lon="20.41875"></trkpt>
      <trkpt lat="49.39765" lon="20.41772"></trkpt>
      <trkpt lat="49.3986" lon="20.41656"></trkpt>
      <trkpt lat="49.39901" lon="20.41579"></trkpt>
      <trkpt lat="49.40032" lon="20.41699"></trkpt>
      <trkpt lat="49.40091" lon="20.41662"></trkpt>
      <trkpt lat="49.40185" lon="20.41687"></trkpt>
      <trkpt lat="49.40249" lon="20.41684"></trkpt>
      <trkpt lat="49.4034" lon="20.41643"></trkpt>
      <trkpt lat="49.40468" lon="20.41644"></trkpt>
      <trkpt lat="49.40508" lon="20.41675"></trkpt>
      <trkpt lat="49.40536" lon="20.41755"></trkpt>
      <trkpt lat="49.40532" lon="20.41956"></trkpt>
      <trkpt lat="49.40505" lon="20.42048"></trkpt>
      <trkpt lat="49.4044" lon="20.42144"></trkpt>
      <trkpt lat="49.4031" lon="20.42423"></trkpt>
      <trkpt lat="49.40209" lon="20.42727"></trkpt>
      <trkpt lat="49.40186" lon="20.42756"></trkpt>
      <trkpt lat="49.39799" lon="20.42908"></trkpt>
      <trkpt lat="49.3964" lon="20.4299"></trkpt>
      <trkpt lat="49.39563" lon="20.43086"></trkpt>
      <trkpt lat="49.3955" lon="20.43126"></trkpt>
      <trkpt lat="49.39555" lon="20.43177"></trkpt>
      <trkpt lat="49.39634" lon="20.4336"></trkpt>
      <trkpt lat="49.39671" lon="20.4341"></trkpt>
      <trkpt lat="49.39761" lon="20.43481"></trkpt>
      <trkpt lat="49.39928" lon="20.43568"></trkpt>
      <trkpt lat="49.40029" lon="20.43564"></trkpt>
      <trkpt lat="49.40187" lon="20.43501"></trkpt>
      <trkpt lat="49.4023" lon="20.43513"></trkpt>
      <trkpt lat="49.40507" lon="20.43724"></trkpt>
      <trkpt lat="49.40585" lon="20.43749"></trkpt>
      <trkpt lat="49.40677" lon="20.43745"></trkpt>
      <trkpt lat="49.40741" lon="20.43687"></trkpt>
      <trkpt lat="49.40779" lon="20.43608"></trkpt>
      <trkpt lat="49.4081" lon="20.43528"></trkpt>
      <trkpt lat="49.40845" lon="20.43382"></trkpt>
      <trkpt lat="49.40848" lon="20.432"></trkpt>
      <trkpt lat="49.40807" lon="20.42995"></trkpt>
      <trkpt lat="49.40815" lon="20.42923"></trkpt>
      <trkpt lat="49.40838" lon="20.42915"></trkpt>
      <trkpt lat="49.40987" lon="20.42979"></trkpt>
      <trkpt lat="49.41134" lon="20.4298"></trkpt>
      <trkpt lat="49.41212" lon="20.42946"></trkpt>
      <trkpt lat="49.41281" lon="20.42973"></trkpt>
      <trkpt lat="49.41492" lon="20.43009"></trkpt>
      <trkpt lat="49.41595" lon="20.43049"></trkpt>
      <trkpt lat="49.41642" lon="20.43098"></trkpt>
      <trkpt lat="49.41699" lon="20.43218"></trkpt>
      <trkpt lat="49.41735" lon="20.43357"></trkpt>
      <trkpt lat="49.41754" lon="20.43548"></trkpt>
      <trkpt lat="49.41749" lon="20.43601"></trkpt>
      <trkpt lat="49.41735" lon="20.43638"></trkpt>
      <trkpt lat="49.41706" lon="20.43663"></trkpt>
      <trkpt lat="49.41533" lon="20.43712"></trkpt>
      <trkpt lat="49.41455" lon="20.43791"></trkpt>
      <trkpt lat="49.41439" lon="20.43825"></trkpt>
      <trkpt lat="49.41425" lon="20.43869"></trkpt>
      <trkpt lat="49.41416" lon="20.4403"></trkpt>
      <trkpt lat="49.41372" lon="20.44247"></trkpt>
      <trkpt lat="49.41337" lon="20.44322"></trkpt>
      <trkpt lat="49.41259" lon="20.44388"></trkpt>
      <trkpt lat="49.41233" lon="20.44427"></trkpt>
      <trkpt lat="49.41169" lon="20.44596"></trkpt>
      <trkpt lat="49.41158" lon="20.4468"></trkpt>
      <trkpt lat="49.4117" lon="20.44866"></trkpt>
      <trkpt lat="49.41189" lon="20.44973"></trkpt>
      <trkpt lat="49.41186" lon="20.45039"></trkpt>
      <trkpt lat="49.41206" lon="20.45111"></trkpt>
      <trkpt lat="49.41233" lon="20.45149"></trkpt>
      <trkpt lat="49.41262" lon="20.4516"></trkpt>
      <trkpt lat="49.41319" lon="20.45138"></trkpt>
      <trkpt lat="49.4136" lon="20.45054"></trkpt>
      <trkpt lat="49.41395" lon="20.45025"></trkpt>
      <trkpt lat="49.41389" lon="20.44932"></trkpt>
      <trkpt lat="49.41441" lon="20.44842"></trkpt>
      <trkpt lat="49.41589" lon="20.44648"></trkpt>
      <trkpt lat="49.41627" lon="20.44644"></trkpt>
      <trkpt lat="49.41663" lon="20.44764"></trkpt>
      <trkpt lat="49.41652" lon="20.44998"></trkpt>
      <trkpt lat="49.41757" lon="20.45405"></trkpt>
      <trkpt lat="49.41806" lon="20.45539"></trkpt>
      <trkpt lat="49.41985" lon="20.45795"></trkpt>
      <trkpt lat="49.42073" lon="20.45869"></trkpt>
      <trkpt lat="49.42207" lon="20.45915"></trkpt>
      <trkpt lat="49.42343" lon="20.46021"></trkpt>
      <trkpt lat="49.42396" lon="20.46172"></trkpt>
      <trkpt lat="49.42404" lon="20.46397"></trkpt>
      <trkpt lat="49.42453" lon="20.46601"></trkpt>
      <trkpt lat="49.42579" lon="20.46672"></trkpt>
      <trkpt lat="49.42603" lon="20.46728"></trkpt>
      <trkpt lat="49.42604" lon="20.46789"></trkpt>
      <trkpt lat="49.42647" lon="20.46807"></trkpt>
    </trkseg>
  </trk>
</gpx>
