<?xml version="1.0" encoding="UTF-8"?>
<gpx version="1.1" creator="szlakipienin.pl" xmlns="http://www.topografix.com/GPX/1/1">
  <metadata>
    <name>Wodospad Zaskalnik</name>
    <desc>2.7 km, 53 min, 121 m podejść. Opis trasy: https://szlakipienin.pl/szlaki/wodospad-zaskalnik</desc>
    <link href="https://szlakipienin.pl/szlaki/wodospad-zaskalnik"><text>Wodospad Zaskalnik</text></link>
  </metadata>
  <trk>
    <name>Wodospad Zaskalnik</name>
    <trkseg>
      <trkpt lat="49.42514" lon="20.48259"></trkpt>
      <trkpt lat="49.42521" lon="20.48271"></trkpt>
      <trkpt lat="49.4253" lon="20.48288"></trkpt>
      <trkpt lat="49.42538" lon="20.48303"></trkpt>
      <trkpt lat="49.42536" lon="20.48307"></trkpt>
      <trkpt lat="49.42538" lon="20.48317"></trkpt>
      <trkpt lat="49.42558" lon="20.48355"></trkpt>
      <trkpt lat="49.42575" lon="20.48386"></trkpt>
      <trkpt lat="49.42581" lon="20.484"></trkpt>
      <trkpt lat="49.42599" lon="20.48455"></trkpt>
      <trkpt lat="49.42605" lon="20.48465"></trkpt>
      <trkpt lat="49.42602" lon="20.48471"></trkpt>
      <trkpt lat="49.42596" lon="20.48482"></trkpt>
      <trkpt lat="49.42594" lon="20.48485"></trkpt>
      <trkpt lat="49.42589" lon="20.48502"></trkpt>
      <trkpt lat="49.42587" lon="20.48502"></trkpt>
      <trkpt lat="49.42584" lon="20.485"></trkpt>
      <trkpt lat="49.42581" lon="20.48519"></trkpt>
      <trkpt lat="49.42574" lon="20.48516"></trkpt>
      <trkpt lat="49.42572" lon="20.48531"></trkpt>
      <trkpt lat="49.42575" lon="20.48532"></trkpt>
      <trkpt lat="49.42572" lon="20.48549"></trkpt>
      <trkpt lat="49.42574" lon="20.48556"></trkpt>
      <trkpt lat="49.4259" lon="20.48563"></trkpt>
      <trkpt lat="49.42584" lon="20.48604"></trkpt>
      <trkpt lat="49.42598" lon="20.48614"></trkpt>
      <trkpt lat="49.42606" lon="20.48624"></trkpt>
      <trkpt lat="49.42614" lon="20.48633"></trkpt>
      <trkpt lat="49.42637" lon="20.48669"></trkpt>
      <trkpt lat="49.42651" lon="20.48693"></trkpt>
      <trkpt lat="49.4265" lon="20.48695"></trkpt>
      <trkpt lat="49.4263" lon="20.48712"></trkpt>
      <trkpt lat="49.42626" lon="20.48722"></trkpt>
      <trkpt lat="49.42594" lon="20.48723"></trkpt>
      <trkpt lat="49.42588" lon="20.48746"></trkpt>
      <trkpt lat="49.42585" lon="20.48758"></trkpt>
      <trkpt lat="49.42586" lon="20.48764"></trkpt>
      <trkpt lat="49.4257" lon="20.48806"></trkpt>
      <trkpt lat="49.42569" lon="20.48811"></trkpt>
      <trkpt lat="49.42564" lon="20.48829"></trkpt>
      <trkpt lat="49.42562" lon="20.48833"></trkpt>
      <trkpt lat="49.4256" lon="20.4884"></trkpt>
      <trkpt lat="49.42558" lon="20.48843"></trkpt>
      <trkpt lat="49.42555" lon="20.48854"></trkpt>
      <trkpt lat="49.42555" lon="20.48856"></trkpt>
      <trkpt lat="49.42543" lon="20.48903"></trkpt>
      <trkpt lat="49.42524" lon="20.48975"></trkpt>
      <trkpt lat="49.42492" lon="20.491"></trkpt>
      <trkpt lat="49.42492" lon="20.49104"></trkpt>
      <trkpt lat="49.42491" lon="20.49112"></trkpt>
      <trkpt lat="49.42475" lon="20.49147"></trkpt>
      <trkpt lat="49.42455" lon="20.49184"></trkpt>
      <trkpt lat="49.42449" lon="20.49194"></trkpt>
      <trkpt lat="49.4242" lon="20.49241"></trkpt>
      <trkpt lat="49.42429" lon="20.49267"></trkpt>
      <trkpt lat="49.42449" lon="20.49325"></trkpt>
      <trkpt lat="49.42456" lon="20.49343"></trkpt>
      <trkpt lat="49.42468" lon="20.49364"></trkpt>
      <trkpt lat="49.42476" lon="20.49385"></trkpt>
      <trkpt lat="49.42489" lon="20.49441"></trkpt>
      <trkpt lat="49.42504" lon="20.49483"></trkpt>
      <trkpt lat="49.4252" lon="20.49529"></trkpt>
      <trkpt lat="49.42529" lon="20.49544"></trkpt>
      <trkpt lat="49.42544" lon="20.49557"></trkpt>
      <trkpt lat="49.42584" lon="20.49577"></trkpt>
      <trkpt lat="49.42599" lon="20.49586"></trkpt>
      <trkpt lat="49.42639" lon="20.49619"></trkpt>
      <trkpt lat="49.42678" lon="20.49672"></trkpt>
      <trkpt lat="49.42701" lon="20.49687"></trkpt>
      <trkpt lat="49.42742" lon="20.49691"></trkpt>
      <trkpt lat="49.4277" lon="20.49724"></trkpt>
      <trkpt lat="49.42833" lon="20.49793"></trkpt>
      <trkpt lat="49.42855" lon="20.49831"></trkpt>
      <trkpt lat="49.42861" lon="20.49846"></trkpt>
      <trkpt lat="49.42882" lon="20.49894"></trkpt>
      <trkpt lat="49.42894" lon="20.49906"></trkpt>
      <trkpt lat="49.42923" lon="20.49909"></trkpt>
      <trkpt lat="49.42963" lon="20.49935"></trkpt>
      <trkpt lat="49.43006" lon="20.49963"></trkpt>
      <trkpt lat="49.43012" lon="20.49972"></trkpt>
      <trkpt lat="49.4304" lon="20.50009"></trkpt>
      <trkpt lat="49.43041" lon="20.50014"></trkpt>
      <trkpt lat="49.43043" lon="20.50019"></trkpt>
      <trkpt lat="49.43041" lon="20.5003"></trkpt>
      <trkpt lat="49.43071" lon="20.50044"></trkpt>
      <trkpt lat="49.43087" lon="20.50063"></trkpt>
      <trkpt lat="49.43103" lon="20.50093"></trkpt>
      <trkpt lat="49.43118" lon="20.50115"></trkpt>
      <trkpt lat="49.4314" lon="20.50122"></trkpt>
      <trkpt lat="49.43168" lon="20.50115"></trkpt>
      <trkpt lat="49.43231" lon="20.50106"></trkpt>
      <trkpt lat="49.43244" lon="20.50114"></trkpt>
      <trkpt lat="49.43279" lon="20.50157"></trkpt>
      <trkpt lat="49.43349" lon="20.50244"></trkpt>
      <trkpt lat="49.43383" lon="20.50269"></trkpt>
      <trkpt lat="49.4347" lon="20.50291"></trkpt>
      <trkpt lat="49.43544" lon="20.50293"></trkpt>
      <trkpt lat="49.43587" lon="20.50304"></trkpt>
      <trkpt lat="49.43646" lon="20.50331"></trkpt>
      <trkpt lat="49.43673" lon="20.50333"></trkpt>
      <trkpt lat="49.43683" lon="20.50335"></trkpt>
      <trkpt lat="49.43691" lon="20.50339"></trkpt>
      <trkpt lat="49.43698" lon="20.50345"></trkpt>
      <trkpt lat="49.43706" lon="20.50351"></trkpt>
      <trkpt lat="49.43705" lon="20.50366"></trkpt>
      <trkpt lat="49.43704" lon="20.50369"></trkpt>
      <trkpt lat="49.43702" lon="20.50372"></trkpt>
      <trkpt lat="49.43701" lon="20.50376"></trkpt>
      <trkpt lat="49.43699" lon="20.50379"></trkpt>
    </trkseg>
  </trk>
</gpx>
