<?xml version="1.0" encoding="UTF-8"?>
<gpx version="1.1" creator="szlakipienin.pl" xmlns="http://www.topografix.com/GPX/1/1">
  <metadata>
    <name>Z wizytą u św. Kingi</name>
    <desc>13 km, 295 min, 780 m podejść. Opis trasy: https://szlakipienin.pl/szlaki/z-wizyta-u-sw-kingi</desc>
    <link href="https://szlakipienin.pl/szlaki/z-wizyta-u-sw-kingi"><text>Z wizytą u św. Kingi</text></link>
  </metadata>
  <trk>
    <name>Z wizytą u św. Kingi</name>
    <trkseg>
      <trkpt lat="49.4288" lon="20.48749"></trkpt>
      <trkpt lat="49.42881" lon="20.48747"></trkpt>
      <trkpt lat="49.42883" lon="20.48743"></trkpt>
      <trkpt lat="49.42884" lon="20.48737"></trkpt>
      <trkpt lat="49.42883" lon="20.48728"></trkpt>
      <trkpt lat="49.4288" lon="20.48719"></trkpt>
      <trkpt lat="49.42871" lon="20.48699"></trkpt>
      <trkpt lat="49.42861" lon="20.48689"></trkpt>
      <trkpt lat="49.42849" lon="20.48681"></trkpt>
      <trkpt lat="49.42831" lon="20.48673"></trkpt>
      <trkpt lat="49.42823" lon="20.48668"></trkpt>
      <trkpt lat="49.42809" lon="20.48661"></trkpt>
      <trkpt lat="49.42764" lon="20.48624"></trkpt>
      <trkpt lat="49.42729" lon="20.48591"></trkpt>
      <trkpt lat="49.42688" lon="20.48553"></trkpt>
      <trkpt lat="49.4266" lon="20.48519"></trkpt>
      <trkpt lat="49.42647" lon="20.48497"></trkpt>
      <trkpt lat="49.42639" lon="20.48484"></trkpt>
      <trkpt lat="49.42622" lon="20.48474"></trkpt>
      <trkpt lat="49.42611" lon="20.48461"></trkpt>
      <trkpt lat="49.42604" lon="20.48446"></trkpt>
      <trkpt lat="49.42591" lon="20.4841"></trkpt>
      <trkpt lat="49.42584" lon="20.48391"></trkpt>
      <trkpt lat="49.42579" lon="20.48378"></trkpt>
      <trkpt lat="49.42561" lon="20.48343"></trkpt>
      <trkpt lat="49.42544" lon="20.48312"></trkpt>
      <trkpt lat="49.42538" lon="20.48303"></trkpt>
      <trkpt lat="49.4253" lon="20.48288"></trkpt>
      <trkpt lat="49.42521" lon="20.48271"></trkpt>
      <trkpt lat="49.42514" lon="20.48259"></trkpt>
      <trkpt lat="49.42528" lon="20.48233"></trkpt>
      <trkpt lat="49.4254" lon="20.48206"></trkpt>
      <trkpt lat="49.42547" lon="20.48187"></trkpt>
      <trkpt lat="49.42555" lon="20.48166"></trkpt>
      <trkpt lat="49.4256" lon="20.48153"></trkpt>
      <trkpt lat="49.42569" lon="20.48131"></trkpt>
      <trkpt lat="49.42578" lon="20.48107"></trkpt>
      <trkpt lat="49.42574" lon="20.48103"></trkpt>
      <trkpt lat="49.42564" lon="20.48097"></trkpt>
      <trkpt lat="49.42562" lon="20.48099"></trkpt>
      <trkpt lat="49.42555" lon="20.48104"></trkpt>
      <trkpt lat="49.42555" lon="20.48079"></trkpt>
      <trkpt lat="49.42557" lon="20.48074"></trkpt>
      <trkpt lat="49.42542" lon="20.48064"></trkpt>
      <trkpt lat="49.4255" lon="20.48034"></trkpt>
      <trkpt lat="49.4252" lon="20.48031"></trkpt>
      <trkpt lat="49.42517" lon="20.48047"></trkpt>
      <trkpt lat="49.42512" lon="20.48054"></trkpt>
      <trkpt lat="49.42508" lon="20.48058"></trkpt>
      <trkpt lat="49.42503" lon="20.48059"></trkpt>
      <trkpt lat="49.42497" lon="20.48057"></trkpt>
      <trkpt lat="49.42468" lon="20.48038"></trkpt>
      <trkpt lat="49.42467" lon="20.48037"></trkpt>
      <trkpt lat="49.42465" lon="20.48036"></trkpt>
      <trkpt lat="49.42441" lon="20.48025"></trkpt>
      <trkpt lat="49.42436" lon="20.48023"></trkpt>
      <trkpt lat="49.42433" lon="20.48021"></trkpt>
      <trkpt lat="49.42429" lon="20.4804"></trkpt>
      <trkpt lat="49.42423" lon="20.48087"></trkpt>
      <trkpt lat="49.42415" lon="20.48126"></trkpt>
      <trkpt lat="49.42411" lon="20.48145"></trkpt>
      <trkpt lat="49.42392" lon="20.4822"></trkpt>
      <trkpt lat="49.42385" lon="20.48249"></trkpt>
      <trkpt lat="49.42361" lon="20.48231"></trkpt>
      <trkpt lat="49.42357" lon="20.48225"></trkpt>
      <trkpt lat="49.42354" lon="20.48217"></trkpt>
      <trkpt lat="49.42354" lon="20.48205"></trkpt>
      <trkpt lat="49.42356" lon="20.48196"></trkpt>
      <trkpt lat="49.42356" lon="20.48193"></trkpt>
      <trkpt lat="49.42362" lon="20.48176"></trkpt>
      <trkpt lat="49.42362" lon="20.48154"></trkpt>
      <trkpt lat="49.42361" lon="20.48149"></trkpt>
      <trkpt lat="49.42359" lon="20.48146"></trkpt>
      <trkpt lat="49.42356" lon="20.48147"></trkpt>
      <trkpt lat="49.4235" lon="20.48151"></trkpt>
      <trkpt lat="49.42339" lon="20.48165"></trkpt>
      <trkpt lat="49.42324" lon="20.48182"></trkpt>
      <trkpt lat="49.42309" lon="20.48194"></trkpt>
      <trkpt lat="49.42285" lon="20.48211"></trkpt>
      <trkpt lat="49.42257" lon="20.48225"></trkpt>
      <trkpt lat="49.42244" lon="20.48229"></trkpt>
      <trkpt lat="49.42231" lon="20.48228"></trkpt>
      <trkpt lat="49.42222" lon="20.48219"></trkpt>
      <trkpt lat="49.42223" lon="20.48203"></trkpt>
      <trkpt lat="49.42227" lon="20.48182"></trkpt>
      <trkpt lat="49.42233" lon="20.48153"></trkpt>
      <trkpt lat="49.42236" lon="20.48131"></trkpt>
      <trkpt lat="49.42238" lon="20.48103"></trkpt>
      <trkpt lat="49.42232" lon="20.48073"></trkpt>
      <trkpt lat="49.42223" lon="20.48053"></trkpt>
      <trkpt lat="49.42206" lon="20.48038"></trkpt>
      <trkpt lat="49.42194" lon="20.48031"></trkpt>
      <trkpt lat="49.42183" lon="20.48028"></trkpt>
      <trkpt lat="49.42161" lon="20.48019"></trkpt>
      <trkpt lat="49.42143" lon="20.48008"></trkpt>
      <trkpt lat="49.42127" lon="20.47994"></trkpt>
      <trkpt lat="49.42125" lon="20.47987"></trkpt>
      <trkpt lat="49.42124" lon="20.47974"></trkpt>
      <trkpt lat="49.42129" lon="20.47939"></trkpt>
      <trkpt lat="49.42132" lon="20.47889"></trkpt>
      <trkpt lat="49.42127" lon="20.47865"></trkpt>
      <trkpt lat="49.42114" lon="20.47828"></trkpt>
      <trkpt lat="49.42101" lon="20.47805"></trkpt>
      <trkpt lat="49.42091" lon="20.47773"></trkpt>
      <trkpt lat="49.42084" lon="20.4775"></trkpt>
      <trkpt lat="49.42079" lon="20.47724"></trkpt>
      <trkpt lat="49.4207" lon="20.47701"></trkpt>
      <trkpt lat="49.42059" lon="20.47685"></trkpt>
      <trkpt lat="49.42047" lon="20.47675"></trkpt>
      <trkpt lat="49.42029" lon="20.4767"></trkpt>
      <trkpt lat="49.42019" lon="20.47671"></trkpt>
      <trkpt lat="49.42002" lon="20.47669"></trkpt>
      <trkpt lat="49.41989" lon="20.47666"></trkpt>
      <trkpt lat="49.41978" lon="20.47668"></trkpt>
      <trkpt lat="49.41968" lon="20.47679"></trkpt>
      <trkpt lat="49.41963" lon="20.47689"></trkpt>
      <trkpt lat="49.41953" lon="20.47692"></trkpt>
      <trkpt lat="49.41943" lon="20.477"></trkpt>
      <trkpt lat="49.41937" lon="20.47708"></trkpt>
      <trkpt lat="49.41935" lon="20.47707"></trkpt>
      <trkpt lat="49.41929" lon="20.47697"></trkpt>
      <trkpt lat="49.41925" lon="20.47691"></trkpt>
      <trkpt lat="49.41919" lon="20.4769"></trkpt>
      <trkpt lat="49.41916" lon="20.47681"></trkpt>
      <trkpt lat="49.41915" lon="20.47681"></trkpt>
      <trkpt lat="49.4191" lon="20.47687"></trkpt>
      <trkpt lat="49.41906" lon="20.47687"></trkpt>
      <trkpt lat="49.41904" lon="20.47684"></trkpt>
      <trkpt lat="49.41903" lon="20.47673"></trkpt>
      <trkpt lat="49.41904" lon="20.47652"></trkpt>
      <trkpt lat="49.41899" lon="20.4764"></trkpt>
      <trkpt lat="49.41893" lon="20.47635"></trkpt>
      <trkpt lat="49.41892" lon="20.47633"></trkpt>
      <trkpt lat="49.41886" lon="20.47631"></trkpt>
      <trkpt lat="49.41881" lon="20.47633"></trkpt>
      <trkpt lat="49.41871" lon="20.47645"></trkpt>
      <trkpt lat="49.41848" lon="20.47641"></trkpt>
      <trkpt lat="49.41842" lon="20.47642"></trkpt>
      <trkpt lat="49.41837" lon="20.47657"></trkpt>
      <trkpt lat="49.4183" lon="20.47658"></trkpt>
      <trkpt lat="49.41821" lon="20.47658"></trkpt>
      <trkpt lat="49.41789" lon="20.4759"></trkpt>
      <trkpt lat="49.41779" lon="20.47585"></trkpt>
      <trkpt lat="49.41768" lon="20.47586"></trkpt>
      <trkpt lat="49.41733" lon="20.47618"></trkpt>
      <trkpt lat="49.41719" lon="20.47631"></trkpt>
      <trkpt lat="49.41692" lon="20.47662"></trkpt>
      <trkpt lat="49.41675" lon="20.47679"></trkpt>
      <trkpt lat="49.41648" lon="20.47689"></trkpt>
      <trkpt lat="49.41638" lon="20.4769"></trkpt>
      <trkpt lat="49.41633" lon="20.47689"></trkpt>
      <trkpt lat="49.41627" lon="20.47688"></trkpt>
      <trkpt lat="49.41597" lon="20.4768"></trkpt>
      <trkpt lat="49.41561" lon="20.47668"></trkpt>
      <trkpt lat="49.4154" lon="20.4767"></trkpt>
      <trkpt lat="49.41504" lon="20.47674"></trkpt>
      <trkpt lat="49.41472" lon="20.47678"></trkpt>
      <trkpt lat="49.41463" lon="20.47685"></trkpt>
      <trkpt lat="49.41427" lon="20.47688"></trkpt>
      <trkpt lat="49.41409" lon="20.47668"></trkpt>
      <trkpt lat="49.41393" lon="20.47682"></trkpt>
      <trkpt lat="49.4138" lon="20.47682"></trkpt>
      <trkpt lat="49.4137" lon="20.4768"></trkpt>
      <trkpt lat="49.41359" lon="20.47674"></trkpt>
      <trkpt lat="49.41367" lon="20.47664"></trkpt>
      <trkpt lat="49.41382" lon="20.4765"></trkpt>
      <trkpt lat="49.41389" lon="20.47644"></trkpt>
      <trkpt lat="49.41398" lon="20.47635"></trkpt>
      <trkpt lat="49.41408" lon="20.47623"></trkpt>
      <trkpt lat="49.41412" lon="20.4761"></trkpt>
      <trkpt lat="49.41414" lon="20.47601"></trkpt>
      <trkpt lat="49.41417" lon="20.4758"></trkpt>
      <trkpt lat="49.41419" lon="20.47574"></trkpt>
      <trkpt lat="49.41419" lon="20.47567"></trkpt>
      <trkpt lat="49.41423" lon="20.47566"></trkpt>
      <trkpt lat="49.41423" lon="20.47559"></trkpt>
      <trkpt lat="49.41425" lon="20.47549"></trkpt>
      <trkpt lat="49.41429" lon="20.47547"></trkpt>
      <trkpt lat="49.41429" lon="20.47537"></trkpt>
      <trkpt lat="49.41435" lon="20.47531"></trkpt>
      <trkpt lat="49.41436" lon="20.47525"></trkpt>
      <trkpt lat="49.4145" lon="20.47487"></trkpt>
      <trkpt lat="49.41457" lon="20.47462"></trkpt>
      <trkpt lat="49.41462" lon="20.47438"></trkpt>
      <trkpt lat="49.41473" lon="20.47412"></trkpt>
      <trkpt lat="49.41476" lon="20.47392"></trkpt>
      <trkpt lat="49.41483" lon="20.47375"></trkpt>
      <trkpt lat="49.41487" lon="20.47362"></trkpt>
      <trkpt lat="49.4149" lon="20.47348"></trkpt>
      <trkpt lat="49.41495" lon="20.47329"></trkpt>
      <trkpt lat="49.41512" lon="20.47292"></trkpt>
      <trkpt lat="49.41522" lon="20.47269"></trkpt>
      <trkpt lat="49.41526" lon="20.47259"></trkpt>
      <trkpt lat="49.41531" lon="20.47237"></trkpt>
      <trkpt lat="49.41532" lon="20.47231"></trkpt>
      <trkpt lat="49.41535" lon="20.47221"></trkpt>
      <trkpt lat="49.41541" lon="20.47211"></trkpt>
      <trkpt lat="49.41545" lon="20.47197"></trkpt>
      <trkpt lat="49.41548" lon="20.47166"></trkpt>
      <trkpt lat="49.41554" lon="20.4714"></trkpt>
      <trkpt lat="49.41558" lon="20.47128"></trkpt>
      <trkpt lat="49.41565" lon="20.47115"></trkpt>
      <trkpt lat="49.41573" lon="20.47096"></trkpt>
      <trkpt lat="49.41577" lon="20.47076"></trkpt>
      <trkpt lat="49.41573" lon="20.47059"></trkpt>
      <trkpt lat="49.41564" lon="20.47039"></trkpt>
      <trkpt lat="49.41554" lon="20.47021"></trkpt>
      <trkpt lat="49.41549" lon="20.47003"></trkpt>
      <trkpt lat="49.41547" lon="20.46972"></trkpt>
      <trkpt lat="49.41549" lon="20.46965"></trkpt>
      <trkpt lat="49.41559" lon="20.46932"></trkpt>
      <trkpt lat="49.41569" lon="20.4689"></trkpt>
      <trkpt lat="49.41573" lon="20.46867"></trkpt>
      <trkpt lat="49.41579" lon="20.46819"></trkpt>
      <trkpt lat="49.41582" lon="20.46789"></trkpt>
      <trkpt lat="49.41585" lon="20.46775"></trkpt>
      <trkpt lat="49.4159" lon="20.46759"></trkpt>
      <trkpt lat="49.41595" lon="20.46734"></trkpt>
      <trkpt lat="49.41602" lon="20.46699"></trkpt>
      <trkpt lat="49.41606" lon="20.46673"></trkpt>
      <trkpt lat="49.41607" lon="20.46654"></trkpt>
      <trkpt lat="49.41608" lon="20.46629"></trkpt>
      <trkpt lat="49.41609" lon="20.46574"></trkpt>
      <trkpt lat="49.4161" lon="20.46529"></trkpt>
      <trkpt lat="49.41608" lon="20.46492"></trkpt>
      <trkpt lat="49.41607" lon="20.4646"></trkpt>
      <trkpt lat="49.41604" lon="20.4645"></trkpt>
      <trkpt lat="49.41603" lon="20.46441"></trkpt>
      <trkpt lat="49.41602" lon="20.46431"></trkpt>
      <trkpt lat="49.416" lon="20.46425"></trkpt>
      <trkpt lat="49.416" lon="20.46408"></trkpt>
      <trkpt lat="49.41597" lon="20.46392"></trkpt>
      <trkpt lat="49.41595" lon="20.46382"></trkpt>
      <trkpt lat="49.4159" lon="20.46367"></trkpt>
      <trkpt lat="49.41587" lon="20.46361"></trkpt>
      <trkpt lat="49.41582" lon="20.46353"></trkpt>
      <trkpt lat="49.41577" lon="20.46347"></trkpt>
      <trkpt lat="49.41572" lon="20.46336"></trkpt>
      <trkpt lat="49.4157" lon="20.46328"></trkpt>
      <trkpt lat="49.41571" lon="20.46319"></trkpt>
      <trkpt lat="49.41568" lon="20.46301"></trkpt>
      <trkpt lat="49.41569" lon="20.46289"></trkpt>
      <trkpt lat="49.41572" lon="20.46278"></trkpt>
      <trkpt lat="49.41578" lon="20.46266"></trkpt>
      <trkpt lat="49.41586" lon="20.46257"></trkpt>
      <trkpt lat="49.41594" lon="20.46248"></trkpt>
      <trkpt lat="49.41596" lon="20.46239"></trkpt>
      <trkpt lat="49.41602" lon="20.46227"></trkpt>
      <trkpt lat="49.41605" lon="20.4622"></trkpt>
      <trkpt lat="49.41607" lon="20.46211"></trkpt>
      <trkpt lat="49.41606" lon="20.46197"></trkpt>
      <trkpt lat="49.4161" lon="20.46187"></trkpt>
      <trkpt lat="49.41619" lon="20.46167"></trkpt>
      <trkpt lat="49.4163" lon="20.4615"></trkpt>
      <trkpt lat="49.41637" lon="20.4615"></trkpt>
      <trkpt lat="49.41648" lon="20.46154"></trkpt>
      <trkpt lat="49.41655" lon="20.46152"></trkpt>
      <trkpt lat="49.41662" lon="20.46143"></trkpt>
      <trkpt lat="49.41669" lon="20.46127"></trkpt>
      <trkpt lat="49.4167" lon="20.46108"></trkpt>
      <trkpt lat="49.41668" lon="20.46086"></trkpt>
      <trkpt lat="49.41671" lon="20.46073"></trkpt>
      <trkpt lat="49.41679" lon="20.4606"></trkpt>
      <trkpt lat="49.417" lon="20.46038"></trkpt>
      <trkpt lat="49.41708" lon="20.46027"></trkpt>
      <trkpt lat="49.41729" lon="20.45988"></trkpt>
      <trkpt lat="49.41736" lon="20.45959"></trkpt>
      <trkpt lat="49.4174" lon="20.45946"></trkpt>
      <trkpt lat="49.41744" lon="20.45934"></trkpt>
      <trkpt lat="49.41756" lon="20.45916"></trkpt>
      <trkpt lat="49.41767" lon="20.45901"></trkpt>
      <trkpt lat="49.41777" lon="20.4588"></trkpt>
      <trkpt lat="49.41783" lon="20.45856"></trkpt>
      <trkpt lat="49.41784" lon="20.45844"></trkpt>
      <trkpt lat="49.41786" lon="20.45834"></trkpt>
      <trkpt lat="49.4179" lon="20.45826"></trkpt>
      <trkpt lat="49.41796" lon="20.45813"></trkpt>
      <trkpt lat="49.41799" lon="20.45797"></trkpt>
      <trkpt lat="49.41801" lon="20.45784"></trkpt>
      <trkpt lat="49.41805" lon="20.45776"></trkpt>
      <trkpt lat="49.41809" lon="20.4577"></trkpt>
      <trkpt lat="49.41813" lon="20.45769"></trkpt>
      <trkpt lat="49.41822" lon="20.45776"></trkpt>
      <trkpt lat="49.4184" lon="20.45763"></trkpt>
      <trkpt lat="49.41851" lon="20.45755"></trkpt>
      <trkpt lat="49.4186" lon="20.45753"></trkpt>
      <trkpt lat="49.41879" lon="20.4576"></trkpt>
      <trkpt lat="49.41878" lon="20.45751"></trkpt>
      <trkpt lat="49.41879" lon="20.45736"></trkpt>
      <trkpt lat="49.41884" lon="20.45727"></trkpt>
      <trkpt lat="49.41891" lon="20.45724"></trkpt>
      <trkpt lat="49.41895" lon="20.45726"></trkpt>
      <trkpt lat="49.41911" lon="20.45748"></trkpt>
      <trkpt lat="49.41918" lon="20.45754"></trkpt>
      <trkpt lat="49.41923" lon="20.45756"></trkpt>
      <trkpt lat="49.41941" lon="20.45758"></trkpt>
      <trkpt lat="49.41945" lon="20.45762"></trkpt>
      <trkpt lat="49.41961" lon="20.45783"></trkpt>
      <trkpt lat="49.41972" lon="20.45794"></trkpt>
      <trkpt lat="49.41986" lon="20.45793"></trkpt>
      <trkpt lat="49.41965" lon="20.45767"></trkpt>
      <trkpt lat="49.41924" lon="20.4571"></trkpt>
      <trkpt lat="49.41865" lon="20.4564"></trkpt>
      <trkpt lat="49.41856" lon="20.45627"></trkpt>
      <trkpt lat="49.41837" lon="20.456"></trkpt>
      <trkpt lat="49.41829" lon="20.45588"></trkpt>
      <trkpt lat="49.41806" lon="20.4554"></trkpt>
      <trkpt lat="49.4179" lon="20.455"></trkpt>
      <trkpt lat="49.41777" lon="20.45459"></trkpt>
      <trkpt lat="49.41764" lon="20.45421"></trkpt>
      <trkpt lat="49.41752" lon="20.45381"></trkpt>
      <trkpt lat="49.41748" lon="20.4537"></trkpt>
      <trkpt lat="49.41746" lon="20.45359"></trkpt>
      <trkpt lat="49.41743" lon="20.45341"></trkpt>
      <trkpt lat="49.41734" lon="20.45293"></trkpt>
      <trkpt lat="49.41745" lon="20.45286"></trkpt>
      <trkpt lat="49.41775" lon="20.45222"></trkpt>
      <trkpt lat="49.4178" lon="20.45213"></trkpt>
      <trkpt lat="49.41784" lon="20.45207"></trkpt>
      <trkpt lat="49.41775" lon="20.45184"></trkpt>
      <trkpt lat="49.41763" lon="20.45153"></trkpt>
      <trkpt lat="49.41757" lon="20.45138"></trkpt>
      <trkpt lat="49.41759" lon="20.45133"></trkpt>
      <trkpt lat="49.41759" lon="20.45125"></trkpt>
      <trkpt lat="49.41755" lon="20.45109"></trkpt>
      <trkpt lat="49.41755" lon="20.45092"></trkpt>
      <trkpt lat="49.41759" lon="20.45073"></trkpt>
      <trkpt lat="49.41767" lon="20.45026"></trkpt>
      <trkpt lat="49.41769" lon="20.44997"></trkpt>
      <trkpt lat="49.4177" lon="20.4497"></trkpt>
      <trkpt lat="49.41776" lon="20.44943"></trkpt>
      <trkpt lat="49.41794" lon="20.44918"></trkpt>
      <trkpt lat="49.41808" lon="20.44912"></trkpt>
      <trkpt lat="49.41826" lon="20.4491"></trkpt>
      <trkpt lat="49.41844" lon="20.44907"></trkpt>
      <trkpt lat="49.41857" lon="20.44895"></trkpt>
      <trkpt lat="49.41865" lon="20.44877"></trkpt>
      <trkpt lat="49.41872" lon="20.44849"></trkpt>
      <trkpt lat="49.41877" lon="20.44816"></trkpt>
      <trkpt lat="49.41885" lon="20.44797"></trkpt>
      <trkpt lat="49.41893" lon="20.44779"></trkpt>
      <trkpt lat="49.41897" lon="20.44755"></trkpt>
      <trkpt lat="49.41902" lon="20.4473"></trkpt>
      <trkpt lat="49.41907" lon="20.44703"></trkpt>
      <trkpt lat="49.41911" lon="20.44683"></trkpt>
      <trkpt lat="49.4191" lon="20.44659"></trkpt>
      <trkpt lat="49.41906" lon="20.44635"></trkpt>
      <trkpt lat="49.41909" lon="20.44612"></trkpt>
      <trkpt lat="49.4191" lon="20.44609"></trkpt>
      <trkpt lat="49.41908" lon="20.44594"></trkpt>
      <trkpt lat="49.41909" lon="20.4458"></trkpt>
      <trkpt lat="49.41907" lon="20.44562"></trkpt>
      <trkpt lat="49.41903" lon="20.4454"></trkpt>
      <trkpt lat="49.41902" lon="20.44521"></trkpt>
      <trkpt lat="49.41901" lon="20.44502"></trkpt>
      <trkpt lat="49.41895" lon="20.4447"></trkpt>
      <trkpt lat="49.41888" lon="20.44439"></trkpt>
      <trkpt lat="49.41886" lon="20.44422"></trkpt>
      <trkpt lat="49.41887" lon="20.44402"></trkpt>
      <trkpt lat="49.41888" lon="20.44383"></trkpt>
      <trkpt lat="49.41884" lon="20.44375"></trkpt>
      <trkpt lat="49.41878" lon="20.44371"></trkpt>
      <trkpt lat="49.41872" lon="20.44365"></trkpt>
      <trkpt lat="49.41867" lon="20.4435"></trkpt>
      <trkpt lat="49.41856" lon="20.44342"></trkpt>
      <trkpt lat="49.41853" lon="20.44333"></trkpt>
      <trkpt lat="49.4185" lon="20.44322"></trkpt>
      <trkpt lat="49.41843" lon="20.44317"></trkpt>
      <trkpt lat="49.41835" lon="20.44314"></trkpt>
      <trkpt lat="49.4183" lon="20.4431"></trkpt>
      <trkpt lat="49.4183" lon="20.44299"></trkpt>
      <trkpt lat="49.41826" lon="20.44294"></trkpt>
      <trkpt lat="49.4182" lon="20.44297"></trkpt>
      <trkpt lat="49.41817" lon="20.44291"></trkpt>
      <trkpt lat="49.41819" lon="20.44278"></trkpt>
      <trkpt lat="49.41815" lon="20.44271"></trkpt>
      <trkpt lat="49.41808" lon="20.44266"></trkpt>
      <trkpt lat="49.41807" lon="20.44252"></trkpt>
      <trkpt lat="49.41801" lon="20.44249"></trkpt>
      <trkpt lat="49.41793" lon="20.44249"></trkpt>
      <trkpt lat="49.41786" lon="20.44243"></trkpt>
      <trkpt lat="49.41788" lon="20.44233"></trkpt>
      <trkpt lat="49.41796" lon="20.44218"></trkpt>
      <trkpt lat="49.41802" lon="20.44206"></trkpt>
      <trkpt lat="49.41799" lon="20.44191"></trkpt>
      <trkpt lat="49.41793" lon="20.44177"></trkpt>
      <trkpt lat="49.41788" lon="20.44178"></trkpt>
      <trkpt lat="49.41781" lon="20.44173"></trkpt>
      <trkpt lat="49.41782" lon="20.44162"></trkpt>
      <trkpt lat="49.41785" lon="20.44144"></trkpt>
      <trkpt lat="49.41796" lon="20.44112"></trkpt>
      <trkpt lat="49.41808" lon="20.44077"></trkpt>
      <trkpt lat="49.41815" lon="20.44058"></trkpt>
      <trkpt lat="49.41827" lon="20.44045"></trkpt>
      <trkpt lat="49.41842" lon="20.44018"></trkpt>
      <trkpt lat="49.41854" lon="20.44002"></trkpt>
      <trkpt lat="49.41868" lon="20.43993"></trkpt>
      <trkpt lat="49.41892" lon="20.43989"></trkpt>
      <trkpt lat="49.4192" lon="20.43952"></trkpt>
      <trkpt lat="49.41937" lon="20.43925"></trkpt>
      <trkpt lat="49.41948" lon="20.43914"></trkpt>
      <trkpt lat="49.41957" lon="20.43903"></trkpt>
      <trkpt lat="49.41971" lon="20.43888"></trkpt>
      <trkpt lat="49.41982" lon="20.4388"></trkpt>
      <trkpt lat="49.42012" lon="20.43878"></trkpt>
      <trkpt lat="49.42027" lon="20.43874"></trkpt>
      <trkpt lat="49.42037" lon="20.43866"></trkpt>
      <trkpt lat="49.42043" lon="20.43854"></trkpt>
      <trkpt lat="49.4205" lon="20.43851"></trkpt>
      <trkpt lat="49.42063" lon="20.43856"></trkpt>
      <trkpt lat="49.42068" lon="20.43849"></trkpt>
      <trkpt lat="49.4208" lon="20.43824"></trkpt>
      <trkpt lat="49.42088" lon="20.43816"></trkpt>
      <trkpt lat="49.42095" lon="20.43798"></trkpt>
      <trkpt lat="49.42104" lon="20.4379"></trkpt>
      <trkpt lat="49.42111" lon="20.438"></trkpt>
      <trkpt lat="49.42119" lon="20.43804"></trkpt>
      <trkpt lat="49.42117" lon="20.43787"></trkpt>
      <trkpt lat="49.42118" lon="20.43776"></trkpt>
      <trkpt lat="49.4213" lon="20.43796"></trkpt>
      <trkpt lat="49.42137" lon="20.438"></trkpt>
      <trkpt lat="49.42137" lon="20.43773"></trkpt>
      <trkpt lat="49.42146" lon="20.43794"></trkpt>
      <trkpt lat="49.42147" lon="20.43768"></trkpt>
      <trkpt lat="49.42156" lon="20.4377"></trkpt>
      <trkpt lat="49.42162" lon="20.43775"></trkpt>
      <trkpt lat="49.4217" lon="20.43778"></trkpt>
      <trkpt lat="49.42177" lon="20.43779"></trkpt>
      <trkpt lat="49.42186" lon="20.43779"></trkpt>
      <trkpt lat="49.42191" lon="20.43775"></trkpt>
      <trkpt lat="49.42191" lon="20.43766"></trkpt>
      <trkpt lat="49.42183" lon="20.43753"></trkpt>
      <trkpt lat="49.42176" lon="20.43738"></trkpt>
      <trkpt lat="49.42173" lon="20.43727"></trkpt>
      <trkpt lat="49.42179" lon="20.43721"></trkpt>
      <trkpt lat="49.42193" lon="20.43716"></trkpt>
      <trkpt lat="49.42197" lon="20.43708"></trkpt>
      <trkpt lat="49.42198" lon="20.43696"></trkpt>
      <trkpt lat="49.42195" lon="20.4368"></trkpt>
      <trkpt lat="49.42198" lon="20.43654"></trkpt>
      <trkpt lat="49.42201" lon="20.43635"></trkpt>
      <trkpt lat="49.42205" lon="20.43614"></trkpt>
      <trkpt lat="49.42208" lon="20.43595"></trkpt>
      <trkpt lat="49.42211" lon="20.43567"></trkpt>
      <trkpt lat="49.42213" lon="20.4354"></trkpt>
      <trkpt lat="49.42225" lon="20.43505"></trkpt>
      <trkpt lat="49.4223" lon="20.4347"></trkpt>
      <trkpt lat="49.42229" lon="20.43453"></trkpt>
      <trkpt lat="49.42226" lon="20.43437"></trkpt>
      <trkpt lat="49.42224" lon="20.43425"></trkpt>
      <trkpt lat="49.42233" lon="20.43435"></trkpt>
      <trkpt lat="49.42241" lon="20.43437"></trkpt>
      <trkpt lat="49.42247" lon="20.43435"></trkpt>
      <trkpt lat="49.42257" lon="20.43424"></trkpt>
      <trkpt lat="49.42259" lon="20.43414"></trkpt>
      <trkpt lat="49.42265" lon="20.43393"></trkpt>
      <trkpt lat="49.4227" lon="20.43365"></trkpt>
      <trkpt lat="49.42282" lon="20.43344"></trkpt>
      <trkpt lat="49.42287" lon="20.43334"></trkpt>
      <trkpt lat="49.42292" lon="20.43319"></trkpt>
      <trkpt lat="49.42293" lon="20.43304"></trkpt>
      <trkpt lat="49.42294" lon="20.43292"></trkpt>
      <trkpt lat="49.42298" lon="20.43273"></trkpt>
      <trkpt lat="49.42304" lon="20.43256"></trkpt>
      <trkpt lat="49.42309" lon="20.43228"></trkpt>
      <trkpt lat="49.42317" lon="20.43218"></trkpt>
      <trkpt lat="49.42326" lon="20.43215"></trkpt>
      <trkpt lat="49.42331" lon="20.43205"></trkpt>
      <trkpt lat="49.42336" lon="20.43188"></trkpt>
      <trkpt lat="49.42347" lon="20.43164"></trkpt>
      <trkpt lat="49.42354" lon="20.43159"></trkpt>
      <trkpt lat="49.42366" lon="20.43156"></trkpt>
      <trkpt lat="49.42371" lon="20.43146"></trkpt>
      <trkpt lat="49.42381" lon="20.43132"></trkpt>
      <trkpt lat="49.4239" lon="20.43124"></trkpt>
      <trkpt lat="49.42405" lon="20.43119"></trkpt>
      <trkpt lat="49.42419" lon="20.4311"></trkpt>
      <trkpt lat="49.4243" lon="20.43093"></trkpt>
      <trkpt lat="49.42447" lon="20.4306"></trkpt>
      <trkpt lat="49.42461" lon="20.43009"></trkpt>
      <trkpt lat="49.42467" lon="20.42991"></trkpt>
      <trkpt lat="49.42466" lon="20.42979"></trkpt>
      <trkpt lat="49.42462" lon="20.42964"></trkpt>
      <trkpt lat="49.42454" lon="20.42953"></trkpt>
      <trkpt lat="49.42452" lon="20.42933"></trkpt>
      <trkpt lat="49.4245" lon="20.42907"></trkpt>
      <trkpt lat="49.4245" lon="20.42873"></trkpt>
      <trkpt lat="49.42444" lon="20.42839"></trkpt>
      <trkpt lat="49.42449" lon="20.42798"></trkpt>
      <trkpt lat="49.4245" lon="20.4277"></trkpt>
      <trkpt lat="49.42459" lon="20.42733"></trkpt>
      <trkpt lat="49.42462" lon="20.42718"></trkpt>
      <trkpt lat="49.42465" lon="20.42694"></trkpt>
      <trkpt lat="49.42464" lon="20.4267"></trkpt>
      <trkpt lat="49.42464" lon="20.42642"></trkpt>
      <trkpt lat="49.42466" lon="20.42611"></trkpt>
      <trkpt lat="49.42473" lon="20.42581"></trkpt>
      <trkpt lat="49.42477" lon="20.4256"></trkpt>
      <trkpt lat="49.42482" lon="20.42533"></trkpt>
      <trkpt lat="49.42482" lon="20.42514"></trkpt>
      <trkpt lat="49.42483" lon="20.42495"></trkpt>
      <trkpt lat="49.42486" lon="20.42474"></trkpt>
      <trkpt lat="49.4249" lon="20.42458"></trkpt>
      <trkpt lat="49.42501" lon="20.4245"></trkpt>
      <trkpt lat="49.42513" lon="20.42446"></trkpt>
      <trkpt lat="49.42526" lon="20.4244"></trkpt>
      <trkpt lat="49.42535" lon="20.42433"></trkpt>
      <trkpt lat="49.42543" lon="20.42421"></trkpt>
      <trkpt lat="49.42547" lon="20.42407"></trkpt>
      <trkpt lat="49.4255" lon="20.42387"></trkpt>
      <trkpt lat="49.42551" lon="20.42371"></trkpt>
      <trkpt lat="49.42557" lon="20.4236"></trkpt>
      <trkpt lat="49.42562" lon="20.42345"></trkpt>
      <trkpt lat="49.42562" lon="20.42338"></trkpt>
      <trkpt lat="49.42559" lon="20.4233"></trkpt>
      <trkpt lat="49.42551" lon="20.42322"></trkpt>
      <trkpt lat="49.42542" lon="20.42304"></trkpt>
      <trkpt lat="49.42537" lon="20.42284"></trkpt>
      <trkpt lat="49.42536" lon="20.42257"></trkpt>
      <trkpt lat="49.42533" lon="20.42225"></trkpt>
      <trkpt lat="49.42534" lon="20.42205"></trkpt>
      <trkpt lat="49.42536" lon="20.42182"></trkpt>
      <trkpt lat="49.4254" lon="20.42172"></trkpt>
      <trkpt lat="49.42554" lon="20.42159"></trkpt>
      <trkpt lat="49.42566" lon="20.42146"></trkpt>
      <trkpt lat="49.42574" lon="20.42132"></trkpt>
      <trkpt lat="49.42585" lon="20.42121"></trkpt>
      <trkpt lat="49.42606" lon="20.42112"></trkpt>
      <trkpt lat="49.42611" lon="20.42107"></trkpt>
      <trkpt lat="49.42613" lon="20.42092"></trkpt>
      <trkpt lat="49.42616" lon="20.42044"></trkpt>
      <trkpt lat="49.42612" lon="20.42012"></trkpt>
      <trkpt lat="49.42601" lon="20.41974"></trkpt>
      <trkpt lat="49.426" lon="20.41937"></trkpt>
      <trkpt lat="49.42602" lon="20.41907"></trkpt>
      <trkpt lat="49.42605" lon="20.4188"></trkpt>
      <trkpt lat="49.42605" lon="20.41861"></trkpt>
      <trkpt lat="49.42603" lon="20.41835"></trkpt>
      <trkpt lat="49.42606" lon="20.4182"></trkpt>
      <trkpt lat="49.4261" lon="20.41801"></trkpt>
      <trkpt lat="49.42608" lon="20.41781"></trkpt>
      <trkpt lat="49.42604" lon="20.41764"></trkpt>
      <trkpt lat="49.42596" lon="20.41734"></trkpt>
      <trkpt lat="49.42587" lon="20.41698"></trkpt>
      <trkpt lat="49.42578" lon="20.41674"></trkpt>
      <trkpt lat="49.42561" lon="20.41642"></trkpt>
      <trkpt lat="49.42552" lon="20.41621"></trkpt>
      <trkpt lat="49.42552" lon="20.41604"></trkpt>
      <trkpt lat="49.42555" lon="20.41587"></trkpt>
      <trkpt lat="49.42564" lon="20.41573"></trkpt>
      <trkpt lat="49.42579" lon="20.41565"></trkpt>
      <trkpt lat="49.42593" lon="20.41559"></trkpt>
      <trkpt lat="49.42603" lon="20.41558"></trkpt>
      <trkpt lat="49.4261" lon="20.41548"></trkpt>
      <trkpt lat="49.42616" lon="20.41526"></trkpt>
      <trkpt lat="49.42619" lon="20.41501"></trkpt>
      <trkpt lat="49.4262" lon="20.41472"></trkpt>
      <trkpt lat="49.42625" lon="20.41443"></trkpt>
      <trkpt lat="49.42635" lon="20.4141"></trkpt>
      <trkpt lat="49.42641" lon="20.41377"></trkpt>
      <trkpt lat="49.42646" lon="20.41342"></trkpt>
      <trkpt lat="49.42647" lon="20.41333"></trkpt>
      <trkpt lat="49.42639" lon="20.41308"></trkpt>
      <trkpt lat="49.42621" lon="20.41275"></trkpt>
      <trkpt lat="49.42607" lon="20.41262"></trkpt>
      <trkpt lat="49.42588" lon="20.41262"></trkpt>
      <trkpt lat="49.42567" lon="20.41259"></trkpt>
      <trkpt lat="49.42553" lon="20.41248"></trkpt>
      <trkpt lat="49.42542" lon="20.41227"></trkpt>
      <trkpt lat="49.42531" lon="20.41172"></trkpt>
      <trkpt lat="49.42501" lon="20.41102"></trkpt>
      <trkpt lat="49.42468" lon="20.41069"></trkpt>
      <trkpt lat="49.4246" lon="20.41057"></trkpt>
      <trkpt lat="49.42455" lon="20.41052"></trkpt>
      <trkpt lat="49.42453" lon="20.41053"></trkpt>
      <trkpt lat="49.42452" lon="20.41053"></trkpt>
      <trkpt lat="49.42449" lon="20.41054"></trkpt>
      <trkpt lat="49.42446" lon="20.41056"></trkpt>
      <trkpt lat="49.42441" lon="20.41067"></trkpt>
      <trkpt lat="49.42417" lon="20.41136"></trkpt>
      <trkpt lat="49.4241" lon="20.41148"></trkpt>
      <trkpt lat="49.42394" lon="20.41154"></trkpt>
      <trkpt lat="49.42378" lon="20.41149"></trkpt>
      <trkpt lat="49.42351" lon="20.41132"></trkpt>
      <trkpt lat="49.42335" lon="20.41116"></trkpt>
      <trkpt lat="49.42324" lon="20.41097"></trkpt>
      <trkpt lat="49.42315" lon="20.41082"></trkpt>
      <trkpt lat="49.42296" lon="20.41054"></trkpt>
      <trkpt lat="49.42285" lon="20.41037"></trkpt>
      <trkpt lat="49.42264" lon="20.41004"></trkpt>
      <trkpt lat="49.42254" lon="20.41"></trkpt>
      <trkpt lat="49.42237" lon="20.40998"></trkpt>
      <trkpt lat="49.42221" lon="20.40992"></trkpt>
      <trkpt lat="49.42198" lon="20.40979"></trkpt>
      <trkpt lat="49.42187" lon="20.40965"></trkpt>
      <trkpt lat="49.4217" lon="20.40943"></trkpt>
      <trkpt lat="49.42161" lon="20.40931"></trkpt>
      <trkpt lat="49.42148" lon="20.40926"></trkpt>
      <trkpt lat="49.42139" lon="20.40928"></trkpt>
      <trkpt lat="49.42129" lon="20.40936"></trkpt>
      <trkpt lat="49.42121" lon="20.40937"></trkpt>
      <trkpt lat="49.42111" lon="20.40931"></trkpt>
      <trkpt lat="49.42097" lon="20.40923"></trkpt>
      <trkpt lat="49.42086" lon="20.4092"></trkpt>
      <trkpt lat="49.42042" lon="20.40903"></trkpt>
      <trkpt lat="49.42037" lon="20.40901"></trkpt>
      <trkpt lat="49.41994" lon="20.40866"></trkpt>
      <trkpt lat="49.41981" lon="20.40858"></trkpt>
      <trkpt lat="49.41935" lon="20.40835"></trkpt>
      <trkpt lat="49.41918" lon="20.40819"></trkpt>
      <trkpt lat="49.419" lon="20.40807"></trkpt>
      <trkpt lat="49.41918" lon="20.40819"></trkpt>
      <trkpt lat="49.41935" lon="20.40835"></trkpt>
      <trkpt lat="49.41981" lon="20.40858"></trkpt>
      <trkpt lat="49.41994" lon="20.40866"></trkpt>
      <trkpt lat="49.42037" lon="20.40901"></trkpt>
      <trkpt lat="49.42042" lon="20.40903"></trkpt>
      <trkpt lat="49.42086" lon="20.4092"></trkpt>
      <trkpt lat="49.42097" lon="20.40923"></trkpt>
      <trkpt lat="49.42111" lon="20.40931"></trkpt>
      <trkpt lat="49.42121" lon="20.40937"></trkpt>
      <trkpt lat="49.42129" lon="20.40936"></trkpt>
      <trkpt lat="49.42139" lon="20.40928"></trkpt>
      <trkpt lat="49.42148" lon="20.40926"></trkpt>
      <trkpt lat="49.42161" lon="20.40931"></trkpt>
      <trkpt lat="49.4217" lon="20.40943"></trkpt>
      <trkpt lat="49.42187" lon="20.40965"></trkpt>
      <trkpt lat="49.42198" lon="20.40979"></trkpt>
      <trkpt lat="49.42221" lon="20.40992"></trkpt>
      <trkpt lat="49.42237" lon="20.40998"></trkpt>
      <trkpt lat="49.42254" lon="20.41"></trkpt>
      <trkpt lat="49.42264" lon="20.41004"></trkpt>
      <trkpt lat="49.42285" lon="20.41037"></trkpt>
      <trkpt lat="49.42264" lon="20.41043"></trkpt>
      <trkpt lat="49.42252" lon="20.41046"></trkpt>
      <trkpt lat="49.42242" lon="20.41047"></trkpt>
      <trkpt lat="49.42233" lon="20.4105"></trkpt>
      <trkpt lat="49.42187" lon="20.41072"></trkpt>
      <trkpt lat="49.42175" lon="20.41081"></trkpt>
      <trkpt lat="49.42168" lon="20.41089"></trkpt>
      <trkpt lat="49.4216" lon="20.41103"></trkpt>
      <trkpt lat="49.42146" lon="20.41134"></trkpt>
      <trkpt lat="49.42142" lon="20.41142"></trkpt>
      <trkpt lat="49.42138" lon="20.41149"></trkpt>
      <trkpt lat="49.42134" lon="20.41153"></trkpt>
      <trkpt lat="49.42122" lon="20.41162"></trkpt>
      <trkpt lat="49.42108" lon="20.41175"></trkpt>
      <trkpt lat="49.42094" lon="20.41191"></trkpt>
      <trkpt lat="49.42089" lon="20.41202"></trkpt>
      <trkpt lat="49.42083" lon="20.41222"></trkpt>
      <trkpt lat="49.42077" lon="20.41251"></trkpt>
      <trkpt lat="49.42075" lon="20.41274"></trkpt>
      <trkpt lat="49.42075" lon="20.41295"></trkpt>
      <trkpt lat="49.4208" lon="20.41328"></trkpt>
      <trkpt lat="49.42084" lon="20.41362"></trkpt>
      <trkpt lat="49.42079" lon="20.41386"></trkpt>
      <trkpt lat="49.42066" lon="20.4142"></trkpt>
      <trkpt lat="49.4206" lon="20.41446"></trkpt>
      <trkpt lat="49.42056" lon="20.41466"></trkpt>
      <trkpt lat="49.42047" lon="20.41483"></trkpt>
      <trkpt lat="49.42025" lon="20.41515"></trkpt>
      <trkpt lat="49.41993" lon="20.41542"></trkpt>
      <trkpt lat="49.41982" lon="20.4155"></trkpt>
      <trkpt lat="49.41961" lon="20.41552"></trkpt>
      <trkpt lat="49.41947" lon="20.41548"></trkpt>
      <trkpt lat="49.41937" lon="20.41543"></trkpt>
      <trkpt lat="49.4193" lon="20.41546"></trkpt>
      <trkpt lat="49.41923" lon="20.41554"></trkpt>
      <trkpt lat="49.4192" lon="20.41569"></trkpt>
      <trkpt lat="49.4192" lon="20.41587"></trkpt>
      <trkpt lat="49.41918" lon="20.416"></trkpt>
      <trkpt lat="49.41911" lon="20.41612"></trkpt>
      <trkpt lat="49.41901" lon="20.4162"></trkpt>
      <trkpt lat="49.41891" lon="20.41624"></trkpt>
      <trkpt lat="49.41882" lon="20.41628"></trkpt>
      <trkpt lat="49.41874" lon="20.41644"></trkpt>
      <trkpt lat="49.41867" lon="20.41659"></trkpt>
      <trkpt lat="49.41859" lon="20.41673"></trkpt>
      <trkpt lat="49.41856" lon="20.4169"></trkpt>
      <trkpt lat="49.41861" lon="20.41718"></trkpt>
      <trkpt lat="49.41858" lon="20.41751"></trkpt>
      <trkpt lat="49.41852" lon="20.41778"></trkpt>
      <trkpt lat="49.41842" lon="20.41801"></trkpt>
      <trkpt lat="49.41827" lon="20.41822"></trkpt>
      <trkpt lat="49.41822" lon="20.41831"></trkpt>
      <trkpt lat="49.41823" lon="20.41837"></trkpt>
      <trkpt lat="49.41828" lon="20.41843"></trkpt>
      <trkpt lat="49.41844" lon="20.41854"></trkpt>
      <trkpt lat="49.41862" lon="20.41862"></trkpt>
      <trkpt lat="49.41875" lon="20.41869"></trkpt>
      <trkpt lat="49.41886" lon="20.41882"></trkpt>
      <trkpt lat="49.41894" lon="20.41894"></trkpt>
      <trkpt lat="49.41911" lon="20.4191"></trkpt>
      <trkpt lat="49.41923" lon="20.41917"></trkpt>
      <trkpt lat="49.41933" lon="20.41919"></trkpt>
      <trkpt lat="49.4194" lon="20.41927"></trkpt>
      <trkpt lat="49.41944" lon="20.41935"></trkpt>
      <trkpt lat="49.41954" lon="20.41956"></trkpt>
      <trkpt lat="49.41967" lon="20.4197"></trkpt>
      <trkpt lat="49.41982" lon="20.41991"></trkpt>
    </trkseg>
  </trk>
</gpx>
