<?xml version="1.0" encoding="UTF-8"?>
<gpx version="1.1" creator="szlakipienin.pl" xmlns="http://www.topografix.com/GPX/1/1">
  <metadata>
    <name>Spacer Harnasia</name>
    <desc>21 km, 400 min, 765 m podejść. Opis trasy: https://szlakipienin.pl/szlaki/spacer-harnasia</desc>
    <link href="https://szlakipienin.pl/szlaki/spacer-harnasia"><text>Spacer Harnasia</text></link>
  </metadata>
  <trk>
    <name>Spacer Harnasia</name>
    <trkseg>
      <trkpt lat="49.40691" lon="20.55354"></trkpt>
      <trkpt lat="49.40668" lon="20.5526"></trkpt>
      <trkpt lat="49.40665" lon="20.55065"></trkpt>
      <trkpt lat="49.40598" lon="20.54759"></trkpt>
      <trkpt lat="49.40569" lon="20.54722"></trkpt>
      <trkpt lat="49.40514" lon="20.54785"></trkpt>
      <trkpt lat="49.40487" lon="20.54797"></trkpt>
      <trkpt lat="49.40396" lon="20.54789"></trkpt>
      <trkpt lat="49.40359" lon="20.54815"></trkpt>
      <trkpt lat="49.40333" lon="20.54802"></trkpt>
      <trkpt lat="49.40301" lon="20.54817"></trkpt>
      <trkpt lat="49.40239" lon="20.54902"></trkpt>
      <trkpt lat="49.40174" lon="20.54912"></trkpt>
      <trkpt lat="49.40157" lon="20.5495"></trkpt>
      <trkpt lat="49.40079" lon="20.55037"></trkpt>
      <trkpt lat="49.39882" lon="20.55065"></trkpt>
      <trkpt lat="49.39849" lon="20.55111"></trkpt>
      <trkpt lat="49.39816" lon="20.5523"></trkpt>
      <trkpt lat="49.39734" lon="20.55276"></trkpt>
      <trkpt lat="49.39701" lon="20.55323"></trkpt>
      <trkpt lat="49.39676" lon="20.55327"></trkpt>
      <trkpt lat="49.3968" lon="20.55398"></trkpt>
      <trkpt lat="49.39547" lon="20.55502"></trkpt>
      <trkpt lat="49.39505" lon="20.55504"></trkpt>
      <trkpt lat="49.39442" lon="20.55534"></trkpt>
      <trkpt lat="49.39348" lon="20.55536"></trkpt>
      <trkpt lat="49.39286" lon="20.55512"></trkpt>
      <trkpt lat="49.39262" lon="20.5548"></trkpt>
      <trkpt lat="49.39208" lon="20.555"></trkpt>
      <trkpt lat="49.39161" lon="20.55469"></trkpt>
      <trkpt lat="49.38936" lon="20.55547"></trkpt>
      <trkpt lat="49.38889" lon="20.55511"></trkpt>
      <trkpt lat="49.38829" lon="20.55502"></trkpt>
      <trkpt lat="49.38744" lon="20.55596"></trkpt>
      <trkpt lat="49.38579" lon="20.55652"></trkpt>
      <trkpt lat="49.38488" lon="20.55708"></trkpt>
      <trkpt lat="49.38323" lon="20.55606"></trkpt>
      <trkpt lat="49.38289" lon="20.55476"></trkpt>
      <trkpt lat="49.3825" lon="20.55418"></trkpt>
      <trkpt lat="49.38232" lon="20.55525"></trkpt>
      <trkpt lat="49.38194" lon="20.55627"></trkpt>
      <trkpt lat="49.38033" lon="20.55747"></trkpt>
      <trkpt lat="49.37976" lon="20.55749"></trkpt>
      <trkpt lat="49.37903" lon="20.55853"></trkpt>
      <trkpt lat="49.37888" lon="20.55926"></trkpt>
      <trkpt lat="49.37917" lon="20.56214"></trkpt>
      <trkpt lat="49.37947" lon="20.56302"></trkpt>
      <trkpt lat="49.37901" lon="20.56609"></trkpt>
      <trkpt lat="49.37897" lon="20.56723"></trkpt>
      <trkpt lat="49.37857" lon="20.56873"></trkpt>
      <trkpt lat="49.37795" lon="20.56984"></trkpt>
      <trkpt lat="49.37743" lon="20.57241"></trkpt>
      <trkpt lat="49.37706" lon="20.57302"></trkpt>
      <trkpt lat="49.37684" lon="20.57429"></trkpt>
      <trkpt lat="49.37695" lon="20.57534"></trkpt>
      <trkpt lat="49.37744" lon="20.57631"></trkpt>
      <trkpt lat="49.37895" lon="20.57702"></trkpt>
      <trkpt lat="49.38191" lon="20.57965"></trkpt>
      <trkpt lat="49.38307" lon="20.58005"></trkpt>
      <trkpt lat="49.38324" lon="20.58057"></trkpt>
      <trkpt lat="49.38402" lon="20.58175"></trkpt>
      <trkpt lat="49.38546" lon="20.5851"></trkpt>
      <trkpt lat="49.3857" lon="20.58649"></trkpt>
      <trkpt lat="49.38454" lon="20.59062"></trkpt>
      <trkpt lat="49.38408" lon="20.59184"></trkpt>
      <trkpt lat="49.38398" lon="20.59345"></trkpt>
      <trkpt lat="49.38514" lon="20.59515"></trkpt>
      <trkpt lat="49.38626" lon="20.59732"></trkpt>
      <trkpt lat="49.38662" lon="20.59779"></trkpt>
      <trkpt lat="49.38722" lon="20.59803"></trkpt>
      <trkpt lat="49.38846" lon="20.60022"></trkpt>
      <trkpt lat="49.38911" lon="20.60078"></trkpt>
      <trkpt lat="49.39026" lon="20.6014"></trkpt>
      <trkpt lat="49.39159" lon="20.60171"></trkpt>
      <trkpt lat="49.39401" lon="20.60091"></trkpt>
      <trkpt lat="49.3946" lon="20.60093"></trkpt>
      <trkpt lat="49.39601" lon="20.60221"></trkpt>
      <trkpt lat="49.39702" lon="20.60257"></trkpt>
      <trkpt lat="49.39777" lon="20.60334"></trkpt>
      <trkpt lat="49.3985" lon="20.6047"></trkpt>
      <trkpt lat="49.39951" lon="20.6054"></trkpt>
      <trkpt lat="49.3999" lon="20.60588"></trkpt>
      <trkpt lat="49.4006" lon="20.60598"></trkpt>
      <trkpt lat="49.40121" lon="20.60576"></trkpt>
      <trkpt lat="49.40138" lon="20.60584"></trkpt>
      <trkpt lat="49.40195" lon="20.60791"></trkpt>
      <trkpt lat="49.40238" lon="20.60882"></trkpt>
      <trkpt lat="49.40254" lon="20.60983"></trkpt>
      <trkpt lat="49.40243" lon="20.61063"></trkpt>
      <trkpt lat="49.40259" lon="20.61173"></trkpt>
      <trkpt lat="49.40257" lon="20.61296"></trkpt>
      <trkpt lat="49.40272" lon="20.61318"></trkpt>
      <trkpt lat="49.40407" lon="20.61315"></trkpt>
      <trkpt lat="49.40537" lon="20.61225"></trkpt>
      <trkpt lat="49.40659" lon="20.61201"></trkpt>
      <trkpt lat="49.40745" lon="20.61156"></trkpt>
      <trkpt lat="49.40899" lon="20.61162"></trkpt>
      <trkpt lat="49.4093" lon="20.6119"></trkpt>
      <trkpt lat="49.41003" lon="20.61214"></trkpt>
      <trkpt lat="49.41085" lon="20.61178"></trkpt>
      <trkpt lat="49.41153" lon="20.6117"></trkpt>
      <trkpt lat="49.4122" lon="20.61122"></trkpt>
      <trkpt lat="49.41326" lon="20.61119"></trkpt>
      <trkpt lat="49.41437" lon="20.61162"></trkpt>
      <trkpt lat="49.41619" lon="20.61287"></trkpt>
      <trkpt lat="49.4166" lon="20.61351"></trkpt>
      <trkpt lat="49.41752" lon="20.61442"></trkpt>
      <trkpt lat="49.41902" lon="20.61509"></trkpt>
      <trkpt lat="49.41948" lon="20.61571"></trkpt>
      <trkpt lat="49.41972" lon="20.61634"></trkpt>
      <trkpt lat="49.42032" lon="20.61687"></trkpt>
      <trkpt lat="49.42053" lon="20.6163"></trkpt>
      <trkpt lat="49.42208" lon="20.61401"></trkpt>
      <trkpt lat="49.42248" lon="20.61311"></trkpt>
      <trkpt lat="49.42503" lon="20.60982"></trkpt>
      <trkpt lat="49.42585" lon="20.60768"></trkpt>
      <trkpt lat="49.42625" lon="20.60536"></trkpt>
      <trkpt lat="49.4269" lon="20.60414"></trkpt>
      <trkpt lat="49.42805" lon="20.60306"></trkpt>
      <trkpt lat="49.42837" lon="20.60133"></trkpt>
      <trkpt lat="49.42791" lon="20.59884"></trkpt>
      <trkpt lat="49.42801" lon="20.59755"></trkpt>
      <trkpt lat="49.42792" lon="20.59684"></trkpt>
      <trkpt lat="49.4276" lon="20.59619"></trkpt>
      <trkpt lat="49.42658" lon="20.59536"></trkpt>
      <trkpt lat="49.42518" lon="20.59571"></trkpt>
      <trkpt lat="49.42413" lon="20.59567"></trkpt>
      <trkpt lat="49.42317" lon="20.5964"></trkpt>
      <trkpt lat="49.4226" lon="20.59614"></trkpt>
      <trkpt lat="49.42216" lon="20.5956"></trkpt>
      <trkpt lat="49.42137" lon="20.59507"></trkpt>
      <trkpt lat="49.42078" lon="20.59504"></trkpt>
      <trkpt lat="49.42045" lon="20.59462"></trkpt>
      <trkpt lat="49.42014" lon="20.59466"></trkpt>
      <trkpt lat="49.4199" lon="20.59492"></trkpt>
      <trkpt lat="49.41949" lon="20.59489"></trkpt>
      <trkpt lat="49.41891" lon="20.5945"></trkpt>
      <trkpt lat="49.41843" lon="20.59478"></trkpt>
      <trkpt lat="49.4177" lon="20.59433"></trkpt>
      <trkpt lat="49.41643" lon="20.59273"></trkpt>
      <trkpt lat="49.41622" lon="20.59263"></trkpt>
      <trkpt lat="49.41419" lon="20.59254"></trkpt>
      <trkpt lat="49.41327" lon="20.59226"></trkpt>
      <trkpt lat="49.41275" lon="20.59248"></trkpt>
      <trkpt lat="49.41095" lon="20.59263"></trkpt>
      <trkpt lat="49.40979" lon="20.5915"></trkpt>
      <trkpt lat="49.40867" lon="20.59125"></trkpt>
      <trkpt lat="49.40807" lon="20.59085"></trkpt>
      <trkpt lat="49.40639" lon="20.58906"></trkpt>
      <trkpt lat="49.40615" lon="20.58908"></trkpt>
      <trkpt lat="49.4061" lon="20.58878"></trkpt>
      <trkpt lat="49.40584" lon="20.5885"></trkpt>
      <trkpt lat="49.40542" lon="20.58582"></trkpt>
      <trkpt lat="49.40532" lon="20.58446"></trkpt>
      <trkpt lat="49.40582" lon="20.57983"></trkpt>
      <trkpt lat="49.40589" lon="20.57852"></trkpt>
      <trkpt lat="49.40575" lon="20.57714"></trkpt>
      <trkpt lat="49.40608" lon="20.57502"></trkpt>
      <trkpt lat="49.40603" lon="20.57259"></trkpt>
      <trkpt lat="49.40577" lon="20.57266"></trkpt>
      <trkpt lat="49.4052" lon="20.57413"></trkpt>
      <trkpt lat="49.40494" lon="20.5743"></trkpt>
      <trkpt lat="49.40445" lon="20.57314"></trkpt>
      <trkpt lat="49.40403" lon="20.57269"></trkpt>
      <trkpt lat="49.4039" lon="20.57196"></trkpt>
      <trkpt lat="49.40351" lon="20.57207"></trkpt>
      <trkpt lat="49.40331" lon="20.57018"></trkpt>
      <trkpt lat="49.40405" lon="20.56826"></trkpt>
      <trkpt lat="49.40434" lon="20.56781"></trkpt>
      <trkpt lat="49.4055" lon="20.56664"></trkpt>
      <trkpt lat="49.40632" lon="20.56636"></trkpt>
      <trkpt lat="49.40732" lon="20.56528"></trkpt>
      <trkpt lat="49.40787" lon="20.56431"></trkpt>
      <trkpt lat="49.40847" lon="20.56368"></trkpt>
      <trkpt lat="49.40936" lon="20.5621"></trkpt>
      <trkpt lat="49.40878" lon="20.55839"></trkpt>
      <trkpt lat="49.40804" lon="20.55726"></trkpt>
      <trkpt lat="49.40702" lon="20.55665"></trkpt>
      <trkpt lat="49.40675" lon="20.55616"></trkpt>
      <trkpt lat="49.40702" lon="20.55507"></trkpt>
      <trkpt lat="49.40691" lon="20.55354"></trkpt>
    </trkseg>
  </trk>
</gpx>
