<?xml version="1.0" encoding="UTF-8"?>
<gpx version="1.1" creator="szlakipienin.pl" xmlns="http://www.topografix.com/GPX/1/1">
  <metadata>
    <name>Bereśnik</name>
    <desc>15.5 km, 235 min, 560 m podejść. Opis trasy: https://szlakipienin.pl/szlaki/beresnik</desc>
    <link href="https://szlakipienin.pl/szlaki/beresnik"><text>Bereśnik</text></link>
  </metadata>
  <trk>
    <name>Bereśnik</name>
    <trkseg>
      <trkpt lat="49.42885" lon="20.48732"></trkpt>
      <trkpt lat="49.42873" lon="20.48785"></trkpt>
      <trkpt lat="49.42846" lon="20.4874"></trkpt>
      <trkpt lat="49.42797" lon="20.48716"></trkpt>
      <trkpt lat="49.42596" lon="20.48723"></trkpt>
      <trkpt lat="49.42494" lon="20.49103"></trkpt>
      <trkpt lat="49.42416" lon="20.49221"></trkpt>
      <trkpt lat="49.42521" lon="20.4953"></trkpt>
      <trkpt lat="49.42628" lon="20.49606"></trkpt>
      <trkpt lat="49.42685" lon="20.49676"></trkpt>
      <trkpt lat="49.42738" lon="20.49686"></trkpt>
      <trkpt lat="49.42846" lon="20.49806"></trkpt>
      <trkpt lat="49.4288" lon="20.49892"></trkpt>
      <trkpt lat="49.43006" lon="20.49964"></trkpt>
      <trkpt lat="49.43044" lon="20.5003"></trkpt>
      <trkpt lat="49.43075" lon="20.50046"></trkpt>
      <trkpt lat="49.43113" lon="20.50106"></trkpt>
      <trkpt lat="49.43133" lon="20.50118"></trkpt>
      <trkpt lat="49.43233" lon="20.50104"></trkpt>
      <trkpt lat="49.4333" lon="20.50226"></trkpt>
      <trkpt lat="49.43395" lon="20.50272"></trkpt>
      <trkpt lat="49.43568" lon="20.50297"></trkpt>
      <trkpt lat="49.43687" lon="20.50336"></trkpt>
      <trkpt lat="49.4377" lon="20.50397"></trkpt>
      <trkpt lat="49.43797" lon="20.50401"></trkpt>
      <trkpt lat="49.43907" lon="20.50308"></trkpt>
      <trkpt lat="49.44101" lon="20.50213"></trkpt>
      <trkpt lat="49.44242" lon="20.50243"></trkpt>
      <trkpt lat="49.44433" lon="20.50143"></trkpt>
      <trkpt lat="49.44558" lon="20.50167"></trkpt>
      <trkpt lat="49.4469" lon="20.50111"></trkpt>
      <trkpt lat="49.4481" lon="20.50166"></trkpt>
      <trkpt lat="49.45184" lon="20.49976"></trkpt>
      <trkpt lat="49.45415" lon="20.50032"></trkpt>
      <trkpt lat="49.45465" lon="20.50033"></trkpt>
      <trkpt lat="49.45537" lon="20.49994"></trkpt>
      <trkpt lat="49.45628" lon="20.50034"></trkpt>
      <trkpt lat="49.45694" lon="20.50044"></trkpt>
      <trkpt lat="49.45945" lon="20.50011"></trkpt>
      <trkpt lat="49.461" lon="20.50034"></trkpt>
      <trkpt lat="49.46193" lon="20.5003"></trkpt>
      <trkpt lat="49.46262" lon="20.50051"></trkpt>
      <trkpt lat="49.46322" lon="20.50024"></trkpt>
      <trkpt lat="49.46436" lon="20.50024"></trkpt>
      <trkpt lat="49.46446" lon="20.49992"></trkpt>
      <trkpt lat="49.4633" lon="20.49873"></trkpt>
      <trkpt lat="49.46306" lon="20.49867"></trkpt>
      <trkpt lat="49.46238" lon="20.49779"></trkpt>
      <trkpt lat="49.46288" lon="20.49729"></trkpt>
      <trkpt lat="49.46282" lon="20.49709"></trkpt>
      <trkpt lat="49.46232" lon="20.49704"></trkpt>
      <trkpt lat="49.46225" lon="20.49688"></trkpt>
      <trkpt lat="49.46251" lon="20.49607"></trkpt>
      <trkpt lat="49.46275" lon="20.49584"></trkpt>
      <trkpt lat="49.46329" lon="20.49601"></trkpt>
      <trkpt lat="49.46359" lon="20.49647"></trkpt>
      <trkpt lat="49.46377" lon="20.49588"></trkpt>
      <trkpt lat="49.46492" lon="20.49552"></trkpt>
      <trkpt lat="49.46579" lon="20.495"></trkpt>
      <trkpt lat="49.46634" lon="20.49445"></trkpt>
      <trkpt lat="49.46699" lon="20.49272"></trkpt>
      <trkpt lat="49.46715" lon="20.49253"></trkpt>
      <trkpt lat="49.46725" lon="20.49261"></trkpt>
      <trkpt lat="49.46711" lon="20.49065"></trkpt>
      <trkpt lat="49.4669" lon="20.48976"></trkpt>
      <trkpt lat="49.46667" lon="20.48767"></trkpt>
      <trkpt lat="49.46545" lon="20.48687"></trkpt>
      <trkpt lat="49.46579" lon="20.48599"></trkpt>
      <trkpt lat="49.46598" lon="20.485"></trkpt>
      <trkpt lat="49.4658" lon="20.48351"></trkpt>
      <trkpt lat="49.46533" lon="20.48298"></trkpt>
      <trkpt lat="49.46521" lon="20.48218"></trkpt>
      <trkpt lat="49.46458" lon="20.48158"></trkpt>
      <trkpt lat="49.46447" lon="20.48181"></trkpt>
      <trkpt lat="49.46362" lon="20.48213"></trkpt>
      <trkpt lat="49.46205" lon="20.48313"></trkpt>
      <trkpt lat="49.46097" lon="20.48318"></trkpt>
      <trkpt lat="49.46023" lon="20.48363"></trkpt>
      <trkpt lat="49.45953" lon="20.48438"></trkpt>
      <trkpt lat="49.45913" lon="20.48515"></trkpt>
      <trkpt lat="49.45876" lon="20.48552"></trkpt>
      <trkpt lat="49.4584" lon="20.48563"></trkpt>
      <trkpt lat="49.45812" lon="20.48533"></trkpt>
      <trkpt lat="49.45789" lon="20.48542"></trkpt>
      <trkpt lat="49.45633" lon="20.48807"></trkpt>
      <trkpt lat="49.4559" lon="20.48928"></trkpt>
      <trkpt lat="49.45522" lon="20.48972"></trkpt>
      <trkpt lat="49.45449" lon="20.49143"></trkpt>
      <trkpt lat="49.45419" lon="20.49168"></trkpt>
      <trkpt lat="49.45388" lon="20.4917"></trkpt>
      <trkpt lat="49.45226" lon="20.4912"></trkpt>
      <trkpt lat="49.45162" lon="20.49118"></trkpt>
      <trkpt lat="49.45124" lon="20.49061"></trkpt>
      <trkpt lat="49.45017" lon="20.49034"></trkpt>
      <trkpt lat="49.44859" lon="20.49033"></trkpt>
      <trkpt lat="49.44738" lon="20.49106"></trkpt>
      <trkpt lat="49.44689" lon="20.49103"></trkpt>
      <trkpt lat="49.44644" lon="20.49128"></trkpt>
      <trkpt lat="49.44535" lon="20.49122"></trkpt>
      <trkpt lat="49.44498" lon="20.49096"></trkpt>
      <trkpt lat="49.44442" lon="20.49096"></trkpt>
      <trkpt lat="49.44374" lon="20.49045"></trkpt>
      <trkpt lat="49.4429" lon="20.49067"></trkpt>
      <trkpt lat="49.44236" lon="20.49"></trkpt>
      <trkpt lat="49.4414" lon="20.48767"></trkpt>
      <trkpt lat="49.44052" lon="20.48692"></trkpt>
      <trkpt lat="49.44021" lon="20.48578"></trkpt>
      <trkpt lat="49.43959" lon="20.48569"></trkpt>
      <trkpt lat="49.43924" lon="20.48632"></trkpt>
      <trkpt lat="49.43913" lon="20.48626"></trkpt>
      <trkpt lat="49.43907" lon="20.48519"></trkpt>
      <trkpt lat="49.43881" lon="20.48448"></trkpt>
      <trkpt lat="49.43858" lon="20.48273"></trkpt>
      <trkpt lat="49.43836" lon="20.48224"></trkpt>
      <trkpt lat="49.43755" lon="20.4811"></trkpt>
      <trkpt lat="49.43604" lon="20.48"></trkpt>
      <trkpt lat="49.43574" lon="20.47924"></trkpt>
      <trkpt lat="49.43532" lon="20.47877"></trkpt>
      <trkpt lat="49.43488" lon="20.47916"></trkpt>
      <trkpt lat="49.43458" lon="20.47879"></trkpt>
      <trkpt lat="49.43433" lon="20.4788"></trkpt>
      <trkpt lat="49.43399" lon="20.4791"></trkpt>
      <trkpt lat="49.4327" lon="20.47923"></trkpt>
      <trkpt lat="49.43142" lon="20.47965"></trkpt>
      <trkpt lat="49.43037" lon="20.48265"></trkpt>
      <trkpt lat="49.4304" lon="20.48303"></trkpt>
      <trkpt lat="49.43086" lon="20.48452"></trkpt>
      <trkpt lat="49.43218" lon="20.48486"></trkpt>
      <trkpt lat="49.43227" lon="20.48512"></trkpt>
      <trkpt lat="49.43211" lon="20.48564"></trkpt>
      <trkpt lat="49.43176" lon="20.48599"></trkpt>
      <trkpt lat="49.43133" lon="20.48682"></trkpt>
      <trkpt lat="49.42942" lon="20.48819"></trkpt>
      <trkpt lat="49.42915" lon="20.48809"></trkpt>
      <trkpt lat="49.42863" lon="20.48685"></trkpt>
      <trkpt lat="49.4277" lon="20.4863"></trkpt>
      <trkpt lat="49.42617" lon="20.48466"></trkpt>
      <trkpt lat="49.42522" lon="20.48256"></trkpt>
    </trkseg>
  </trk>
</gpx>
