<?xml version="1.0" encoding="UTF-8"?>
<gpx version="1.1" creator="szlakipienin.pl" xmlns="http://www.topografix.com/GPX/1/1">
  <metadata>
    <name>Słowackie widoki</name>
    <desc>18 km, 310 min, 540 m podejść. Opis trasy: https://szlakipienin.pl/szlaki/slowackie-widoki</desc>
    <link href="https://szlakipienin.pl/szlaki/slowackie-widoki"><text>Słowackie widoki</text></link>
  </metadata>
  <trk>
    <name>Słowackie widoki</name>
    <trkseg>
      <trkpt lat="49.41068" lon="20.52661"></trkpt>
      <trkpt lat="49.40968" lon="20.52641"></trkpt>
      <trkpt lat="49.40935" lon="20.52592"></trkpt>
      <trkpt lat="49.40952" lon="20.52482"></trkpt>
      <trkpt lat="49.40933" lon="20.52373"></trkpt>
      <trkpt lat="49.40994" lon="20.52105"></trkpt>
      <trkpt lat="49.40971" lon="20.52067"></trkpt>
      <trkpt lat="49.4094" lon="20.52067"></trkpt>
      <trkpt lat="49.40915" lon="20.52046"></trkpt>
      <trkpt lat="49.40905" lon="20.51848"></trkpt>
      <trkpt lat="49.40842" lon="20.51842"></trkpt>
      <trkpt lat="49.4082" lon="20.51819"></trkpt>
      <trkpt lat="49.40819" lon="20.51931"></trkpt>
      <trkpt lat="49.40783" lon="20.51931"></trkpt>
      <trkpt lat="49.40738" lon="20.51881"></trkpt>
      <trkpt lat="49.40653" lon="20.51697"></trkpt>
      <trkpt lat="49.40572" lon="20.51601"></trkpt>
      <trkpt lat="49.40574" lon="20.51563"></trkpt>
      <trkpt lat="49.40559" lon="20.51548"></trkpt>
      <trkpt lat="49.40498" lon="20.51584"></trkpt>
      <trkpt lat="49.40462" lon="20.51569"></trkpt>
      <trkpt lat="49.40334" lon="20.51647"></trkpt>
      <trkpt lat="49.40283" lon="20.51629"></trkpt>
      <trkpt lat="49.40224" lon="20.51466"></trkpt>
      <trkpt lat="49.40202" lon="20.51332"></trkpt>
      <trkpt lat="49.40188" lon="20.5094"></trkpt>
      <trkpt lat="49.40177" lon="20.50905"></trkpt>
      <trkpt lat="49.40131" lon="20.50863"></trkpt>
      <trkpt lat="49.39988" lon="20.51091"></trkpt>
      <trkpt lat="49.39651" lon="20.51252"></trkpt>
      <trkpt lat="49.39528" lon="20.51453"></trkpt>
      <trkpt lat="49.39436" lon="20.51646"></trkpt>
      <trkpt lat="49.39368" lon="20.51721"></trkpt>
      <trkpt lat="49.39263" lon="20.51983"></trkpt>
      <trkpt lat="49.3925" lon="20.51751"></trkpt>
      <trkpt lat="49.39281" lon="20.51563"></trkpt>
      <trkpt lat="49.39307" lon="20.51487"></trkpt>
      <trkpt lat="49.39337" lon="20.51267"></trkpt>
      <trkpt lat="49.39335" lon="20.51061"></trkpt>
      <trkpt lat="49.39278" lon="20.50921"></trkpt>
      <trkpt lat="49.39254" lon="20.50926"></trkpt>
      <trkpt lat="49.39198" lon="20.51039"></trkpt>
      <trkpt lat="49.39167" lon="20.51062"></trkpt>
      <trkpt lat="49.39117" lon="20.51012"></trkpt>
      <trkpt lat="49.39045" lon="20.50898"></trkpt>
      <trkpt lat="49.38739" lon="20.50747"></trkpt>
      <trkpt lat="49.38599" lon="20.50723"></trkpt>
      <trkpt lat="49.3837" lon="20.50652"></trkpt>
      <trkpt lat="49.38201" lon="20.50295"></trkpt>
      <trkpt lat="49.38168" lon="20.5018"></trkpt>
      <trkpt lat="49.38167" lon="20.49968"></trkpt>
      <trkpt lat="49.38179" lon="20.49898"></trkpt>
      <trkpt lat="49.38233" lon="20.49799"></trkpt>
      <trkpt lat="49.38283" lon="20.49559"></trkpt>
      <trkpt lat="49.38277" lon="20.49512"></trkpt>
      <trkpt lat="49.38286" lon="20.49419"></trkpt>
      <trkpt lat="49.38262" lon="20.49383"></trkpt>
      <trkpt lat="49.38283" lon="20.49279"></trkpt>
      <trkpt lat="49.38275" lon="20.49213"></trkpt>
      <trkpt lat="49.38287" lon="20.49085"></trkpt>
      <trkpt lat="49.3831" lon="20.49015"></trkpt>
      <trkpt lat="49.38365" lon="20.48546"></trkpt>
      <trkpt lat="49.38491" lon="20.48127"></trkpt>
      <trkpt lat="49.38511" lon="20.48"></trkpt>
      <trkpt lat="49.38523" lon="20.47746"></trkpt>
      <trkpt lat="49.38482" lon="20.47544"></trkpt>
      <trkpt lat="49.38433" lon="20.4742"></trkpt>
      <trkpt lat="49.38438" lon="20.47218"></trkpt>
      <trkpt lat="49.38451" lon="20.47187"></trkpt>
      <trkpt lat="49.38496" lon="20.47154"></trkpt>
      <trkpt lat="49.38544" lon="20.47007"></trkpt>
      <trkpt lat="49.38616" lon="20.47005"></trkpt>
      <trkpt lat="49.38678" lon="20.46874"></trkpt>
      <trkpt lat="49.38677" lon="20.4672"></trkpt>
      <trkpt lat="49.38641" lon="20.46476"></trkpt>
      <trkpt lat="49.38625" lon="20.46432"></trkpt>
      <trkpt lat="49.38642" lon="20.46262"></trkpt>
      <trkpt lat="49.38625" lon="20.46115"></trkpt>
      <trkpt lat="49.38693" lon="20.46158"></trkpt>
      <trkpt lat="49.38731" lon="20.4623"></trkpt>
      <trkpt lat="49.38786" lon="20.46471"></trkpt>
      <trkpt lat="49.38839" lon="20.46564"></trkpt>
      <trkpt lat="49.38863" lon="20.46727"></trkpt>
      <trkpt lat="49.38885" lon="20.46791"></trkpt>
      <trkpt lat="49.38952" lon="20.46858"></trkpt>
      <trkpt lat="49.38978" lon="20.46906"></trkpt>
      <trkpt lat="49.38993" lon="20.46882"></trkpt>
      <trkpt lat="49.39047" lon="20.46889"></trkpt>
      <trkpt lat="49.39102" lon="20.4687"></trkpt>
      <trkpt lat="49.39229" lon="20.46874"></trkpt>
      <trkpt lat="49.39324" lon="20.46904"></trkpt>
      <trkpt lat="49.39371" lon="20.4694"></trkpt>
      <trkpt lat="49.3939" lon="20.47014"></trkpt>
      <trkpt lat="49.39423" lon="20.47069"></trkpt>
      <trkpt lat="49.39505" lon="20.47125"></trkpt>
      <trkpt lat="49.39569" lon="20.47103"></trkpt>
      <trkpt lat="49.39598" lon="20.47072"></trkpt>
      <trkpt lat="49.39644" lon="20.46953"></trkpt>
      <trkpt lat="49.39679" lon="20.46781"></trkpt>
      <trkpt lat="49.39678" lon="20.46688"></trkpt>
      <trkpt lat="49.39735" lon="20.46773"></trkpt>
      <trkpt lat="49.39754" lon="20.46833"></trkpt>
      <trkpt lat="49.39824" lon="20.46957"></trkpt>
      <trkpt lat="49.39839" lon="20.47021"></trkpt>
      <trkpt lat="49.399" lon="20.47158"></trkpt>
      <trkpt lat="49.40011" lon="20.47296"></trkpt>
      <trkpt lat="49.40108" lon="20.47191"></trkpt>
      <trkpt lat="49.40268" lon="20.4695"></trkpt>
      <trkpt lat="49.4033" lon="20.46756"></trkpt>
      <trkpt lat="49.40392" lon="20.46752"></trkpt>
      <trkpt lat="49.40962" lon="20.46129"></trkpt>
      <trkpt lat="49.41101" lon="20.46033"></trkpt>
      <trkpt lat="49.41222" lon="20.45755"></trkpt>
      <trkpt lat="49.4128" lon="20.45657"></trkpt>
      <trkpt lat="49.41346" lon="20.45399"></trkpt>
      <trkpt lat="49.41385" lon="20.45351"></trkpt>
      <trkpt lat="49.41464" lon="20.45178"></trkpt>
      <trkpt lat="49.41462" lon="20.45077"></trkpt>
      <trkpt lat="49.41395" lon="20.45005"></trkpt>
      <trkpt lat="49.41389" lon="20.44932"></trkpt>
      <trkpt lat="49.41441" lon="20.44842"></trkpt>
      <trkpt lat="49.41589" lon="20.44648"></trkpt>
      <trkpt lat="49.41627" lon="20.44644"></trkpt>
      <trkpt lat="49.41663" lon="20.44764"></trkpt>
      <trkpt lat="49.41652" lon="20.44998"></trkpt>
      <trkpt lat="49.41757" lon="20.45405"></trkpt>
      <trkpt lat="49.41806" lon="20.45539"></trkpt>
      <trkpt lat="49.41985" lon="20.45795"></trkpt>
      <trkpt lat="49.42073" lon="20.45869"></trkpt>
      <trkpt lat="49.42207" lon="20.45915"></trkpt>
      <trkpt lat="49.42343" lon="20.46021"></trkpt>
      <trkpt lat="49.42396" lon="20.46172"></trkpt>
      <trkpt lat="49.42404" lon="20.46397"></trkpt>
      <trkpt lat="49.42453" lon="20.46601"></trkpt>
      <trkpt lat="49.42579" lon="20.46672"></trkpt>
      <trkpt lat="49.42603" lon="20.46728"></trkpt>
      <trkpt lat="49.42604" lon="20.46789"></trkpt>
      <trkpt lat="49.42543" lon="20.47032"></trkpt>
      <trkpt lat="49.42552" lon="20.47281"></trkpt>
      <trkpt lat="49.42542" lon="20.47449"></trkpt>
      <trkpt lat="49.42432" lon="20.48022"></trkpt>
      <trkpt lat="49.42501" lon="20.4806"></trkpt>
      <trkpt lat="49.42521" lon="20.48031"></trkpt>
      <trkpt lat="49.42565" lon="20.48045"></trkpt>
      <trkpt lat="49.42561" lon="20.48101"></trkpt>
      <trkpt lat="49.42574" lon="20.48101"></trkpt>
      <trkpt lat="49.42575" lon="20.48121"></trkpt>
      <trkpt lat="49.42522" lon="20.48256"></trkpt>
    </trkseg>
  </trk>
</gpx>
