<?xml version="1.0" encoding="UTF-8"?>
<gpx version="1.1" creator="szlakipienin.pl" xmlns="http://www.topografix.com/GPX/1/1">
  <metadata>
    <name>Śladem św. Kingi</name>
    <desc>24 km, 400 min, 950 m podejść. Opis trasy: https://szlakipienin.pl/szlaki/sladem-sw-kingi</desc>
    <link href="https://szlakipienin.pl/szlaki/sladem-sw-kingi"><text>Śladem św. Kingi</text></link>
  </metadata>
  <trk>
    <name>Śladem św. Kingi</name>
    <trkseg>
      <trkpt lat="49.42522" lon="20.48256"></trkpt>
      <trkpt lat="49.42617" lon="20.48466"></trkpt>
      <trkpt lat="49.4277" lon="20.4863"></trkpt>
      <trkpt lat="49.42863" lon="20.48685"></trkpt>
      <trkpt lat="49.42885" lon="20.48732"></trkpt>
      <trkpt lat="49.42873" lon="20.48785"></trkpt>
      <trkpt lat="49.42846" lon="20.4874"></trkpt>
      <trkpt lat="49.42797" lon="20.48716"></trkpt>
      <trkpt lat="49.42596" lon="20.48723"></trkpt>
      <trkpt lat="49.42494" lon="20.49103"></trkpt>
      <trkpt lat="49.42416" lon="20.49221"></trkpt>
      <trkpt lat="49.42455" lon="20.49346"></trkpt>
      <trkpt lat="49.42476" lon="20.49377"></trkpt>
      <trkpt lat="49.4253" lon="20.49541"></trkpt>
      <trkpt lat="49.42628" lon="20.49606"></trkpt>
      <trkpt lat="49.42685" lon="20.49676"></trkpt>
      <trkpt lat="49.42738" lon="20.49686"></trkpt>
      <trkpt lat="49.42846" lon="20.49806"></trkpt>
      <trkpt lat="49.4288" lon="20.49892"></trkpt>
      <trkpt lat="49.43006" lon="20.49964"></trkpt>
      <trkpt lat="49.43044" lon="20.5003"></trkpt>
      <trkpt lat="49.43075" lon="20.50046"></trkpt>
      <trkpt lat="49.43113" lon="20.50106"></trkpt>
      <trkpt lat="49.43133" lon="20.50118"></trkpt>
      <trkpt lat="49.43233" lon="20.50104"></trkpt>
      <trkpt lat="49.4333" lon="20.50226"></trkpt>
      <trkpt lat="49.43395" lon="20.50272"></trkpt>
      <trkpt lat="49.43568" lon="20.50297"></trkpt>
      <trkpt lat="49.43687" lon="20.50336"></trkpt>
      <trkpt lat="49.4377" lon="20.50397"></trkpt>
      <trkpt lat="49.43797" lon="20.50401"></trkpt>
      <trkpt lat="49.43907" lon="20.50308"></trkpt>
      <trkpt lat="49.44101" lon="20.50213"></trkpt>
      <trkpt lat="49.44242" lon="20.50243"></trkpt>
      <trkpt lat="49.44396" lon="20.50167"></trkpt>
      <trkpt lat="49.44505" lon="20.50269"></trkpt>
      <trkpt lat="49.4457" lon="20.50302"></trkpt>
      <trkpt lat="49.44667" lon="20.50308"></trkpt>
      <trkpt lat="49.44787" lon="20.5029"></trkpt>
      <trkpt lat="49.44937" lon="20.50432"></trkpt>
      <trkpt lat="49.45004" lon="20.50458"></trkpt>
      <trkpt lat="49.45048" lon="20.50462"></trkpt>
      <trkpt lat="49.45105" lon="20.50426"></trkpt>
      <trkpt lat="49.45167" lon="20.50424"></trkpt>
      <trkpt lat="49.45262" lon="20.50321"></trkpt>
      <trkpt lat="49.45294" lon="20.50304"></trkpt>
      <trkpt lat="49.45388" lon="20.50339"></trkpt>
      <trkpt lat="49.45422" lon="20.50382"></trkpt>
      <trkpt lat="49.45502" lon="20.5061"></trkpt>
      <trkpt lat="49.45579" lon="20.5075"></trkpt>
      <trkpt lat="49.45636" lon="20.50785"></trkpt>
      <trkpt lat="49.45676" lon="20.50857"></trkpt>
      <trkpt lat="49.45729" lon="20.51054"></trkpt>
      <trkpt lat="49.45729" lon="20.51223"></trkpt>
      <trkpt lat="49.45743" lon="20.51283"></trkpt>
      <trkpt lat="49.45861" lon="20.51421"></trkpt>
      <trkpt lat="49.45858" lon="20.51438"></trkpt>
      <trkpt lat="49.45806" lon="20.51446"></trkpt>
      <trkpt lat="49.45703" lon="20.51431"></trkpt>
      <trkpt lat="49.4567" lon="20.51706"></trkpt>
      <trkpt lat="49.45584" lon="20.51873"></trkpt>
      <trkpt lat="49.45525" lon="20.5185"></trkpt>
      <trkpt lat="49.45459" lon="20.51881"></trkpt>
      <trkpt lat="49.45458" lon="20.52011"></trkpt>
      <trkpt lat="49.4545" lon="20.52022"></trkpt>
      <trkpt lat="49.45388" lon="20.52009"></trkpt>
      <trkpt lat="49.45369" lon="20.51984"></trkpt>
      <trkpt lat="49.45354" lon="20.51925"></trkpt>
      <trkpt lat="49.45338" lon="20.519"></trkpt>
      <trkpt lat="49.45325" lon="20.51906"></trkpt>
      <trkpt lat="49.45319" lon="20.51941"></trkpt>
      <trkpt lat="49.45347" lon="20.52075"></trkpt>
      <trkpt lat="49.45369" lon="20.52106"></trkpt>
      <trkpt lat="49.45408" lon="20.52125"></trkpt>
      <trkpt lat="49.45629" lon="20.52402"></trkpt>
      <trkpt lat="49.45664" lon="20.52419"></trkpt>
      <trkpt lat="49.45712" lon="20.52405"></trkpt>
      <trkpt lat="49.45768" lon="20.52428"></trkpt>
      <trkpt lat="49.45869" lon="20.5266"></trkpt>
      <trkpt lat="49.45914" lon="20.52712"></trkpt>
      <trkpt lat="49.45926" lon="20.52751"></trkpt>
      <trkpt lat="49.45924" lon="20.52802"></trkpt>
      <trkpt lat="49.45891" lon="20.52931"></trkpt>
      <trkpt lat="49.45916" lon="20.53087"></trkpt>
      <trkpt lat="49.45907" lon="20.53166"></trkpt>
      <trkpt lat="49.45924" lon="20.5322"></trkpt>
      <trkpt lat="49.45931" lon="20.53332"></trkpt>
      <trkpt lat="49.45946" lon="20.53382"></trkpt>
      <trkpt lat="49.46094" lon="20.5357"></trkpt>
      <trkpt lat="49.46113" lon="20.53622"></trkpt>
      <trkpt lat="49.46133" lon="20.53733"></trkpt>
      <trkpt lat="49.46131" lon="20.53841"></trkpt>
      <trkpt lat="49.46153" lon="20.53906"></trkpt>
      <trkpt lat="49.46174" lon="20.54069"></trkpt>
      <trkpt lat="49.4618" lon="20.54201"></trkpt>
      <trkpt lat="49.46249" lon="20.54321"></trkpt>
      <trkpt lat="49.46303" lon="20.5446"></trkpt>
      <trkpt lat="49.46325" lon="20.54629"></trkpt>
      <trkpt lat="49.46404" lon="20.54859"></trkpt>
      <trkpt lat="49.46683" lon="20.55371"></trkpt>
      <trkpt lat="49.46832" lon="20.55182"></trkpt>
      <trkpt lat="49.47039" lon="20.55072"></trkpt>
      <trkpt lat="49.47068" lon="20.55041"></trkpt>
      <trkpt lat="49.47087" lon="20.54998"></trkpt>
      <trkpt lat="49.47085" lon="20.54839"></trkpt>
      <trkpt lat="49.47102" lon="20.54762"></trkpt>
      <trkpt lat="49.472" lon="20.54631"></trkpt>
      <trkpt lat="49.47336" lon="20.54369"></trkpt>
      <trkpt lat="49.47383" lon="20.54347"></trkpt>
      <trkpt lat="49.47408" lon="20.54353"></trkpt>
      <trkpt lat="49.47401" lon="20.54318"></trkpt>
      <trkpt lat="49.47415" lon="20.54223"></trkpt>
      <trkpt lat="49.47449" lon="20.54115"></trkpt>
      <trkpt lat="49.47473" lon="20.54056"></trkpt>
      <trkpt lat="49.47517" lon="20.54018"></trkpt>
      <trkpt lat="49.47528" lon="20.53991"></trkpt>
      <trkpt lat="49.47493" lon="20.5388"></trkpt>
      <trkpt lat="49.47477" lon="20.53777"></trkpt>
      <trkpt lat="49.47474" lon="20.53583"></trkpt>
      <trkpt lat="49.47492" lon="20.53318"></trkpt>
      <trkpt lat="49.47468" lon="20.53233"></trkpt>
      <trkpt lat="49.47497" lon="20.53141"></trkpt>
      <trkpt lat="49.4749" lon="20.53016"></trkpt>
      <trkpt lat="49.47447" lon="20.52893"></trkpt>
      <trkpt lat="49.47455" lon="20.52795"></trkpt>
      <trkpt lat="49.47423" lon="20.52657"></trkpt>
      <trkpt lat="49.47415" lon="20.52553"></trkpt>
      <trkpt lat="49.47433" lon="20.52337"></trkpt>
      <trkpt lat="49.47427" lon="20.52262"></trkpt>
      <trkpt lat="49.47401" lon="20.52168"></trkpt>
      <trkpt lat="49.47415" lon="20.52008"></trkpt>
      <trkpt lat="49.47383" lon="20.51869"></trkpt>
      <trkpt lat="49.47388" lon="20.51792"></trkpt>
      <trkpt lat="49.47425" lon="20.51644"></trkpt>
      <trkpt lat="49.47438" lon="20.51391"></trkpt>
      <trkpt lat="49.47475" lon="20.51276"></trkpt>
      <trkpt lat="49.47483" lon="20.51201"></trkpt>
      <trkpt lat="49.47468" lon="20.51129"></trkpt>
      <trkpt lat="49.47424" lon="20.51106"></trkpt>
      <trkpt lat="49.47381" lon="20.51058"></trkpt>
      <trkpt lat="49.47307" lon="20.50817"></trkpt>
      <trkpt lat="49.47186" lon="20.50624"></trkpt>
      <trkpt lat="49.47196" lon="20.50576"></trkpt>
      <trkpt lat="49.47181" lon="20.50472"></trkpt>
      <trkpt lat="49.47279" lon="20.50059"></trkpt>
      <trkpt lat="49.47279" lon="20.50013"></trkpt>
      <trkpt lat="49.47261" lon="20.49981"></trkpt>
      <trkpt lat="49.47222" lon="20.49976"></trkpt>
      <trkpt lat="49.47137" lon="20.49926"></trkpt>
      <trkpt lat="49.47071" lon="20.49844"></trkpt>
      <trkpt lat="49.47024" lon="20.49833"></trkpt>
      <trkpt lat="49.46977" lon="20.49785"></trkpt>
      <trkpt lat="49.4693" lon="20.49733"></trkpt>
      <trkpt lat="49.46853" lon="20.49556"></trkpt>
      <trkpt lat="49.46782" lon="20.49528"></trkpt>
      <trkpt lat="49.46735" lon="20.49459"></trkpt>
      <trkpt lat="49.46711" lon="20.49065"></trkpt>
      <trkpt lat="49.4669" lon="20.48976"></trkpt>
      <trkpt lat="49.46667" lon="20.48767"></trkpt>
      <trkpt lat="49.46545" lon="20.48687"></trkpt>
      <trkpt lat="49.46579" lon="20.48599"></trkpt>
      <trkpt lat="49.46598" lon="20.485"></trkpt>
      <trkpt lat="49.4658" lon="20.48351"></trkpt>
      <trkpt lat="49.46533" lon="20.48298"></trkpt>
      <trkpt lat="49.46521" lon="20.48218"></trkpt>
      <trkpt lat="49.46458" lon="20.48158"></trkpt>
      <trkpt lat="49.46447" lon="20.48181"></trkpt>
      <trkpt lat="49.46362" lon="20.48213"></trkpt>
      <trkpt lat="49.46205" lon="20.48313"></trkpt>
      <trkpt lat="49.46097" lon="20.48318"></trkpt>
      <trkpt lat="49.46023" lon="20.48363"></trkpt>
      <trkpt lat="49.45953" lon="20.48438"></trkpt>
      <trkpt lat="49.45913" lon="20.48515"></trkpt>
      <trkpt lat="49.45876" lon="20.48552"></trkpt>
      <trkpt lat="49.4584" lon="20.48563"></trkpt>
      <trkpt lat="49.45812" lon="20.48533"></trkpt>
      <trkpt lat="49.45789" lon="20.48542"></trkpt>
      <trkpt lat="49.45633" lon="20.48807"></trkpt>
      <trkpt lat="49.4559" lon="20.48928"></trkpt>
      <trkpt lat="49.45522" lon="20.48972"></trkpt>
      <trkpt lat="49.45449" lon="20.49143"></trkpt>
      <trkpt lat="49.45419" lon="20.49168"></trkpt>
      <trkpt lat="49.45162" lon="20.49118"></trkpt>
      <trkpt lat="49.45124" lon="20.49061"></trkpt>
      <trkpt lat="49.45017" lon="20.49034"></trkpt>
      <trkpt lat="49.44859" lon="20.49033"></trkpt>
      <trkpt lat="49.44738" lon="20.49106"></trkpt>
      <trkpt lat="49.44689" lon="20.49103"></trkpt>
      <trkpt lat="49.44644" lon="20.49128"></trkpt>
      <trkpt lat="49.44535" lon="20.49122"></trkpt>
      <trkpt lat="49.44498" lon="20.49096"></trkpt>
      <trkpt lat="49.44442" lon="20.49096"></trkpt>
      <trkpt lat="49.44374" lon="20.49045"></trkpt>
      <trkpt lat="49.4429" lon="20.49067"></trkpt>
      <trkpt lat="49.44236" lon="20.49"></trkpt>
      <trkpt lat="49.4414" lon="20.48767"></trkpt>
      <trkpt lat="49.44052" lon="20.48692"></trkpt>
      <trkpt lat="49.44021" lon="20.48578"></trkpt>
      <trkpt lat="49.43959" lon="20.48569"></trkpt>
      <trkpt lat="49.43924" lon="20.48632"></trkpt>
      <trkpt lat="49.43913" lon="20.48626"></trkpt>
      <trkpt lat="49.43907" lon="20.48519"></trkpt>
      <trkpt lat="49.43881" lon="20.48448"></trkpt>
      <trkpt lat="49.43858" lon="20.48273"></trkpt>
      <trkpt lat="49.43836" lon="20.48224"></trkpt>
      <trkpt lat="49.43755" lon="20.4811"></trkpt>
      <trkpt lat="49.43604" lon="20.48"></trkpt>
      <trkpt lat="49.43574" lon="20.47924"></trkpt>
      <trkpt lat="49.43532" lon="20.47877"></trkpt>
      <trkpt lat="49.43488" lon="20.47916"></trkpt>
      <trkpt lat="49.43458" lon="20.47879"></trkpt>
      <trkpt lat="49.43433" lon="20.4788"></trkpt>
      <trkpt lat="49.43399" lon="20.4791"></trkpt>
      <trkpt lat="49.4327" lon="20.47923"></trkpt>
      <trkpt lat="49.4316" lon="20.47966"></trkpt>
      <trkpt lat="49.43148" lon="20.47956"></trkpt>
      <trkpt lat="49.43037" lon="20.48265"></trkpt>
      <trkpt lat="49.4304" lon="20.48303"></trkpt>
      <trkpt lat="49.43086" lon="20.48452"></trkpt>
      <trkpt lat="49.43218" lon="20.48486"></trkpt>
      <trkpt lat="49.43227" lon="20.48512"></trkpt>
      <trkpt lat="49.43211" lon="20.48564"></trkpt>
      <trkpt lat="49.43176" lon="20.48599"></trkpt>
      <trkpt lat="49.43133" lon="20.48682"></trkpt>
      <trkpt lat="49.42942" lon="20.48819"></trkpt>
      <trkpt lat="49.42915" lon="20.48809"></trkpt>
      <trkpt lat="49.42885" lon="20.48732"></trkpt>
    </trkseg>
  </trk>
</gpx>
