<?xml version="1.0" encoding="UTF-8"?>
<gpx version="1.1" creator="szlakipienin.pl" xmlns="http://www.topografix.com/GPX/1/1">
  <metadata>
    <name>Co tam u baców?</name>
    <desc>16 km, 285 min, 440 m podejść. Opis trasy: https://szlakipienin.pl/szlaki/co-tam-u-bacow</desc>
    <link href="https://szlakipienin.pl/szlaki/co-tam-u-bacow"><text>Co tam u baców?</text></link>
  </metadata>
  <trk>
    <name>Co tam u baców?</name>
    <trkseg>
      <trkpt lat="49.40691" lon="20.55354"></trkpt>
      <trkpt lat="49.40702" lon="20.55507"></trkpt>
      <trkpt lat="49.40675" lon="20.55616"></trkpt>
      <trkpt lat="49.40702" lon="20.55665"></trkpt>
      <trkpt lat="49.40804" lon="20.55726"></trkpt>
      <trkpt lat="49.40878" lon="20.55839"></trkpt>
      <trkpt lat="49.40936" lon="20.5621"></trkpt>
      <trkpt lat="49.40847" lon="20.56368"></trkpt>
      <trkpt lat="49.40787" lon="20.56431"></trkpt>
      <trkpt lat="49.40732" lon="20.56528"></trkpt>
      <trkpt lat="49.40632" lon="20.56636"></trkpt>
      <trkpt lat="49.4055" lon="20.56664"></trkpt>
      <trkpt lat="49.40434" lon="20.56781"></trkpt>
      <trkpt lat="49.40405" lon="20.56826"></trkpt>
      <trkpt lat="49.40331" lon="20.57018"></trkpt>
      <trkpt lat="49.40351" lon="20.57207"></trkpt>
      <trkpt lat="49.4039" lon="20.57196"></trkpt>
      <trkpt lat="49.40403" lon="20.57269"></trkpt>
      <trkpt lat="49.40445" lon="20.57314"></trkpt>
      <trkpt lat="49.40494" lon="20.5743"></trkpt>
      <trkpt lat="49.4052" lon="20.57413"></trkpt>
      <trkpt lat="49.40577" lon="20.57266"></trkpt>
      <trkpt lat="49.40603" lon="20.57259"></trkpt>
      <trkpt lat="49.40608" lon="20.57502"></trkpt>
      <trkpt lat="49.40575" lon="20.57714"></trkpt>
      <trkpt lat="49.40589" lon="20.57852"></trkpt>
      <trkpt lat="49.40582" lon="20.57983"></trkpt>
      <trkpt lat="49.40532" lon="20.58446"></trkpt>
      <trkpt lat="49.40542" lon="20.58582"></trkpt>
      <trkpt lat="49.40584" lon="20.5885"></trkpt>
      <trkpt lat="49.4061" lon="20.58878"></trkpt>
      <trkpt lat="49.40615" lon="20.58908"></trkpt>
      <trkpt lat="49.40639" lon="20.58906"></trkpt>
      <trkpt lat="49.40807" lon="20.59085"></trkpt>
      <trkpt lat="49.40867" lon="20.59125"></trkpt>
      <trkpt lat="49.40979" lon="20.5915"></trkpt>
      <trkpt lat="49.41095" lon="20.59263"></trkpt>
      <trkpt lat="49.41275" lon="20.59248"></trkpt>
      <trkpt lat="49.41327" lon="20.59226"></trkpt>
      <trkpt lat="49.41419" lon="20.59254"></trkpt>
      <trkpt lat="49.41622" lon="20.59263"></trkpt>
      <trkpt lat="49.41643" lon="20.59273"></trkpt>
      <trkpt lat="49.4177" lon="20.59433"></trkpt>
      <trkpt lat="49.41843" lon="20.59478"></trkpt>
      <trkpt lat="49.41891" lon="20.5945"></trkpt>
      <trkpt lat="49.41949" lon="20.59489"></trkpt>
      <trkpt lat="49.4199" lon="20.59492"></trkpt>
      <trkpt lat="49.42014" lon="20.59466"></trkpt>
      <trkpt lat="49.42045" lon="20.59462"></trkpt>
      <trkpt lat="49.42078" lon="20.59504"></trkpt>
      <trkpt lat="49.42137" lon="20.59507"></trkpt>
      <trkpt lat="49.42216" lon="20.5956"></trkpt>
      <trkpt lat="49.4226" lon="20.59614"></trkpt>
      <trkpt lat="49.42317" lon="20.5964"></trkpt>
      <trkpt lat="49.42413" lon="20.59567"></trkpt>
      <trkpt lat="49.42518" lon="20.59571"></trkpt>
      <trkpt lat="49.42658" lon="20.59536"></trkpt>
      <trkpt lat="49.4276" lon="20.59619"></trkpt>
      <trkpt lat="49.42792" lon="20.59684"></trkpt>
      <trkpt lat="49.42801" lon="20.59755"></trkpt>
      <trkpt lat="49.42791" lon="20.59884"></trkpt>
      <trkpt lat="49.42837" lon="20.60133"></trkpt>
      <trkpt lat="49.42805" lon="20.60306"></trkpt>
      <trkpt lat="49.4269" lon="20.60414"></trkpt>
      <trkpt lat="49.42625" lon="20.60536"></trkpt>
      <trkpt lat="49.42585" lon="20.60768"></trkpt>
      <trkpt lat="49.42503" lon="20.60982"></trkpt>
      <trkpt lat="49.42248" lon="20.61311"></trkpt>
      <trkpt lat="49.42208" lon="20.61401"></trkpt>
      <trkpt lat="49.42053" lon="20.6163"></trkpt>
      <trkpt lat="49.42032" lon="20.61687"></trkpt>
      <trkpt lat="49.41972" lon="20.61634"></trkpt>
      <trkpt lat="49.41948" lon="20.61571"></trkpt>
      <trkpt lat="49.41902" lon="20.61509"></trkpt>
      <trkpt lat="49.41752" lon="20.61442"></trkpt>
      <trkpt lat="49.4166" lon="20.61351"></trkpt>
      <trkpt lat="49.41619" lon="20.61287"></trkpt>
      <trkpt lat="49.41437" lon="20.61162"></trkpt>
      <trkpt lat="49.41326" lon="20.61119"></trkpt>
      <trkpt lat="49.4122" lon="20.61122"></trkpt>
      <trkpt lat="49.41153" lon="20.6117"></trkpt>
      <trkpt lat="49.41085" lon="20.61178"></trkpt>
      <trkpt lat="49.41003" lon="20.61214"></trkpt>
      <trkpt lat="49.4093" lon="20.6119"></trkpt>
      <trkpt lat="49.40899" lon="20.61162"></trkpt>
      <trkpt lat="49.40745" lon="20.61156"></trkpt>
      <trkpt lat="49.40659" lon="20.61201"></trkpt>
      <trkpt lat="49.40537" lon="20.61225"></trkpt>
      <trkpt lat="49.40407" lon="20.61315"></trkpt>
      <trkpt lat="49.40272" lon="20.61318"></trkpt>
      <trkpt lat="49.40257" lon="20.61296"></trkpt>
      <trkpt lat="49.40259" lon="20.61173"></trkpt>
      <trkpt lat="49.40243" lon="20.61063"></trkpt>
      <trkpt lat="49.40252" lon="20.60955"></trkpt>
      <trkpt lat="49.40228" lon="20.60849"></trkpt>
      <trkpt lat="49.40186" lon="20.60763"></trkpt>
      <trkpt lat="49.40146" lon="20.60597"></trkpt>
      <trkpt lat="49.40121" lon="20.60576"></trkpt>
      <trkpt lat="49.4006" lon="20.60598"></trkpt>
      <trkpt lat="49.3999" lon="20.60588"></trkpt>
      <trkpt lat="49.39951" lon="20.6054"></trkpt>
      <trkpt lat="49.3985" lon="20.6047"></trkpt>
      <trkpt lat="49.39777" lon="20.60334"></trkpt>
      <trkpt lat="49.39702" lon="20.60257"></trkpt>
      <trkpt lat="49.39601" lon="20.60221"></trkpt>
      <trkpt lat="49.39493" lon="20.6011"></trkpt>
      <trkpt lat="49.39437" lon="20.60088"></trkpt>
      <trkpt lat="49.39458" lon="20.59969"></trkpt>
      <trkpt lat="49.39498" lon="20.59862"></trkpt>
      <trkpt lat="49.3962" lon="20.59606"></trkpt>
      <trkpt lat="49.39632" lon="20.59422"></trkpt>
      <trkpt lat="49.39704" lon="20.59138"></trkpt>
      <trkpt lat="49.39705" lon="20.58879"></trkpt>
      <trkpt lat="49.39683" lon="20.58699"></trkpt>
      <trkpt lat="49.39696" lon="20.58669"></trkpt>
      <trkpt lat="49.39725" lon="20.58663"></trkpt>
      <trkpt lat="49.39746" lon="20.58524"></trkpt>
      <trkpt lat="49.39823" lon="20.58401"></trkpt>
      <trkpt lat="49.39848" lon="20.5834"></trkpt>
      <trkpt lat="49.39851" lon="20.58291"></trkpt>
      <trkpt lat="49.39883" lon="20.58272"></trkpt>
      <trkpt lat="49.39932" lon="20.58274"></trkpt>
      <trkpt lat="49.39948" lon="20.5824"></trkpt>
      <trkpt lat="49.40088" lon="20.58133"></trkpt>
      <trkpt lat="49.40124" lon="20.57999"></trkpt>
      <trkpt lat="49.40171" lon="20.57889"></trkpt>
      <trkpt lat="49.40255" lon="20.57843"></trkpt>
      <trkpt lat="49.40338" lon="20.57711"></trkpt>
      <trkpt lat="49.40344" lon="20.57652"></trkpt>
      <trkpt lat="49.40371" lon="20.5761"></trkpt>
      <trkpt lat="49.4038" lon="20.57487"></trkpt>
      <trkpt lat="49.40401" lon="20.57449"></trkpt>
      <trkpt lat="49.40354" lon="20.57302"></trkpt>
      <trkpt lat="49.40351" lon="20.57207"></trkpt>
    </trkseg>
  </trk>
</gpx>
