<?xml version="1.0" encoding="UTF-8"?>
<gpx version="1.1" creator="szlakipienin.pl" xmlns="http://www.topografix.com/GPX/1/1">
  <metadata>
    <name>Rezerwat Biała Woda</name>
    <desc>3.8 km, 79 min, 218 m podejść. Opis trasy: https://szlakipienin.pl/szlaki/rezerwat-biala-woda</desc>
    <link href="https://szlakipienin.pl/szlaki/rezerwat-biala-woda"><text>Rezerwat Biała Woda</text></link>
  </metadata>
  <trk>
    <name>Rezerwat Biała Woda</name>
    <trkseg>
      <trkpt lat="49.4066" lon="20.55306"></trkpt>
      <trkpt lat="49.4066" lon="20.55341"></trkpt>
      <trkpt lat="49.4066" lon="20.55348"></trkpt>
      <trkpt lat="49.40662" lon="20.55354"></trkpt>
      <trkpt lat="49.40666" lon="20.55364"></trkpt>
      <trkpt lat="49.40672" lon="20.55373"></trkpt>
      <trkpt lat="49.40679" lon="20.55379"></trkpt>
      <trkpt lat="49.40687" lon="20.55395"></trkpt>
      <trkpt lat="49.40691" lon="20.55426"></trkpt>
      <trkpt lat="49.40693" lon="20.55447"></trkpt>
      <trkpt lat="49.40698" lon="20.5547"></trkpt>
      <trkpt lat="49.407" lon="20.55484"></trkpt>
      <trkpt lat="49.40699" lon="20.55526"></trkpt>
      <trkpt lat="49.40691" lon="20.55563"></trkpt>
      <trkpt lat="49.40672" lon="20.55611"></trkpt>
      <trkpt lat="49.40646" lon="20.55609"></trkpt>
      <trkpt lat="49.40635" lon="20.55614"></trkpt>
      <trkpt lat="49.40575" lon="20.55688"></trkpt>
      <trkpt lat="49.40554" lon="20.55714"></trkpt>
      <trkpt lat="49.4052" lon="20.55757"></trkpt>
      <trkpt lat="49.40485" lon="20.55764"></trkpt>
      <trkpt lat="49.40472" lon="20.55767"></trkpt>
      <trkpt lat="49.40396" lon="20.5583"></trkpt>
      <trkpt lat="49.40377" lon="20.55868"></trkpt>
      <trkpt lat="49.40366" lon="20.55895"></trkpt>
      <trkpt lat="49.40343" lon="20.55942"></trkpt>
      <trkpt lat="49.4031" lon="20.55982"></trkpt>
      <trkpt lat="49.4029" lon="20.55997"></trkpt>
      <trkpt lat="49.40263" lon="20.56011"></trkpt>
      <trkpt lat="49.40246" lon="20.56035"></trkpt>
      <trkpt lat="49.40228" lon="20.56061"></trkpt>
      <trkpt lat="49.40161" lon="20.56099"></trkpt>
      <trkpt lat="49.40132" lon="20.56128"></trkpt>
      <trkpt lat="49.40095" lon="20.56177"></trkpt>
      <trkpt lat="49.40047" lon="20.56248"></trkpt>
      <trkpt lat="49.39997" lon="20.56339"></trkpt>
      <trkpt lat="49.39979" lon="20.5636"></trkpt>
      <trkpt lat="49.39957" lon="20.56387"></trkpt>
      <trkpt lat="49.39889" lon="20.5644"></trkpt>
      <trkpt lat="49.39873" lon="20.56455"></trkpt>
      <trkpt lat="49.3986" lon="20.56483"></trkpt>
      <trkpt lat="49.39843" lon="20.56502"></trkpt>
      <trkpt lat="49.39837" lon="20.56527"></trkpt>
      <trkpt lat="49.3983" lon="20.56548"></trkpt>
      <trkpt lat="49.39808" lon="20.56572"></trkpt>
      <trkpt lat="49.39789" lon="20.56596"></trkpt>
      <trkpt lat="49.39786" lon="20.56623"></trkpt>
      <trkpt lat="49.39796" lon="20.56692"></trkpt>
      <trkpt lat="49.39824" lon="20.5675"></trkpt>
      <trkpt lat="49.39833" lon="20.56773"></trkpt>
      <trkpt lat="49.39833" lon="20.568"></trkpt>
      <trkpt lat="49.39821" lon="20.56845"></trkpt>
      <trkpt lat="49.39787" lon="20.56959"></trkpt>
      <trkpt lat="49.39752" lon="20.57132"></trkpt>
      <trkpt lat="49.3974" lon="20.57275"></trkpt>
      <trkpt lat="49.39723" lon="20.57367"></trkpt>
      <trkpt lat="49.39697" lon="20.57424"></trkpt>
      <trkpt lat="49.39668" lon="20.57464"></trkpt>
      <trkpt lat="49.39686" lon="20.57473"></trkpt>
      <trkpt lat="49.39704" lon="20.57493"></trkpt>
      <trkpt lat="49.39715" lon="20.57518"></trkpt>
      <trkpt lat="49.39742" lon="20.57636"></trkpt>
      <trkpt lat="49.39753" lon="20.57669"></trkpt>
      <trkpt lat="49.39769" lon="20.57688"></trkpt>
      <trkpt lat="49.39802" lon="20.57721"></trkpt>
      <trkpt lat="49.39817" lon="20.57732"></trkpt>
      <trkpt lat="49.39828" lon="20.57738"></trkpt>
      <trkpt lat="49.39837" lon="20.57756"></trkpt>
      <trkpt lat="49.39856" lon="20.57864"></trkpt>
      <trkpt lat="49.39854" lon="20.57889"></trkpt>
      <trkpt lat="49.39849" lon="20.57912"></trkpt>
      <trkpt lat="49.39838" lon="20.57932"></trkpt>
      <trkpt lat="49.39817" lon="20.57952"></trkpt>
      <trkpt lat="49.3981" lon="20.57967"></trkpt>
      <trkpt lat="49.39808" lon="20.57979"></trkpt>
      <trkpt lat="49.39806" lon="20.57999"></trkpt>
      <trkpt lat="49.39811" lon="20.58028"></trkpt>
      <trkpt lat="49.39822" lon="20.58054"></trkpt>
      <trkpt lat="49.39841" lon="20.58078"></trkpt>
      <trkpt lat="49.39856" lon="20.58107"></trkpt>
      <trkpt lat="49.39865" lon="20.58133"></trkpt>
      <trkpt lat="49.39867" lon="20.58161"></trkpt>
      <trkpt lat="49.39863" lon="20.58194"></trkpt>
      <trkpt lat="49.39863" lon="20.58223"></trkpt>
      <trkpt lat="49.39886" lon="20.5827"></trkpt>
      <trkpt lat="49.39873" lon="20.58275"></trkpt>
      <trkpt lat="49.39859" lon="20.58284"></trkpt>
      <trkpt lat="49.3985" lon="20.58295"></trkpt>
      <trkpt lat="49.39845" lon="20.58307"></trkpt>
      <trkpt lat="49.39847" lon="20.58327"></trkpt>
      <trkpt lat="49.39847" lon="20.58332"></trkpt>
      <trkpt lat="49.39846" lon="20.58341"></trkpt>
      <trkpt lat="49.39834" lon="20.58372"></trkpt>
      <trkpt lat="49.39825" lon="20.58393"></trkpt>
      <trkpt lat="49.39815" lon="20.58415"></trkpt>
      <trkpt lat="49.39789" lon="20.5845"></trkpt>
      <trkpt lat="49.39768" lon="20.5848"></trkpt>
      <trkpt lat="49.39752" lon="20.58514"></trkpt>
      <trkpt lat="49.39746" lon="20.58527"></trkpt>
      <trkpt lat="49.39744" lon="20.58542"></trkpt>
      <trkpt lat="49.39744" lon="20.58562"></trkpt>
      <trkpt lat="49.39744" lon="20.58579"></trkpt>
      <trkpt lat="49.39742" lon="20.58589"></trkpt>
      <trkpt lat="49.39739" lon="20.58597"></trkpt>
      <trkpt lat="49.39725" lon="20.58618"></trkpt>
      <trkpt lat="49.39713" lon="20.58634"></trkpt>
      <trkpt lat="49.3971" lon="20.5864"></trkpt>
      <trkpt lat="49.39705" lon="20.5865"></trkpt>
      <trkpt lat="49.39697" lon="20.58666"></trkpt>
      <trkpt lat="49.39686" lon="20.58687"></trkpt>
      <trkpt lat="49.39679" lon="20.58719"></trkpt>
      <trkpt lat="49.39678" lon="20.58751"></trkpt>
      <trkpt lat="49.39666" lon="20.5879"></trkpt>
      <trkpt lat="49.39652" lon="20.58838"></trkpt>
      <trkpt lat="49.39582" lon="20.58955"></trkpt>
      <trkpt lat="49.39551" lon="20.58972"></trkpt>
      <trkpt lat="49.39544" lon="20.58986"></trkpt>
      <trkpt lat="49.39499" lon="20.5908"></trkpt>
      <trkpt lat="49.39464" lon="20.59118"></trkpt>
      <trkpt lat="49.39431" lon="20.59144"></trkpt>
      <trkpt lat="49.39396" lon="20.59159"></trkpt>
    </trkseg>
  </trk>
</gpx>
