<?xml version="1.0" encoding="UTF-8"?>
<gpx version="1.1" creator="szlakipienin.pl" xmlns="http://www.topografix.com/GPX/1/1">
  <metadata>
    <name>Nie mam roweru</name>
    <desc>21 km, 305 min, 610 m podejść. Opis trasy: https://szlakipienin.pl/szlaki/nie-mam-roweru</desc>
    <link href="https://szlakipienin.pl/szlaki/nie-mam-roweru"><text>Nie mam roweru</text></link>
  </metadata>
  <trk>
    <name>Nie mam roweru</name>
    <trkseg>
      <trkpt lat="49.42522" lon="20.48256"></trkpt>
      <trkpt lat="49.42617" lon="20.48466"></trkpt>
      <trkpt lat="49.4277" lon="20.4863"></trkpt>
      <trkpt lat="49.42863" lon="20.48685"></trkpt>
      <trkpt lat="49.42885" lon="20.48732"></trkpt>
      <trkpt lat="49.42873" lon="20.48785"></trkpt>
      <trkpt lat="49.42846" lon="20.4874"></trkpt>
      <trkpt lat="49.42797" lon="20.48716"></trkpt>
      <trkpt lat="49.42596" lon="20.48723"></trkpt>
      <trkpt lat="49.42494" lon="20.49103"></trkpt>
      <trkpt lat="49.42416" lon="20.49221"></trkpt>
      <trkpt lat="49.42455" lon="20.49346"></trkpt>
      <trkpt lat="49.42476" lon="20.49377"></trkpt>
      <trkpt lat="49.4253" lon="20.49541"></trkpt>
      <trkpt lat="49.42628" lon="20.49606"></trkpt>
      <trkpt lat="49.42685" lon="20.49676"></trkpt>
      <trkpt lat="49.42738" lon="20.49686"></trkpt>
      <trkpt lat="49.42846" lon="20.49806"></trkpt>
      <trkpt lat="49.4288" lon="20.49892"></trkpt>
      <trkpt lat="49.43006" lon="20.49964"></trkpt>
      <trkpt lat="49.43044" lon="20.5003"></trkpt>
      <trkpt lat="49.43075" lon="20.50046"></trkpt>
      <trkpt lat="49.43113" lon="20.50106"></trkpt>
      <trkpt lat="49.43133" lon="20.50118"></trkpt>
      <trkpt lat="49.43233" lon="20.50104"></trkpt>
      <trkpt lat="49.4333" lon="20.50226"></trkpt>
      <trkpt lat="49.43395" lon="20.50272"></trkpt>
      <trkpt lat="49.43568" lon="20.50297"></trkpt>
      <trkpt lat="49.43687" lon="20.50336"></trkpt>
      <trkpt lat="49.4377" lon="20.50397"></trkpt>
      <trkpt lat="49.43797" lon="20.50401"></trkpt>
      <trkpt lat="49.43907" lon="20.50308"></trkpt>
      <trkpt lat="49.44101" lon="20.50213"></trkpt>
      <trkpt lat="49.44242" lon="20.50243"></trkpt>
      <trkpt lat="49.44396" lon="20.50167"></trkpt>
      <trkpt lat="49.44505" lon="20.50269"></trkpt>
      <trkpt lat="49.4457" lon="20.50302"></trkpt>
      <trkpt lat="49.44667" lon="20.50308"></trkpt>
      <trkpt lat="49.44787" lon="20.5029"></trkpt>
      <trkpt lat="49.44937" lon="20.50432"></trkpt>
      <trkpt lat="49.45004" lon="20.50458"></trkpt>
      <trkpt lat="49.45048" lon="20.50462"></trkpt>
      <trkpt lat="49.45105" lon="20.50426"></trkpt>
      <trkpt lat="49.45167" lon="20.50424"></trkpt>
      <trkpt lat="49.45262" lon="20.50321"></trkpt>
      <trkpt lat="49.45294" lon="20.50304"></trkpt>
      <trkpt lat="49.45388" lon="20.50339"></trkpt>
      <trkpt lat="49.45422" lon="20.50382"></trkpt>
      <trkpt lat="49.45502" lon="20.5061"></trkpt>
      <trkpt lat="49.45579" lon="20.5075"></trkpt>
      <trkpt lat="49.45636" lon="20.50785"></trkpt>
      <trkpt lat="49.45676" lon="20.50857"></trkpt>
      <trkpt lat="49.45729" lon="20.51054"></trkpt>
      <trkpt lat="49.45729" lon="20.51223"></trkpt>
      <trkpt lat="49.45743" lon="20.51283"></trkpt>
      <trkpt lat="49.45861" lon="20.51421"></trkpt>
      <trkpt lat="49.45858" lon="20.51438"></trkpt>
      <trkpt lat="49.45806" lon="20.51446"></trkpt>
      <trkpt lat="49.45703" lon="20.51431"></trkpt>
      <trkpt lat="49.4567" lon="20.51706"></trkpt>
      <trkpt lat="49.45584" lon="20.51873"></trkpt>
      <trkpt lat="49.45525" lon="20.5185"></trkpt>
      <trkpt lat="49.45459" lon="20.51881"></trkpt>
      <trkpt lat="49.45458" lon="20.52011"></trkpt>
      <trkpt lat="49.4545" lon="20.52022"></trkpt>
      <trkpt lat="49.45388" lon="20.52009"></trkpt>
      <trkpt lat="49.45369" lon="20.51984"></trkpt>
      <trkpt lat="49.45354" lon="20.51925"></trkpt>
      <trkpt lat="49.45338" lon="20.519"></trkpt>
      <trkpt lat="49.45325" lon="20.51906"></trkpt>
      <trkpt lat="49.45319" lon="20.51941"></trkpt>
      <trkpt lat="49.45347" lon="20.52075"></trkpt>
      <trkpt lat="49.45369" lon="20.52106"></trkpt>
      <trkpt lat="49.45408" lon="20.52125"></trkpt>
      <trkpt lat="49.45629" lon="20.52402"></trkpt>
      <trkpt lat="49.45685" lon="20.52419"></trkpt>
      <trkpt lat="49.4575" lon="20.52366"></trkpt>
      <trkpt lat="49.45765" lon="20.52376"></trkpt>
      <trkpt lat="49.45882" lon="20.52604"></trkpt>
      <trkpt lat="49.45927" lon="20.52615"></trkpt>
      <trkpt lat="49.45973" lon="20.52667"></trkpt>
      <trkpt lat="49.46005" lon="20.52885"></trkpt>
      <trkpt lat="49.46016" lon="20.52888"></trkpt>
      <trkpt lat="49.46115" lon="20.52759"></trkpt>
      <trkpt lat="49.46262" lon="20.52606"></trkpt>
      <trkpt lat="49.46279" lon="20.52608"></trkpt>
      <trkpt lat="49.46331" lon="20.52872"></trkpt>
      <trkpt lat="49.46339" lon="20.53046"></trkpt>
      <trkpt lat="49.46336" lon="20.5324"></trkpt>
      <trkpt lat="49.46325" lon="20.53293"></trkpt>
      <trkpt lat="49.46357" lon="20.53339"></trkpt>
      <trkpt lat="49.46402" lon="20.53512"></trkpt>
      <trkpt lat="49.46401" lon="20.53625"></trkpt>
      <trkpt lat="49.46447" lon="20.53735"></trkpt>
      <trkpt lat="49.46444" lon="20.53881"></trkpt>
      <trkpt lat="49.46501" lon="20.54045"></trkpt>
      <trkpt lat="49.46518" lon="20.54189"></trkpt>
      <trkpt lat="49.46537" lon="20.54194"></trkpt>
      <trkpt lat="49.46576" lon="20.53972"></trkpt>
      <trkpt lat="49.46567" lon="20.53893"></trkpt>
      <trkpt lat="49.46585" lon="20.53812"></trkpt>
      <trkpt lat="49.4658" lon="20.5344"></trkpt>
      <trkpt lat="49.46551" lon="20.53239"></trkpt>
      <trkpt lat="49.46592" lon="20.52833"></trkpt>
      <trkpt lat="49.46565" lon="20.52658"></trkpt>
      <trkpt lat="49.4658" lon="20.52356"></trkpt>
      <trkpt lat="49.46571" lon="20.5201"></trkpt>
      <trkpt lat="49.46589" lon="20.51823"></trkpt>
      <trkpt lat="49.46601" lon="20.5179"></trkpt>
      <trkpt lat="49.46673" lon="20.51725"></trkpt>
      <trkpt lat="49.46807" lon="20.51639"></trkpt>
      <trkpt lat="49.46908" lon="20.51535"></trkpt>
      <trkpt lat="49.4698" lon="20.51366"></trkpt>
      <trkpt lat="49.47044" lon="20.51292"></trkpt>
      <trkpt lat="49.47052" lon="20.51259"></trkpt>
      <trkpt lat="49.47047" lon="20.51228"></trkpt>
      <trkpt lat="49.46977" lon="20.51165"></trkpt>
      <trkpt lat="49.4693" lon="20.51061"></trkpt>
      <trkpt lat="49.46922" lon="20.50992"></trkpt>
      <trkpt lat="49.46864" lon="20.50801"></trkpt>
      <trkpt lat="49.46858" lon="20.50718"></trkpt>
      <trkpt lat="49.46891" lon="20.50593"></trkpt>
      <trkpt lat="49.4684" lon="20.50374"></trkpt>
      <trkpt lat="49.46785" lon="20.50312"></trkpt>
      <trkpt lat="49.46607" lon="20.50219"></trkpt>
      <trkpt lat="49.46542" lon="20.50119"></trkpt>
      <trkpt lat="49.46436" lon="20.50024"></trkpt>
      <trkpt lat="49.46322" lon="20.50024"></trkpt>
      <trkpt lat="49.46262" lon="20.50051"></trkpt>
      <trkpt lat="49.46193" lon="20.5003"></trkpt>
      <trkpt lat="49.461" lon="20.50034"></trkpt>
      <trkpt lat="49.45945" lon="20.50011"></trkpt>
      <trkpt lat="49.45694" lon="20.50044"></trkpt>
      <trkpt lat="49.45628" lon="20.50034"></trkpt>
      <trkpt lat="49.45537" lon="20.49994"></trkpt>
      <trkpt lat="49.45465" lon="20.50033"></trkpt>
      <trkpt lat="49.45415" lon="20.50032"></trkpt>
      <trkpt lat="49.45212" lon="20.49974"></trkpt>
      <trkpt lat="49.44985" lon="20.50067"></trkpt>
      <trkpt lat="49.4481" lon="20.50166"></trkpt>
      <trkpt lat="49.4469" lon="20.50111"></trkpt>
      <trkpt lat="49.44558" lon="20.50167"></trkpt>
      <trkpt lat="49.44433" lon="20.50143"></trkpt>
      <trkpt lat="49.44396" lon="20.50167"></trkpt>
    </trkseg>
  </trk>
</gpx>
