<?xml version="1.0" encoding="UTF-8"?>
<gpx version="1.1" creator="szlakipienin.pl" xmlns="http://www.topografix.com/GPX/1/1">
  <metadata>
    <name>Mało znany Średniak</name>
    <desc>12 km, 195 min, 490 m podejść. Opis trasy: https://szlakipienin.pl/szlaki/malo-znany-sredniak</desc>
    <link href="https://szlakipienin.pl/szlaki/malo-znany-sredniak"><text>Mało znany Średniak</text></link>
  </metadata>
  <trk>
    <name>Mało znany Średniak</name>
    <trkseg>
      <trkpt lat="49.42647" lon="20.46807"></trkpt>
      <trkpt lat="49.42697" lon="20.46802"></trkpt>
      <trkpt lat="49.42729" lon="20.46823"></trkpt>
      <trkpt lat="49.42742" lon="20.46927"></trkpt>
      <trkpt lat="49.42864" lon="20.46906"></trkpt>
      <trkpt lat="49.42989" lon="20.46789"></trkpt>
      <trkpt lat="49.43068" lon="20.46794"></trkpt>
      <trkpt lat="49.43206" lon="20.46738"></trkpt>
      <trkpt lat="49.43264" lon="20.46761"></trkpt>
      <trkpt lat="49.43374" lon="20.4673"></trkpt>
      <trkpt lat="49.43474" lon="20.46754"></trkpt>
      <trkpt lat="49.43527" lon="20.46736"></trkpt>
      <trkpt lat="49.43702" lon="20.46753"></trkpt>
      <trkpt lat="49.43799" lon="20.46886"></trkpt>
      <trkpt lat="49.43866" lon="20.46886"></trkpt>
      <trkpt lat="49.43953" lon="20.46826"></trkpt>
      <trkpt lat="49.43905" lon="20.46946"></trkpt>
      <trkpt lat="49.43922" lon="20.47019"></trkpt>
      <trkpt lat="49.44084" lon="20.47272"></trkpt>
      <trkpt lat="49.44165" lon="20.47311"></trkpt>
      <trkpt lat="49.44176" lon="20.47276"></trkpt>
      <trkpt lat="49.44123" lon="20.47152"></trkpt>
      <trkpt lat="49.44157" lon="20.47113"></trkpt>
      <trkpt lat="49.44313" lon="20.47238"></trkpt>
      <trkpt lat="49.44405" lon="20.47238"></trkpt>
      <trkpt lat="49.44639" lon="20.47302"></trkpt>
      <trkpt lat="49.44678" lon="20.47364"></trkpt>
      <trkpt lat="49.44853" lon="20.47525"></trkpt>
      <trkpt lat="49.44886" lon="20.47588"></trkpt>
      <trkpt lat="49.45026" lon="20.47751"></trkpt>
      <trkpt lat="49.45089" lon="20.47721"></trkpt>
      <trkpt lat="49.45119" lon="20.4775"></trkpt>
      <trkpt lat="49.45178" lon="20.47749"></trkpt>
      <trkpt lat="49.45212" lon="20.47825"></trkpt>
      <trkpt lat="49.45324" lon="20.47899"></trkpt>
      <trkpt lat="49.45347" lon="20.47973"></trkpt>
      <trkpt lat="49.45388" lon="20.48044"></trkpt>
      <trkpt lat="49.45398" lon="20.48145"></trkpt>
      <trkpt lat="49.45416" lon="20.48184"></trkpt>
      <trkpt lat="49.45521" lon="20.48202"></trkpt>
      <trkpt lat="49.45539" lon="20.48251"></trkpt>
      <trkpt lat="49.45539" lon="20.48286"></trkpt>
      <trkpt lat="49.45445" lon="20.48435"></trkpt>
      <trkpt lat="49.45409" lon="20.4853"></trkpt>
      <trkpt lat="49.45323" lon="20.48623"></trkpt>
      <trkpt lat="49.45302" lon="20.48615"></trkpt>
      <trkpt lat="49.45172" lon="20.48751"></trkpt>
      <trkpt lat="49.45155" lon="20.48822"></trkpt>
      <trkpt lat="49.45111" lon="20.48915"></trkpt>
      <trkpt lat="49.45099" lon="20.48982"></trkpt>
      <trkpt lat="49.4508" lon="20.49001"></trkpt>
      <trkpt lat="49.45017" lon="20.49034"></trkpt>
      <trkpt lat="49.44859" lon="20.49033"></trkpt>
      <trkpt lat="49.44738" lon="20.49106"></trkpt>
      <trkpt lat="49.44689" lon="20.49103"></trkpt>
      <trkpt lat="49.44644" lon="20.49128"></trkpt>
      <trkpt lat="49.44535" lon="20.49122"></trkpt>
      <trkpt lat="49.44498" lon="20.49096"></trkpt>
      <trkpt lat="49.44442" lon="20.49096"></trkpt>
      <trkpt lat="49.44374" lon="20.49045"></trkpt>
      <trkpt lat="49.44301" lon="20.49069"></trkpt>
      <trkpt lat="49.44274" lon="20.49054"></trkpt>
      <trkpt lat="49.44236" lon="20.49"></trkpt>
      <trkpt lat="49.4414" lon="20.48767"></trkpt>
      <trkpt lat="49.44052" lon="20.48692"></trkpt>
      <trkpt lat="49.44021" lon="20.48578"></trkpt>
      <trkpt lat="49.43959" lon="20.48569"></trkpt>
      <trkpt lat="49.43924" lon="20.48632"></trkpt>
      <trkpt lat="49.43913" lon="20.48626"></trkpt>
      <trkpt lat="49.43907" lon="20.48519"></trkpt>
      <trkpt lat="49.43881" lon="20.48448"></trkpt>
      <trkpt lat="49.43858" lon="20.48273"></trkpt>
      <trkpt lat="49.43792" lon="20.48156"></trkpt>
      <trkpt lat="49.43755" lon="20.4811"></trkpt>
      <trkpt lat="49.43604" lon="20.48"></trkpt>
      <trkpt lat="49.43574" lon="20.47924"></trkpt>
      <trkpt lat="49.43535" lon="20.47879"></trkpt>
      <trkpt lat="49.43488" lon="20.47916"></trkpt>
      <trkpt lat="49.43458" lon="20.47879"></trkpt>
      <trkpt lat="49.43433" lon="20.4788"></trkpt>
      <trkpt lat="49.43399" lon="20.4791"></trkpt>
      <trkpt lat="49.4327" lon="20.47923"></trkpt>
      <trkpt lat="49.43142" lon="20.47965"></trkpt>
      <trkpt lat="49.43037" lon="20.48265"></trkpt>
      <trkpt lat="49.4304" lon="20.48303"></trkpt>
      <trkpt lat="49.43086" lon="20.48452"></trkpt>
      <trkpt lat="49.43218" lon="20.48486"></trkpt>
      <trkpt lat="49.43227" lon="20.48512"></trkpt>
      <trkpt lat="49.43211" lon="20.48564"></trkpt>
      <trkpt lat="49.43176" lon="20.48599"></trkpt>
      <trkpt lat="49.43133" lon="20.48682"></trkpt>
      <trkpt lat="49.43085" lon="20.48727"></trkpt>
      <trkpt lat="49.42942" lon="20.48819"></trkpt>
      <trkpt lat="49.42915" lon="20.48809"></trkpt>
      <trkpt lat="49.42863" lon="20.48685"></trkpt>
      <trkpt lat="49.4277" lon="20.4863"></trkpt>
      <trkpt lat="49.42617" lon="20.48466"></trkpt>
      <trkpt lat="49.4253" lon="20.48284"></trkpt>
      <trkpt lat="49.42522" lon="20.48256"></trkpt>
      <trkpt lat="49.4253" lon="20.48225"></trkpt>
      <trkpt lat="49.42575" lon="20.48121"></trkpt>
      <trkpt lat="49.42574" lon="20.48101"></trkpt>
      <trkpt lat="49.42561" lon="20.48101"></trkpt>
      <trkpt lat="49.42565" lon="20.48045"></trkpt>
      <trkpt lat="49.42521" lon="20.48031"></trkpt>
      <trkpt lat="49.42501" lon="20.4806"></trkpt>
      <trkpt lat="49.42432" lon="20.48022"></trkpt>
      <trkpt lat="49.42542" lon="20.47449"></trkpt>
      <trkpt lat="49.42552" lon="20.47281"></trkpt>
      <trkpt lat="49.42543" lon="20.47032"></trkpt>
      <trkpt lat="49.42604" lon="20.46789"></trkpt>
      <trkpt lat="49.42647" lon="20.46807"></trkpt>
    </trkseg>
  </trk>
</gpx>
