<?xml version="1.0" encoding="UTF-8"?>
<gpx version="1.1" creator="szlakipienin.pl" xmlns="http://www.topografix.com/GPX/1/1">
  <metadata>
    <name>Diament Pienin</name>
    <desc>50.5 km, 963 min, 2052 m podejść. Opis trasy: https://szlakipienin.pl/szlaki/diament-pienin</desc>
    <link href="https://szlakipienin.pl/szlaki/diament-pienin"><text>Diament Pienin</text></link>
  </metadata>
  <trk>
    <name>Diament Pienin</name>
    <trkseg>
      <trkpt lat="49.40662" lon="20.55278"></trkpt>
      <trkpt lat="49.4066" lon="20.55348"></trkpt>
      <trkpt lat="49.40687" lon="20.55395"></trkpt>
      <trkpt lat="49.407" lon="20.55484"></trkpt>
      <trkpt lat="49.40699" lon="20.55526"></trkpt>
      <trkpt lat="49.40672" lon="20.55611"></trkpt>
      <trkpt lat="49.40702" lon="20.55665"></trkpt>
      <trkpt lat="49.40796" lon="20.55717"></trkpt>
      <trkpt lat="49.40878" lon="20.55834"></trkpt>
      <trkpt lat="49.40935" lon="20.56213"></trkpt>
      <trkpt lat="49.40886" lon="20.5628"></trkpt>
      <trkpt lat="49.40854" lon="20.5636"></trkpt>
      <trkpt lat="49.40786" lon="20.56438"></trkpt>
      <trkpt lat="49.40731" lon="20.5653"></trkpt>
      <trkpt lat="49.4066" lon="20.5659"></trkpt>
      <trkpt lat="49.4064" lon="20.56628"></trkpt>
      <trkpt lat="49.4062" lon="20.56644"></trkpt>
      <trkpt lat="49.40555" lon="20.5666"></trkpt>
      <trkpt lat="49.4052" lon="20.56686"></trkpt>
      <trkpt lat="49.40416" lon="20.56807"></trkpt>
      <trkpt lat="49.4034" lon="20.56981"></trkpt>
      <trkpt lat="49.40331" lon="20.57017"></trkpt>
      <trkpt lat="49.40336" lon="20.57108"></trkpt>
      <trkpt lat="49.40351" lon="20.57156"></trkpt>
      <trkpt lat="49.40352" lon="20.5729"></trkpt>
      <trkpt lat="49.40378" lon="20.57358"></trkpt>
      <trkpt lat="49.40406" lon="20.57475"></trkpt>
      <trkpt lat="49.40378" lon="20.57487"></trkpt>
      <trkpt lat="49.40378" lon="20.57575"></trkpt>
      <trkpt lat="49.40367" lon="20.57619"></trkpt>
      <trkpt lat="49.40344" lon="20.5765"></trkpt>
      <trkpt lat="49.40345" lon="20.57701"></trkpt>
      <trkpt lat="49.40265" lon="20.57835"></trkpt>
      <trkpt lat="49.40232" lon="20.5786"></trkpt>
      <trkpt lat="49.402" lon="20.57862"></trkpt>
      <trkpt lat="49.40165" lon="20.57894"></trkpt>
      <trkpt lat="49.4012" lon="20.58014"></trkpt>
      <trkpt lat="49.40083" lon="20.58143"></trkpt>
      <trkpt lat="49.39985" lon="20.58209"></trkpt>
      <trkpt lat="49.39949" lon="20.5824"></trkpt>
      <trkpt lat="49.3993" lon="20.58273"></trkpt>
      <trkpt lat="49.39886" lon="20.5827"></trkpt>
      <trkpt lat="49.3985" lon="20.58295"></trkpt>
      <trkpt lat="49.39846" lon="20.58341"></trkpt>
      <trkpt lat="49.39825" lon="20.58393"></trkpt>
      <trkpt lat="49.39746" lon="20.58527"></trkpt>
      <trkpt lat="49.39742" lon="20.58589"></trkpt>
      <trkpt lat="49.39725" lon="20.58618"></trkpt>
      <trkpt lat="49.39725" lon="20.58663"></trkpt>
      <trkpt lat="49.39697" lon="20.58666"></trkpt>
      <trkpt lat="49.39679" lon="20.58719"></trkpt>
      <trkpt lat="49.39681" lon="20.58825"></trkpt>
      <trkpt lat="49.39695" lon="20.58883"></trkpt>
      <trkpt lat="49.39697" lon="20.59117"></trkpt>
      <trkpt lat="49.39669" lon="20.59294"></trkpt>
      <trkpt lat="49.39639" lon="20.59413"></trkpt>
      <trkpt lat="49.39621" lon="20.59615"></trkpt>
      <trkpt lat="49.39466" lon="20.59934"></trkpt>
      <trkpt lat="49.39459" lon="20.59964"></trkpt>
      <trkpt lat="49.39463" lon="20.60004"></trkpt>
      <trkpt lat="49.3944" lon="20.60085"></trkpt>
      <trkpt lat="49.39147" lon="20.60173"></trkpt>
      <trkpt lat="49.39084" lon="20.60145"></trkpt>
      <trkpt lat="49.39031" lon="20.60144"></trkpt>
      <trkpt lat="49.38923" lon="20.60091"></trkpt>
      <trkpt lat="49.38833" lon="20.60007"></trkpt>
      <trkpt lat="49.38725" lon="20.59805"></trkpt>
      <trkpt lat="49.38666" lon="20.59782"></trkpt>
      <trkpt lat="49.38646" lon="20.59761"></trkpt>
      <trkpt lat="49.38552" lon="20.59613"></trkpt>
      <trkpt lat="49.38529" lon="20.59552"></trkpt>
      <trkpt lat="49.38394" lon="20.59338"></trkpt>
      <trkpt lat="49.38406" lon="20.59195"></trkpt>
      <trkpt lat="49.38493" lon="20.58882"></trkpt>
      <trkpt lat="49.38527" lon="20.58793"></trkpt>
      <trkpt lat="49.38561" lon="20.58667"></trkpt>
      <trkpt lat="49.38561" lon="20.58639"></trkpt>
      <trkpt lat="49.38542" lon="20.5852"></trkpt>
      <trkpt lat="49.38516" lon="20.58478"></trkpt>
      <trkpt lat="49.3848" lon="20.58367"></trkpt>
      <trkpt lat="49.38393" lon="20.58156"></trkpt>
      <trkpt lat="49.3831" lon="20.58037"></trkpt>
      <trkpt lat="49.38292" lon="20.57998"></trkpt>
      <trkpt lat="49.38179" lon="20.57964"></trkpt>
      <trkpt lat="49.38051" lon="20.5782"></trkpt>
      <trkpt lat="49.37895" lon="20.57693"></trkpt>
      <trkpt lat="49.37806" lon="20.57666"></trkpt>
      <trkpt lat="49.37742" lon="20.57632"></trkpt>
      <trkpt lat="49.37712" lon="20.57583"></trkpt>
      <trkpt lat="49.37688" lon="20.57514"></trkpt>
      <trkpt lat="49.37684" lon="20.57421"></trkpt>
      <trkpt lat="49.37702" lon="20.57318"></trkpt>
      <trkpt lat="49.37743" lon="20.57243"></trkpt>
      <trkpt lat="49.3776" lon="20.57177"></trkpt>
      <trkpt lat="49.37766" lon="20.57092"></trkpt>
      <trkpt lat="49.37799" lon="20.56972"></trkpt>
      <trkpt lat="49.37857" lon="20.56875"></trkpt>
      <trkpt lat="49.37898" lon="20.56731"></trkpt>
      <trkpt lat="49.37902" lon="20.56608"></trkpt>
      <trkpt lat="49.37945" lon="20.56313"></trkpt>
      <trkpt lat="49.37937" lon="20.56244"></trkpt>
      <trkpt lat="49.37918" lon="20.56204"></trkpt>
      <trkpt lat="49.37913" lon="20.56171"></trkpt>
      <trkpt lat="49.37915" lon="20.56107"></trkpt>
      <trkpt lat="49.37901" lon="20.56033"></trkpt>
      <trkpt lat="49.37893" lon="20.55888"></trkpt>
      <trkpt lat="49.37918" lon="20.55816"></trkpt>
      <trkpt lat="49.37974" lon="20.5575"></trkpt>
      <trkpt lat="49.38094" lon="20.55724"></trkpt>
      <trkpt lat="49.38136" lon="20.55692"></trkpt>
      <trkpt lat="49.38213" lon="20.55602"></trkpt>
      <trkpt lat="49.38241" lon="20.55512"></trkpt>
      <trkpt lat="49.38255" lon="20.55425"></trkpt>
      <trkpt lat="49.38205" lon="20.55354"></trkpt>
      <trkpt lat="49.38199" lon="20.55278"></trkpt>
      <trkpt lat="49.38187" lon="20.5524"></trkpt>
      <trkpt lat="49.38232" lon="20.55159"></trkpt>
      <trkpt lat="49.38271" lon="20.55129"></trkpt>
      <trkpt lat="49.38294" lon="20.55125"></trkpt>
      <trkpt lat="49.38314" lon="20.55071"></trkpt>
      <trkpt lat="49.38398" lon="20.54924"></trkpt>
      <trkpt lat="49.38435" lon="20.54809"></trkpt>
      <trkpt lat="49.38464" lon="20.54752"></trkpt>
      <trkpt lat="49.38556" lon="20.54648"></trkpt>
      <trkpt lat="49.38558" lon="20.54485"></trkpt>
      <trkpt lat="49.38576" lon="20.5434"></trkpt>
      <trkpt lat="49.38651" lon="20.54045"></trkpt>
      <trkpt lat="49.38706" lon="20.5378"></trkpt>
      <trkpt lat="49.3871" lon="20.53735"></trkpt>
      <trkpt lat="49.38689" lon="20.5359"></trkpt>
      <trkpt lat="49.38706" lon="20.53467"></trkpt>
      <trkpt lat="49.38757" lon="20.53322"></trkpt>
      <trkpt lat="49.38893" lon="20.53005"></trkpt>
      <trkpt lat="49.38911" lon="20.52922"></trkpt>
      <trkpt lat="49.39068" lon="20.52403"></trkpt>
      <trkpt lat="49.3921" lon="20.52151"></trkpt>
      <trkpt lat="49.39264" lon="20.51978"></trkpt>
      <trkpt lat="49.39364" lon="20.51729"></trkpt>
      <trkpt lat="49.3946" lon="20.51619"></trkpt>
      <trkpt lat="49.39518" lon="20.51467"></trkpt>
      <trkpt lat="49.39652" lon="20.51252"></trkpt>
      <trkpt lat="49.39929" lon="20.51134"></trkpt>
      <trkpt lat="49.39987" lon="20.51092"></trkpt>
      <trkpt lat="49.40123" lon="20.50865"></trkpt>
      <trkpt lat="49.40176" lon="20.50726"></trkpt>
      <trkpt lat="49.40271" lon="20.50574"></trkpt>
      <trkpt lat="49.4032" lon="20.50529"></trkpt>
      <trkpt lat="49.4034" lon="20.50494"></trkpt>
      <trkpt lat="49.4036" lon="20.50485"></trkpt>
      <trkpt lat="49.40407" lon="20.50329"></trkpt>
      <trkpt lat="49.40434" lon="20.50091"></trkpt>
      <trkpt lat="49.40524" lon="20.49761"></trkpt>
      <trkpt lat="49.40546" lon="20.49707"></trkpt>
      <trkpt lat="49.4056" lon="20.49573"></trkpt>
      <trkpt lat="49.40579" lon="20.49502"></trkpt>
      <trkpt lat="49.40648" lon="20.49394"></trkpt>
      <trkpt lat="49.40672" lon="20.49327"></trkpt>
      <trkpt lat="49.40688" lon="20.49195"></trkpt>
      <trkpt lat="49.40674" lon="20.49085"></trkpt>
      <trkpt lat="49.40698" lon="20.49001"></trkpt>
      <trkpt lat="49.40714" lon="20.48986"></trkpt>
      <trkpt lat="49.40741" lon="20.48924"></trkpt>
      <trkpt lat="49.40841" lon="20.48862"></trkpt>
      <trkpt lat="49.40855" lon="20.48734"></trkpt>
      <trkpt lat="49.40906" lon="20.48563"></trkpt>
      <trkpt lat="49.40952" lon="20.48459"></trkpt>
      <trkpt lat="49.40963" lon="20.48311"></trkpt>
      <trkpt lat="49.40978" lon="20.48241"></trkpt>
      <trkpt lat="49.41012" lon="20.48144"></trkpt>
      <trkpt lat="49.41047" lon="20.48098"></trkpt>
      <trkpt lat="49.41077" lon="20.47992"></trkpt>
      <trkpt lat="49.41121" lon="20.47939"></trkpt>
      <trkpt lat="49.41142" lon="20.47875"></trkpt>
      <trkpt lat="49.41251" lon="20.47733"></trkpt>
      <trkpt lat="49.41318" lon="20.47704"></trkpt>
      <trkpt lat="49.41408" lon="20.47623"></trkpt>
      <trkpt lat="49.41495" lon="20.47329"></trkpt>
      <trkpt lat="49.41545" lon="20.47197"></trkpt>
      <trkpt lat="49.41554" lon="20.4714"></trkpt>
      <trkpt lat="49.41577" lon="20.47076"></trkpt>
      <trkpt lat="49.41549" lon="20.47003"></trkpt>
      <trkpt lat="49.41547" lon="20.46972"></trkpt>
      <trkpt lat="49.41569" lon="20.4689"></trkpt>
      <trkpt lat="49.41608" lon="20.46629"></trkpt>
      <trkpt lat="49.41607" lon="20.4646"></trkpt>
      <trkpt lat="49.41595" lon="20.46382"></trkpt>
      <trkpt lat="49.4157" lon="20.46328"></trkpt>
      <trkpt lat="49.41572" lon="20.46278"></trkpt>
      <trkpt lat="49.41594" lon="20.46248"></trkpt>
      <trkpt lat="49.41606" lon="20.46197"></trkpt>
      <trkpt lat="49.4163" lon="20.4615"></trkpt>
      <trkpt lat="49.41655" lon="20.46152"></trkpt>
      <trkpt lat="49.41669" lon="20.46127"></trkpt>
      <trkpt lat="49.41671" lon="20.46073"></trkpt>
      <trkpt lat="49.41729" lon="20.45988"></trkpt>
      <trkpt lat="49.41777" lon="20.4588"></trkpt>
      <trkpt lat="49.41808" lon="20.45771"></trkpt>
      <trkpt lat="49.41822" lon="20.45776"></trkpt>
      <trkpt lat="49.4186" lon="20.45753"></trkpt>
      <trkpt lat="49.41879" lon="20.4576"></trkpt>
      <trkpt lat="49.41879" lon="20.45736"></trkpt>
      <trkpt lat="49.41891" lon="20.45724"></trkpt>
      <trkpt lat="49.41972" lon="20.45794"></trkpt>
      <trkpt lat="49.41986" lon="20.45793"></trkpt>
      <trkpt lat="49.41829" lon="20.45588"></trkpt>
      <trkpt lat="49.41778" lon="20.4546"></trkpt>
      <trkpt lat="49.41735" lon="20.45292"></trkpt>
      <trkpt lat="49.41781" lon="20.45211"></trkpt>
      <trkpt lat="49.41753" lon="20.45143"></trkpt>
      <trkpt lat="49.41776" lon="20.44943"></trkpt>
      <trkpt lat="49.41794" lon="20.44918"></trkpt>
      <trkpt lat="49.41857" lon="20.44895"></trkpt>
      <trkpt lat="49.41893" lon="20.44779"></trkpt>
      <trkpt lat="49.41911" lon="20.44683"></trkpt>
      <trkpt lat="49.41909" lon="20.4458"></trkpt>
      <trkpt lat="49.41886" lon="20.44422"></trkpt>
      <trkpt lat="49.41888" lon="20.44383"></trkpt>
      <trkpt lat="49.4185" lon="20.44322"></trkpt>
      <trkpt lat="49.4182" lon="20.44297"></trkpt>
      <trkpt lat="49.41807" lon="20.44252"></trkpt>
      <trkpt lat="49.41786" lon="20.44243"></trkpt>
      <trkpt lat="49.41802" lon="20.44206"></trkpt>
      <trkpt lat="49.41782" lon="20.44162"></trkpt>
      <trkpt lat="49.41815" lon="20.44058"></trkpt>
      <trkpt lat="49.41803" lon="20.44035"></trkpt>
      <trkpt lat="49.41786" lon="20.44059"></trkpt>
      <trkpt lat="49.41783" lon="20.44024"></trkpt>
      <trkpt lat="49.41773" lon="20.44026"></trkpt>
      <trkpt lat="49.41766" lon="20.44048"></trkpt>
      <trkpt lat="49.41773" lon="20.44026"></trkpt>
      <trkpt lat="49.41783" lon="20.44024"></trkpt>
      <trkpt lat="49.41786" lon="20.44059"></trkpt>
      <trkpt lat="49.41803" lon="20.44035"></trkpt>
      <trkpt lat="49.41815" lon="20.44058"></trkpt>
      <trkpt lat="49.41854" lon="20.44002"></trkpt>
      <trkpt lat="49.41892" lon="20.43989"></trkpt>
      <trkpt lat="49.41971" lon="20.43888"></trkpt>
      <trkpt lat="49.42027" lon="20.43874"></trkpt>
      <trkpt lat="49.4205" lon="20.43851"></trkpt>
      <trkpt lat="49.42063" lon="20.43856"></trkpt>
      <trkpt lat="49.42104" lon="20.4379"></trkpt>
      <trkpt lat="49.42119" lon="20.43804"></trkpt>
      <trkpt lat="49.42118" lon="20.43776"></trkpt>
      <trkpt lat="49.42137" lon="20.438"></trkpt>
      <trkpt lat="49.42137" lon="20.43773"></trkpt>
      <trkpt lat="49.42146" lon="20.43794"></trkpt>
      <trkpt lat="49.42147" lon="20.43768"></trkpt>
      <trkpt lat="49.42191" lon="20.43775"></trkpt>
      <trkpt lat="49.42173" lon="20.43727"></trkpt>
      <trkpt lat="49.42197" lon="20.43708"></trkpt>
      <trkpt lat="49.42213" lon="20.4354"></trkpt>
      <trkpt lat="49.4223" lon="20.4347"></trkpt>
      <trkpt lat="49.42224" lon="20.43425"></trkpt>
      <trkpt lat="49.42241" lon="20.43437"></trkpt>
      <trkpt lat="49.42257" lon="20.43424"></trkpt>
      <trkpt lat="49.4227" lon="20.43365"></trkpt>
      <trkpt lat="49.42292" lon="20.43319"></trkpt>
      <trkpt lat="49.42309" lon="20.43228"></trkpt>
      <trkpt lat="49.42326" lon="20.43215"></trkpt>
      <trkpt lat="49.42347" lon="20.43164"></trkpt>
      <trkpt lat="49.42419" lon="20.4311"></trkpt>
      <trkpt lat="49.42447" lon="20.43059"></trkpt>
      <trkpt lat="49.42467" lon="20.42991"></trkpt>
      <trkpt lat="49.42454" lon="20.42953"></trkpt>
      <trkpt lat="49.42444" lon="20.42839"></trkpt>
      <trkpt lat="49.42486" lon="20.42474"></trkpt>
      <trkpt lat="49.4249" lon="20.42458"></trkpt>
      <trkpt lat="49.42543" lon="20.42421"></trkpt>
      <trkpt lat="49.42562" lon="20.42345"></trkpt>
      <trkpt lat="49.42537" lon="20.42284"></trkpt>
      <trkpt lat="49.42536" lon="20.42182"></trkpt>
      <trkpt lat="49.42585" lon="20.42121"></trkpt>
      <trkpt lat="49.42611" lon="20.42107"></trkpt>
      <trkpt lat="49.42613" lon="20.42092"></trkpt>
      <trkpt lat="49.42616" lon="20.42044"></trkpt>
      <trkpt lat="49.426" lon="20.41937"></trkpt>
      <trkpt lat="49.42608" lon="20.41781"></trkpt>
      <trkpt lat="49.42552" lon="20.41604"></trkpt>
      <trkpt lat="49.42564" lon="20.41573"></trkpt>
      <trkpt lat="49.4261" lon="20.41548"></trkpt>
      <trkpt lat="49.42647" lon="20.41333"></trkpt>
      <trkpt lat="49.42607" lon="20.41262"></trkpt>
      <trkpt lat="49.42553" lon="20.41248"></trkpt>
      <trkpt lat="49.42501" lon="20.41102"></trkpt>
      <trkpt lat="49.42455" lon="20.41052"></trkpt>
      <trkpt lat="49.42441" lon="20.41067"></trkpt>
      <trkpt lat="49.4241" lon="20.41148"></trkpt>
      <trkpt lat="49.42378" lon="20.41149"></trkpt>
      <trkpt lat="49.42335" lon="20.41116"></trkpt>
      <trkpt lat="49.42264" lon="20.41004"></trkpt>
      <trkpt lat="49.42198" lon="20.40979"></trkpt>
      <trkpt lat="49.42161" lon="20.40931"></trkpt>
      <trkpt lat="49.42121" lon="20.40937"></trkpt>
      <trkpt lat="49.42037" lon="20.40901"></trkpt>
      <trkpt lat="49.419" lon="20.40807"></trkpt>
      <trkpt lat="49.41863" lon="20.40939"></trkpt>
      <trkpt lat="49.41864" lon="20.4099"></trkpt>
      <trkpt lat="49.41818" lon="20.41059"></trkpt>
      <trkpt lat="49.418" lon="20.4114"></trkpt>
      <trkpt lat="49.41752" lon="20.41262"></trkpt>
      <trkpt lat="49.41717" lon="20.41294"></trkpt>
      <trkpt lat="49.41684" lon="20.41379"></trkpt>
      <trkpt lat="49.41658" lon="20.41389"></trkpt>
      <trkpt lat="49.41639" lon="20.41374"></trkpt>
      <trkpt lat="49.4163" lon="20.41342"></trkpt>
      <trkpt lat="49.41613" lon="20.41323"></trkpt>
      <trkpt lat="49.41556" lon="20.41341"></trkpt>
      <trkpt lat="49.41544" lon="20.4135"></trkpt>
      <trkpt lat="49.41535" lon="20.41398"></trkpt>
      <trkpt lat="49.41507" lon="20.41441"></trkpt>
      <trkpt lat="49.41465" lon="20.41462"></trkpt>
      <trkpt lat="49.41447" lon="20.41517"></trkpt>
      <trkpt lat="49.41419" lon="20.41445"></trkpt>
      <trkpt lat="49.41382" lon="20.41419"></trkpt>
      <trkpt lat="49.41419" lon="20.41445"></trkpt>
      <trkpt lat="49.41447" lon="20.41517"></trkpt>
      <trkpt lat="49.41465" lon="20.41462"></trkpt>
      <trkpt lat="49.41507" lon="20.41441"></trkpt>
      <trkpt lat="49.41535" lon="20.41398"></trkpt>
      <trkpt lat="49.41544" lon="20.4135"></trkpt>
      <trkpt lat="49.41556" lon="20.41341"></trkpt>
      <trkpt lat="49.41613" lon="20.41323"></trkpt>
      <trkpt lat="49.4163" lon="20.41342"></trkpt>
      <trkpt lat="49.41639" lon="20.41374"></trkpt>
      <trkpt lat="49.41658" lon="20.41389"></trkpt>
      <trkpt lat="49.41684" lon="20.41379"></trkpt>
      <trkpt lat="49.41717" lon="20.41294"></trkpt>
      <trkpt lat="49.41752" lon="20.41262"></trkpt>
      <trkpt lat="49.418" lon="20.4114"></trkpt>
      <trkpt lat="49.41818" lon="20.41059"></trkpt>
      <trkpt lat="49.41864" lon="20.4099"></trkpt>
      <trkpt lat="49.41863" lon="20.40939"></trkpt>
      <trkpt lat="49.419" lon="20.40807"></trkpt>
      <trkpt lat="49.41921" lon="20.40799"></trkpt>
      <trkpt lat="49.4194" lon="20.40754"></trkpt>
      <trkpt lat="49.41908" lon="20.40651"></trkpt>
      <trkpt lat="49.41895" lon="20.40505"></trkpt>
      <trkpt lat="49.41853" lon="20.40366"></trkpt>
      <trkpt lat="49.4183" lon="20.40218"></trkpt>
      <trkpt lat="49.41824" lon="20.40114"></trkpt>
      <trkpt lat="49.41847" lon="20.39993"></trkpt>
      <trkpt lat="49.41836" lon="20.39921"></trkpt>
      <trkpt lat="49.41835" lon="20.39822"></trkpt>
      <trkpt lat="49.41824" lon="20.39783"></trkpt>
      <trkpt lat="49.41769" lon="20.39693"></trkpt>
      <trkpt lat="49.41756" lon="20.39641"></trkpt>
      <trkpt lat="49.41764" lon="20.39599"></trkpt>
      <trkpt lat="49.41757" lon="20.39535"></trkpt>
      <trkpt lat="49.41788" lon="20.39476"></trkpt>
      <trkpt lat="49.41786" lon="20.39432"></trkpt>
      <trkpt lat="49.41805" lon="20.39347"></trkpt>
      <trkpt lat="49.41792" lon="20.39107"></trkpt>
      <trkpt lat="49.41765" lon="20.39"></trkpt>
      <trkpt lat="49.4176" lon="20.38947"></trkpt>
      <trkpt lat="49.41774" lon="20.38924"></trkpt>
      <trkpt lat="49.41835" lon="20.38872"></trkpt>
      <trkpt lat="49.41854" lon="20.38838"></trkpt>
      <trkpt lat="49.41865" lon="20.38726"></trkpt>
      <trkpt lat="49.41855" lon="20.38605"></trkpt>
      <trkpt lat="49.41825" lon="20.38465"></trkpt>
      <trkpt lat="49.41778" lon="20.38329"></trkpt>
      <trkpt lat="49.41772" lon="20.38196"></trkpt>
      <trkpt lat="49.41796" lon="20.38104"></trkpt>
      <trkpt lat="49.4186" lon="20.37929"></trkpt>
      <trkpt lat="49.41857" lon="20.37869"></trkpt>
      <trkpt lat="49.41902" lon="20.3765"></trkpt>
      <trkpt lat="49.41911" lon="20.37484"></trkpt>
      <trkpt lat="49.41925" lon="20.37445"></trkpt>
      <trkpt lat="49.4202" lon="20.37311"></trkpt>
      <trkpt lat="49.42053" lon="20.37166"></trkpt>
      <trkpt lat="49.42093" lon="20.37063"></trkpt>
      <trkpt lat="49.42093" lon="20.37026"></trkpt>
      <trkpt lat="49.4212" lon="20.36945"></trkpt>
      <trkpt lat="49.42186" lon="20.36857"></trkpt>
      <trkpt lat="49.42245" lon="20.3675"></trkpt>
      <trkpt lat="49.42381" lon="20.36675"></trkpt>
      <trkpt lat="49.4243" lon="20.36606"></trkpt>
      <trkpt lat="49.42437" lon="20.36567"></trkpt>
      <trkpt lat="49.42468" lon="20.36501"></trkpt>
      <trkpt lat="49.42473" lon="20.36473"></trkpt>
      <trkpt lat="49.42436" lon="20.36186"></trkpt>
      <trkpt lat="49.42473" lon="20.36078"></trkpt>
      <trkpt lat="49.42485" lon="20.35911"></trkpt>
      <trkpt lat="49.42476" lon="20.35807"></trkpt>
      <trkpt lat="49.42502" lon="20.35717"></trkpt>
      <trkpt lat="49.42514" lon="20.35636"></trkpt>
      <trkpt lat="49.42608" lon="20.35529"></trkpt>
      <trkpt lat="49.42751" lon="20.35256"></trkpt>
      <trkpt lat="49.4282" lon="20.35157"></trkpt>
      <trkpt lat="49.42821" lon="20.35127"></trkpt>
      <trkpt lat="49.42832" lon="20.35135"></trkpt>
      <trkpt lat="49.42919" lon="20.35025"></trkpt>
      <trkpt lat="49.43112" lon="20.34739"></trkpt>
      <trkpt lat="49.43284" lon="20.34413"></trkpt>
      <trkpt lat="49.43353" lon="20.34151"></trkpt>
      <trkpt lat="49.43523" lon="20.33672"></trkpt>
      <trkpt lat="49.43607" lon="20.33499"></trkpt>
      <trkpt lat="49.4363" lon="20.3347"></trkpt>
      <trkpt lat="49.43723" lon="20.33409"></trkpt>
      <trkpt lat="49.43739" lon="20.33376"></trkpt>
      <trkpt lat="49.4372" lon="20.33367"></trkpt>
      <trkpt lat="49.43718" lon="20.33351"></trkpt>
      <trkpt lat="49.43738" lon="20.33325"></trkpt>
      <trkpt lat="49.43773" lon="20.33204"></trkpt>
      <trkpt lat="49.4381" lon="20.33141"></trkpt>
      <trkpt lat="49.43781" lon="20.33047"></trkpt>
      <trkpt lat="49.43718" lon="20.32522"></trkpt>
      <trkpt lat="49.43624" lon="20.3241"></trkpt>
      <trkpt lat="49.43602" lon="20.32279"></trkpt>
      <trkpt lat="49.43582" lon="20.32074"></trkpt>
      <trkpt lat="49.43594" lon="20.31992"></trkpt>
      <trkpt lat="49.43579" lon="20.31838"></trkpt>
      <trkpt lat="49.43588" lon="20.31716"></trkpt>
      <trkpt lat="49.43605" lon="20.31625"></trkpt>
      <trkpt lat="49.43596" lon="20.31472"></trkpt>
      <trkpt lat="49.43581" lon="20.31412"></trkpt>
      <trkpt lat="49.43531" lon="20.31369"></trkpt>
      <trkpt lat="49.43488" lon="20.31361"></trkpt>
      <trkpt lat="49.43502" lon="20.31327"></trkpt>
      <trkpt lat="49.43489" lon="20.31363"></trkpt>
      <trkpt lat="49.43531" lon="20.31369"></trkpt>
      <trkpt lat="49.43581" lon="20.31412"></trkpt>
      <trkpt lat="49.43598" lon="20.31498"></trkpt>
      <trkpt lat="49.43628" lon="20.31406"></trkpt>
      <trkpt lat="49.43644" lon="20.31437"></trkpt>
      <trkpt lat="49.43665" lon="20.31418"></trkpt>
      <trkpt lat="49.43675" lon="20.3144"></trkpt>
      <trkpt lat="49.43694" lon="20.31403"></trkpt>
      <trkpt lat="49.43701" lon="20.31407"></trkpt>
      <trkpt lat="49.43706" lon="20.3127"></trkpt>
      <trkpt lat="49.43689" lon="20.31076"></trkpt>
      <trkpt lat="49.43659" lon="20.31025"></trkpt>
      <trkpt lat="49.43645" lon="20.30981"></trkpt>
      <trkpt lat="49.43641" lon="20.30925"></trkpt>
      <trkpt lat="49.43624" lon="20.30901"></trkpt>
      <trkpt lat="49.43576" lon="20.30901"></trkpt>
      <trkpt lat="49.43306" lon="20.31055"></trkpt>
      <trkpt lat="49.43235" lon="20.31062"></trkpt>
      <trkpt lat="49.43106" lon="20.31183"></trkpt>
      <trkpt lat="49.42525" lon="20.31552"></trkpt>
      <trkpt lat="49.42391" lon="20.3163"></trkpt>
      <trkpt lat="49.42334" lon="20.31612"></trkpt>
      <trkpt lat="49.42313" lon="20.31666"></trkpt>
      <trkpt lat="49.42278" lon="20.31673"></trkpt>
      <trkpt lat="49.42269" lon="20.31711"></trkpt>
      <trkpt lat="49.42229" lon="20.31698"></trkpt>
      <trkpt lat="49.42204" lon="20.31736"></trkpt>
      <trkpt lat="49.42193" lon="20.31716"></trkpt>
      <trkpt lat="49.42159" lon="20.31784"></trkpt>
      <trkpt lat="49.42148" lon="20.31782"></trkpt>
      <trkpt lat="49.42112" lon="20.31812"></trkpt>
      <trkpt lat="49.42028" lon="20.3183"></trkpt>
      <trkpt lat="49.41963" lon="20.31833"></trkpt>
      <trkpt lat="49.41946" lon="20.31819"></trkpt>
      <trkpt lat="49.41943" lon="20.31785"></trkpt>
      <trkpt lat="49.4196" lon="20.31725"></trkpt>
      <trkpt lat="49.41934" lon="20.3164"></trkpt>
      <trkpt lat="49.4194" lon="20.31509"></trkpt>
      <trkpt lat="49.42075" lon="20.31023"></trkpt>
      <trkpt lat="49.42087" lon="20.30858"></trkpt>
      <trkpt lat="49.4199" lon="20.30316"></trkpt>
      <trkpt lat="49.41952" lon="20.30159"></trkpt>
      <trkpt lat="49.41887" lon="20.29992"></trkpt>
      <trkpt lat="49.41823" lon="20.29877"></trkpt>
      <trkpt lat="49.41717" lon="20.29727"></trkpt>
      <trkpt lat="49.41701" lon="20.2967"></trkpt>
      <trkpt lat="49.4168" lon="20.29499"></trkpt>
      <trkpt lat="49.41723" lon="20.29158"></trkpt>
      <trkpt lat="49.41725" lon="20.29044"></trkpt>
      <trkpt lat="49.417" lon="20.28856"></trkpt>
      <trkpt lat="49.41681" lon="20.28828"></trkpt>
      <trkpt lat="49.41686" lon="20.28762"></trkpt>
      <trkpt lat="49.4168" lon="20.28733"></trkpt>
      <trkpt lat="49.41678" lon="20.28461"></trkpt>
      <trkpt lat="49.41652" lon="20.28234"></trkpt>
      <trkpt lat="49.41656" lon="20.28156"></trkpt>
      <trkpt lat="49.41626" lon="20.28017"></trkpt>
      <trkpt lat="49.41628" lon="20.27888"></trkpt>
      <trkpt lat="49.41646" lon="20.27767"></trkpt>
      <trkpt lat="49.41642" lon="20.2759"></trkpt>
      <trkpt lat="49.41591" lon="20.27455"></trkpt>
      <trkpt lat="49.41534" lon="20.2737"></trkpt>
      <trkpt lat="49.4147" lon="20.27327"></trkpt>
      <trkpt lat="49.4141" lon="20.27337"></trkpt>
      <trkpt lat="49.41373" lon="20.27274"></trkpt>
      <trkpt lat="49.41321" lon="20.27166"></trkpt>
      <trkpt lat="49.41266" lon="20.26866"></trkpt>
      <trkpt lat="49.41218" lon="20.26757"></trkpt>
      <trkpt lat="49.41233" lon="20.26601"></trkpt>
      <trkpt lat="49.41313" lon="20.26501"></trkpt>
      <trkpt lat="49.41364" lon="20.2641"></trkpt>
      <trkpt lat="49.41495" lon="20.26075"></trkpt>
      <trkpt lat="49.41517" lon="20.25948"></trkpt>
      <trkpt lat="49.41561" lon="20.25882"></trkpt>
      <trkpt lat="49.41579" lon="20.2588"></trkpt>
      <trkpt lat="49.41612" lon="20.25769"></trkpt>
      <trkpt lat="49.41626" lon="20.25759"></trkpt>
      <trkpt lat="49.4163" lon="20.25677"></trkpt>
      <trkpt lat="49.41618" lon="20.25633"></trkpt>
      <trkpt lat="49.41646" lon="20.25586"></trkpt>
      <trkpt lat="49.41738" lon="20.25476"></trkpt>
      <trkpt lat="49.4181" lon="20.25263"></trkpt>
      <trkpt lat="49.41892" lon="20.25184"></trkpt>
      <trkpt lat="49.41913" lon="20.25112"></trkpt>
      <trkpt lat="49.41913" lon="20.25064"></trkpt>
      <trkpt lat="49.41872" lon="20.24994"></trkpt>
      <trkpt lat="49.41873" lon="20.24942"></trkpt>
      <trkpt lat="49.41861" lon="20.24901"></trkpt>
      <trkpt lat="49.41831" lon="20.24897"></trkpt>
      <trkpt lat="49.41802" lon="20.24913"></trkpt>
      <trkpt lat="49.4177" lon="20.24907"></trkpt>
      <trkpt lat="49.41741" lon="20.24845"></trkpt>
      <trkpt lat="49.41705" lon="20.24833"></trkpt>
      <trkpt lat="49.417" lon="20.24821"></trkpt>
      <trkpt lat="49.41709" lon="20.24663"></trkpt>
      <trkpt lat="49.41697" lon="20.24575"></trkpt>
      <trkpt lat="49.41716" lon="20.24494"></trkpt>
      <trkpt lat="49.41719" lon="20.24329"></trkpt>
      <trkpt lat="49.41711" lon="20.24255"></trkpt>
      <trkpt lat="49.4168" lon="20.24198"></trkpt>
      <trkpt lat="49.41668" lon="20.24144"></trkpt>
      <trkpt lat="49.4167" lon="20.24065"></trkpt>
      <trkpt lat="49.41712" lon="20.23998"></trkpt>
      <trkpt lat="49.41724" lon="20.23999"></trkpt>
      <trkpt lat="49.41752" lon="20.24033"></trkpt>
      <trkpt lat="49.4177" lon="20.24029"></trkpt>
      <trkpt lat="49.41776" lon="20.24014"></trkpt>
      <trkpt lat="49.41774" lon="20.2384"></trkpt>
      <trkpt lat="49.41788" lon="20.23757"></trkpt>
      <trkpt lat="49.4177" lon="20.23566"></trkpt>
      <trkpt lat="49.41795" lon="20.23407"></trkpt>
      <trkpt lat="49.41822" lon="20.22932"></trkpt>
      <trkpt lat="49.4182" lon="20.22868"></trkpt>
      <trkpt lat="49.41844" lon="20.2268"></trkpt>
      <trkpt lat="49.41827" lon="20.22573"></trkpt>
      <trkpt lat="49.41816" lon="20.22335"></trkpt>
      <trkpt lat="49.41829" lon="20.22098"></trkpt>
      <trkpt lat="49.41713" lon="20.22046"></trkpt>
      <trkpt lat="49.41639" lon="20.22039"></trkpt>
      <trkpt lat="49.41559" lon="20.21968"></trkpt>
      <trkpt lat="49.415" lon="20.21947"></trkpt>
      <trkpt lat="49.4147" lon="20.21912"></trkpt>
      <trkpt lat="49.41448" lon="20.21567"></trkpt>
      <trkpt lat="49.41464" lon="20.2141"></trkpt>
      <trkpt lat="49.41444" lon="20.21138"></trkpt>
      <trkpt lat="49.41412" lon="20.21119"></trkpt>
      <trkpt lat="49.41396" lon="20.21083"></trkpt>
      <trkpt lat="49.41381" lon="20.20893"></trkpt>
      <trkpt lat="49.41344" lon="20.20859"></trkpt>
      <trkpt lat="49.41272" lon="20.20859"></trkpt>
      <trkpt lat="49.41249" lon="20.20816"></trkpt>
      <trkpt lat="49.41265" lon="20.20791"></trkpt>
      <trkpt lat="49.41331" lon="20.20751"></trkpt>
      <trkpt lat="49.41338" lon="20.20733"></trkpt>
      <trkpt lat="49.4134" lon="20.20682"></trkpt>
      <trkpt lat="49.41312" lon="20.2042"></trkpt>
      <trkpt lat="49.41335" lon="20.20161"></trkpt>
      <trkpt lat="49.41344" lon="20.19288"></trkpt>
      <trkpt lat="49.41327" lon="20.19182"></trkpt>
      <trkpt lat="49.41356" lon="20.19106"></trkpt>
      <trkpt lat="49.41441" lon="20.18982"></trkpt>
      <trkpt lat="49.41584" lon="20.18865"></trkpt>
      <trkpt lat="49.41601" lon="20.18841"></trkpt>
      <trkpt lat="49.41723" lon="20.18621"></trkpt>
      <trkpt lat="49.41747" lon="20.18595"></trkpt>
      <trkpt lat="49.41969" lon="20.18454"></trkpt>
      <trkpt lat="49.42075" lon="20.18226"></trkpt>
      <trkpt lat="49.42114" lon="20.18105"></trkpt>
      <trkpt lat="49.42133" lon="20.18073"></trkpt>
      <trkpt lat="49.42114" lon="20.1804"></trkpt>
      <trkpt lat="49.42121" lon="20.17957"></trkpt>
      <trkpt lat="49.42096" lon="20.17802"></trkpt>
      <trkpt lat="49.421" lon="20.17638"></trkpt>
      <trkpt lat="49.42042" lon="20.17186"></trkpt>
      <trkpt lat="49.4206" lon="20.17061"></trkpt>
      <trkpt lat="49.42052" lon="20.16993"></trkpt>
      <trkpt lat="49.42061" lon="20.16919"></trkpt>
      <trkpt lat="49.42052" lon="20.16884"></trkpt>
      <trkpt lat="49.42051" lon="20.16756"></trkpt>
      <trkpt lat="49.42062" lon="20.16709"></trkpt>
      <trkpt lat="49.42061" lon="20.16502"></trkpt>
      <trkpt lat="49.42083" lon="20.16308"></trkpt>
      <trkpt lat="49.42069" lon="20.16267"></trkpt>
      <trkpt lat="49.42063" lon="20.16203"></trkpt>
      <trkpt lat="49.42087" lon="20.16126"></trkpt>
      <trkpt lat="49.42305" lon="20.15818"></trkpt>
      <trkpt lat="49.42374" lon="20.15848"></trkpt>
      <trkpt lat="49.4243" lon="20.15852"></trkpt>
      <trkpt lat="49.42488" lon="20.15889"></trkpt>
      <trkpt lat="49.4257" lon="20.15919"></trkpt>
      <trkpt lat="49.42598" lon="20.15921"></trkpt>
      <trkpt lat="49.42632" lon="20.15898"></trkpt>
      <trkpt lat="49.42831" lon="20.15928"></trkpt>
      <trkpt lat="49.42867" lon="20.15949"></trkpt>
      <trkpt lat="49.42919" lon="20.16003"></trkpt>
      <trkpt lat="49.42965" lon="20.16016"></trkpt>
      <trkpt lat="49.43019" lon="20.16028"></trkpt>
      <trkpt lat="49.43077" lon="20.16002"></trkpt>
      <trkpt lat="49.43154" lon="20.16047"></trkpt>
      <trkpt lat="49.43236" lon="20.16066"></trkpt>
      <trkpt lat="49.4326" lon="20.16095"></trkpt>
      <trkpt lat="49.43351" lon="20.16137"></trkpt>
      <trkpt lat="49.43452" lon="20.16163"></trkpt>
      <trkpt lat="49.43446" lon="20.15926"></trkpt>
      <trkpt lat="49.43433" lon="20.15812"></trkpt>
      <trkpt lat="49.4344" lon="20.15768"></trkpt>
      <trkpt lat="49.43606" lon="20.15471"></trkpt>
      <trkpt lat="49.43886" lon="20.14738"></trkpt>
      <trkpt lat="49.43957" lon="20.14593"></trkpt>
      <trkpt lat="49.44077" lon="20.14402"></trkpt>
    </trkseg>
  </trk>
</gpx>
