<?xml version="1.0" encoding="UTF-8"?>
<gpx version="1.1" creator="szlakipienin.pl" xmlns="http://www.topografix.com/GPX/1/1">
  <metadata>
    <name>Trzy Korony — Okrąglica</name>
    <desc>4.2 km, 114 min, 515 m podejść. Opis trasy: https://szlakipienin.pl/szlaki/trzy-korony-okraglica</desc>
    <link href="https://szlakipienin.pl/szlaki/trzy-korony-okraglica"><text>Trzy Korony — Okrąglica</text></link>
  </metadata>
  <trk>
    <name>Trzy Korony — Okrąglica</name>
    <trkseg>
      <trkpt lat="49.44058" lon="20.42791"></trkpt>
      <trkpt lat="49.44061" lon="20.42775"></trkpt>
      <trkpt lat="49.44062" lon="20.42771"></trkpt>
      <trkpt lat="49.44061" lon="20.42766"></trkpt>
      <trkpt lat="49.4406" lon="20.42744"></trkpt>
      <trkpt lat="49.44057" lon="20.42691"></trkpt>
      <trkpt lat="49.4406" lon="20.42669"></trkpt>
      <trkpt lat="49.44063" lon="20.42651"></trkpt>
      <trkpt lat="49.44065" lon="20.42637"></trkpt>
      <trkpt lat="49.4407" lon="20.42606"></trkpt>
      <trkpt lat="49.44071" lon="20.4259"></trkpt>
      <trkpt lat="49.44074" lon="20.42584"></trkpt>
      <trkpt lat="49.44067" lon="20.42553"></trkpt>
      <trkpt lat="49.44062" lon="20.42529"></trkpt>
      <trkpt lat="49.44059" lon="20.42517"></trkpt>
      <trkpt lat="49.44055" lon="20.42499"></trkpt>
      <trkpt lat="49.44053" lon="20.42485"></trkpt>
      <trkpt lat="49.4405" lon="20.42469"></trkpt>
      <trkpt lat="49.4404" lon="20.42396"></trkpt>
      <trkpt lat="49.44038" lon="20.42373"></trkpt>
      <trkpt lat="49.44037" lon="20.42363"></trkpt>
      <trkpt lat="49.44037" lon="20.4235"></trkpt>
      <trkpt lat="49.44037" lon="20.42341"></trkpt>
      <trkpt lat="49.44037" lon="20.42331"></trkpt>
      <trkpt lat="49.44038" lon="20.4232"></trkpt>
      <trkpt lat="49.44039" lon="20.42307"></trkpt>
      <trkpt lat="49.44039" lon="20.42298"></trkpt>
      <trkpt lat="49.44041" lon="20.42278"></trkpt>
      <trkpt lat="49.44035" lon="20.42276"></trkpt>
      <trkpt lat="49.44033" lon="20.42274"></trkpt>
      <trkpt lat="49.44031" lon="20.42271"></trkpt>
      <trkpt lat="49.44027" lon="20.42265"></trkpt>
      <trkpt lat="49.44012" lon="20.4224"></trkpt>
      <trkpt lat="49.44009" lon="20.42234"></trkpt>
      <trkpt lat="49.43996" lon="20.42225"></trkpt>
      <trkpt lat="49.43953" lon="20.42193"></trkpt>
      <trkpt lat="49.43935" lon="20.42184"></trkpt>
      <trkpt lat="49.4393" lon="20.42181"></trkpt>
      <trkpt lat="49.43916" lon="20.42178"></trkpt>
      <trkpt lat="49.43893" lon="20.42187"></trkpt>
      <trkpt lat="49.43891" lon="20.42187"></trkpt>
      <trkpt lat="49.43882" lon="20.42188"></trkpt>
      <trkpt lat="49.43847" lon="20.42186"></trkpt>
      <trkpt lat="49.43838" lon="20.42187"></trkpt>
      <trkpt lat="49.43825" lon="20.42196"></trkpt>
      <trkpt lat="49.43822" lon="20.42201"></trkpt>
      <trkpt lat="49.438" lon="20.42224"></trkpt>
      <trkpt lat="49.43782" lon="20.42232"></trkpt>
      <trkpt lat="49.43774" lon="20.42232"></trkpt>
      <trkpt lat="49.43749" lon="20.42231"></trkpt>
      <trkpt lat="49.43739" lon="20.42232"></trkpt>
      <trkpt lat="49.43727" lon="20.42237"></trkpt>
      <trkpt lat="49.43689" lon="20.42257"></trkpt>
      <trkpt lat="49.43671" lon="20.42265"></trkpt>
      <trkpt lat="49.43628" lon="20.42261"></trkpt>
      <trkpt lat="49.43616" lon="20.42264"></trkpt>
      <trkpt lat="49.43552" lon="20.42303"></trkpt>
      <trkpt lat="49.43534" lon="20.42311"></trkpt>
      <trkpt lat="49.43517" lon="20.42329"></trkpt>
      <trkpt lat="49.43503" lon="20.42339"></trkpt>
      <trkpt lat="49.43489" lon="20.42348"></trkpt>
      <trkpt lat="49.43481" lon="20.4235"></trkpt>
      <trkpt lat="49.43473" lon="20.4235"></trkpt>
      <trkpt lat="49.43468" lon="20.42355"></trkpt>
      <trkpt lat="49.43454" lon="20.4236"></trkpt>
      <trkpt lat="49.43441" lon="20.42364"></trkpt>
      <trkpt lat="49.43434" lon="20.42363"></trkpt>
      <trkpt lat="49.43425" lon="20.42369"></trkpt>
      <trkpt lat="49.43417" lon="20.42369"></trkpt>
      <trkpt lat="49.43404" lon="20.42374"></trkpt>
      <trkpt lat="49.434" lon="20.42376"></trkpt>
      <trkpt lat="49.43387" lon="20.42374"></trkpt>
      <trkpt lat="49.43371" lon="20.4236"></trkpt>
      <trkpt lat="49.43363" lon="20.4236"></trkpt>
      <trkpt lat="49.4336" lon="20.4236"></trkpt>
      <trkpt lat="49.43352" lon="20.42361"></trkpt>
      <trkpt lat="49.43341" lon="20.42355"></trkpt>
      <trkpt lat="49.4332" lon="20.42344"></trkpt>
      <trkpt lat="49.43307" lon="20.42335"></trkpt>
      <trkpt lat="49.43301" lon="20.42326"></trkpt>
      <trkpt lat="49.43269" lon="20.42305"></trkpt>
      <trkpt lat="49.43253" lon="20.42299"></trkpt>
      <trkpt lat="49.43244" lon="20.42296"></trkpt>
      <trkpt lat="49.43223" lon="20.42279"></trkpt>
      <trkpt lat="49.4314" lon="20.42228"></trkpt>
      <trkpt lat="49.43124" lon="20.42212"></trkpt>
      <trkpt lat="49.43113" lon="20.42198"></trkpt>
      <trkpt lat="49.43101" lon="20.42186"></trkpt>
      <trkpt lat="49.43092" lon="20.42182"></trkpt>
      <trkpt lat="49.43071" lon="20.42176"></trkpt>
      <trkpt lat="49.43046" lon="20.42154"></trkpt>
      <trkpt lat="49.43012" lon="20.42128"></trkpt>
      <trkpt lat="49.43" lon="20.4212"></trkpt>
      <trkpt lat="49.42992" lon="20.42111"></trkpt>
      <trkpt lat="49.4298" lon="20.42096"></trkpt>
      <trkpt lat="49.4297" lon="20.42074"></trkpt>
      <trkpt lat="49.42965" lon="20.42055"></trkpt>
      <trkpt lat="49.42961" lon="20.42038"></trkpt>
      <trkpt lat="49.42935" lon="20.41981"></trkpt>
      <trkpt lat="49.42895" lon="20.41904"></trkpt>
      <trkpt lat="49.42854" lon="20.41802"></trkpt>
      <trkpt lat="49.42834" lon="20.41751"></trkpt>
      <trkpt lat="49.42803" lon="20.41681"></trkpt>
      <trkpt lat="49.42785" lon="20.41645"></trkpt>
      <trkpt lat="49.42752" lon="20.4156"></trkpt>
      <trkpt lat="49.42707" lon="20.41472"></trkpt>
      <trkpt lat="49.42687" lon="20.41437"></trkpt>
      <trkpt lat="49.42673" lon="20.41413"></trkpt>
      <trkpt lat="49.42664" lon="20.41385"></trkpt>
      <trkpt lat="49.42647" lon="20.41333"></trkpt>
      <trkpt lat="49.42639" lon="20.41308"></trkpt>
      <trkpt lat="49.42621" lon="20.41275"></trkpt>
      <trkpt lat="49.42607" lon="20.41262"></trkpt>
      <trkpt lat="49.42588" lon="20.41262"></trkpt>
      <trkpt lat="49.42567" lon="20.41259"></trkpt>
      <trkpt lat="49.42553" lon="20.41248"></trkpt>
      <trkpt lat="49.42542" lon="20.41227"></trkpt>
      <trkpt lat="49.42531" lon="20.41172"></trkpt>
      <trkpt lat="49.42501" lon="20.41102"></trkpt>
      <trkpt lat="49.42468" lon="20.41069"></trkpt>
      <trkpt lat="49.4246" lon="20.41057"></trkpt>
      <trkpt lat="49.42455" lon="20.41052"></trkpt>
      <trkpt lat="49.42453" lon="20.41053"></trkpt>
      <trkpt lat="49.42452" lon="20.41053"></trkpt>
      <trkpt lat="49.42449" lon="20.41054"></trkpt>
      <trkpt lat="49.42446" lon="20.41056"></trkpt>
      <trkpt lat="49.42441" lon="20.41067"></trkpt>
      <trkpt lat="49.42417" lon="20.41136"></trkpt>
      <trkpt lat="49.4241" lon="20.41148"></trkpt>
      <trkpt lat="49.42394" lon="20.41154"></trkpt>
      <trkpt lat="49.42378" lon="20.41149"></trkpt>
      <trkpt lat="49.42351" lon="20.41132"></trkpt>
      <trkpt lat="49.42335" lon="20.41116"></trkpt>
      <trkpt lat="49.42324" lon="20.41097"></trkpt>
      <trkpt lat="49.42315" lon="20.41082"></trkpt>
      <trkpt lat="49.42296" lon="20.41054"></trkpt>
      <trkpt lat="49.42285" lon="20.41037"></trkpt>
      <trkpt lat="49.42264" lon="20.41004"></trkpt>
      <trkpt lat="49.42254" lon="20.41"></trkpt>
      <trkpt lat="49.42237" lon="20.40998"></trkpt>
      <trkpt lat="49.42221" lon="20.40992"></trkpt>
      <trkpt lat="49.42198" lon="20.40979"></trkpt>
      <trkpt lat="49.42187" lon="20.40965"></trkpt>
      <trkpt lat="49.4217" lon="20.40943"></trkpt>
      <trkpt lat="49.42161" lon="20.40931"></trkpt>
      <trkpt lat="49.42148" lon="20.40926"></trkpt>
      <trkpt lat="49.42139" lon="20.40928"></trkpt>
      <trkpt lat="49.42129" lon="20.40936"></trkpt>
      <trkpt lat="49.42121" lon="20.40937"></trkpt>
      <trkpt lat="49.42111" lon="20.40931"></trkpt>
      <trkpt lat="49.42097" lon="20.40923"></trkpt>
      <trkpt lat="49.42086" lon="20.4092"></trkpt>
      <trkpt lat="49.42042" lon="20.40903"></trkpt>
      <trkpt lat="49.42037" lon="20.40901"></trkpt>
      <trkpt lat="49.41994" lon="20.40866"></trkpt>
      <trkpt lat="49.41981" lon="20.40858"></trkpt>
      <trkpt lat="49.41935" lon="20.40835"></trkpt>
      <trkpt lat="49.41918" lon="20.40819"></trkpt>
      <trkpt lat="49.419" lon="20.40807"></trkpt>
      <trkpt lat="49.4189" lon="20.40848"></trkpt>
      <trkpt lat="49.41882" lon="20.40867"></trkpt>
      <trkpt lat="49.41875" lon="20.40887"></trkpt>
      <trkpt lat="49.4187" lon="20.40908"></trkpt>
      <trkpt lat="49.41868" lon="20.4093"></trkpt>
      <trkpt lat="49.41866" lon="20.40939"></trkpt>
      <trkpt lat="49.41866" lon="20.40944"></trkpt>
      <trkpt lat="49.41865" lon="20.4095"></trkpt>
      <trkpt lat="49.41866" lon="20.40962"></trkpt>
      <trkpt lat="49.41864" lon="20.40978"></trkpt>
      <trkpt lat="49.41861" lon="20.4099"></trkpt>
      <trkpt lat="49.41831" lon="20.41029"></trkpt>
      <trkpt lat="49.4182" lon="20.41052"></trkpt>
      <trkpt lat="49.41806" lon="20.41092"></trkpt>
      <trkpt lat="49.41799" lon="20.41121"></trkpt>
      <trkpt lat="49.41796" lon="20.41141"></trkpt>
      <trkpt lat="49.41788" lon="20.41164"></trkpt>
      <trkpt lat="49.41784" lon="20.41178"></trkpt>
      <trkpt lat="49.41774" lon="20.41194"></trkpt>
      <trkpt lat="49.41766" lon="20.41211"></trkpt>
      <trkpt lat="49.41761" lon="20.4123"></trkpt>
      <trkpt lat="49.41752" lon="20.41258"></trkpt>
      <trkpt lat="49.4174" lon="20.4128"></trkpt>
      <trkpt lat="49.41733" lon="20.41284"></trkpt>
      <trkpt lat="49.41722" lon="20.41286"></trkpt>
      <trkpt lat="49.41716" lon="20.4129"></trkpt>
      <trkpt lat="49.41713" lon="20.413"></trkpt>
      <trkpt lat="49.41703" lon="20.41338"></trkpt>
      <trkpt lat="49.41697" lon="20.41354"></trkpt>
      <trkpt lat="49.41685" lon="20.41371"></trkpt>
      <trkpt lat="49.41678" lon="20.41382"></trkpt>
      <trkpt lat="49.41672" lon="20.41385"></trkpt>
      <trkpt lat="49.41652" lon="20.41384"></trkpt>
      <trkpt lat="49.41644" lon="20.4138"></trkpt>
      <trkpt lat="49.41638" lon="20.41375"></trkpt>
      <trkpt lat="49.41634" lon="20.41367"></trkpt>
      <trkpt lat="49.41629" lon="20.41339"></trkpt>
      <trkpt lat="49.41625" lon="20.4133"></trkpt>
      <trkpt lat="49.41615" lon="20.41322"></trkpt>
      <trkpt lat="49.41601" lon="20.41322"></trkpt>
      <trkpt lat="49.41595" lon="20.41325"></trkpt>
      <trkpt lat="49.41583" lon="20.41334"></trkpt>
      <trkpt lat="49.41567" lon="20.41337"></trkpt>
      <trkpt lat="49.41551" lon="20.4134"></trkpt>
      <trkpt lat="49.41545" lon="20.41345"></trkpt>
      <trkpt lat="49.41537" lon="20.41362"></trkpt>
      <trkpt lat="49.41534" lon="20.41395"></trkpt>
      <trkpt lat="49.41531" lon="20.41404"></trkpt>
      <trkpt lat="49.41525" lon="20.41412"></trkpt>
      <trkpt lat="49.41506" lon="20.4144"></trkpt>
      <trkpt lat="49.41497" lon="20.4145"></trkpt>
      <trkpt lat="49.41486" lon="20.41456"></trkpt>
      <trkpt lat="49.41478" lon="20.41457"></trkpt>
      <trkpt lat="49.41472" lon="20.41457"></trkpt>
      <trkpt lat="49.41466" lon="20.4146"></trkpt>
      <trkpt lat="49.41464" lon="20.41465"></trkpt>
    </trkseg>
  </trk>
</gpx>
