<?xml version="1.0" encoding="UTF-8"?>
<gpx version="1.1" creator="szlakipienin.pl" xmlns="http://www.topografix.com/GPX/1/1">
  <metadata>
    <name>Watrisko</name>
    <desc>12.6 km, 270 min, 807 m podejść. Opis trasy: https://szlakipienin.pl/szlaki/watrisko</desc>
    <link href="https://szlakipienin.pl/szlaki/watrisko"><text>Watrisko</text></link>
  </metadata>
  <trk>
    <name>Watrisko</name>
    <trkseg>
      <trkpt lat="49.42514" lon="20.48259"></trkpt>
      <trkpt lat="49.42528" lon="20.48233"></trkpt>
      <trkpt lat="49.4254" lon="20.48206"></trkpt>
      <trkpt lat="49.42547" lon="20.48187"></trkpt>
      <trkpt lat="49.42555" lon="20.48166"></trkpt>
      <trkpt lat="49.4256" lon="20.48153"></trkpt>
      <trkpt lat="49.42569" lon="20.48131"></trkpt>
      <trkpt lat="49.42578" lon="20.48107"></trkpt>
      <trkpt lat="49.42574" lon="20.48103"></trkpt>
      <trkpt lat="49.42564" lon="20.48097"></trkpt>
      <trkpt lat="49.42562" lon="20.48099"></trkpt>
      <trkpt lat="49.42555" lon="20.48104"></trkpt>
      <trkpt lat="49.42555" lon="20.48079"></trkpt>
      <trkpt lat="49.42557" lon="20.48074"></trkpt>
      <trkpt lat="49.42542" lon="20.48064"></trkpt>
      <trkpt lat="49.4255" lon="20.48034"></trkpt>
      <trkpt lat="49.4252" lon="20.48031"></trkpt>
      <trkpt lat="49.42517" lon="20.48047"></trkpt>
      <trkpt lat="49.42512" lon="20.48054"></trkpt>
      <trkpt lat="49.42508" lon="20.48058"></trkpt>
      <trkpt lat="49.42503" lon="20.48059"></trkpt>
      <trkpt lat="49.42497" lon="20.48057"></trkpt>
      <trkpt lat="49.42468" lon="20.48038"></trkpt>
      <trkpt lat="49.42467" lon="20.48037"></trkpt>
      <trkpt lat="49.42465" lon="20.48036"></trkpt>
      <trkpt lat="49.42441" lon="20.48025"></trkpt>
      <trkpt lat="49.42436" lon="20.48023"></trkpt>
      <trkpt lat="49.42433" lon="20.48021"></trkpt>
      <trkpt lat="49.42429" lon="20.4804"></trkpt>
      <trkpt lat="49.42423" lon="20.48087"></trkpt>
      <trkpt lat="49.42415" lon="20.48126"></trkpt>
      <trkpt lat="49.42411" lon="20.48145"></trkpt>
      <trkpt lat="49.42392" lon="20.4822"></trkpt>
      <trkpt lat="49.42385" lon="20.48249"></trkpt>
      <trkpt lat="49.42361" lon="20.48231"></trkpt>
      <trkpt lat="49.42357" lon="20.48225"></trkpt>
      <trkpt lat="49.42354" lon="20.48217"></trkpt>
      <trkpt lat="49.42354" lon="20.48205"></trkpt>
      <trkpt lat="49.42356" lon="20.48196"></trkpt>
      <trkpt lat="49.42356" lon="20.48193"></trkpt>
      <trkpt lat="49.42362" lon="20.48176"></trkpt>
      <trkpt lat="49.42362" lon="20.48154"></trkpt>
      <trkpt lat="49.42361" lon="20.48149"></trkpt>
      <trkpt lat="49.42359" lon="20.48146"></trkpt>
      <trkpt lat="49.42356" lon="20.48147"></trkpt>
      <trkpt lat="49.4235" lon="20.48151"></trkpt>
      <trkpt lat="49.42339" lon="20.48165"></trkpt>
      <trkpt lat="49.42324" lon="20.48182"></trkpt>
      <trkpt lat="49.42309" lon="20.48194"></trkpt>
      <trkpt lat="49.42285" lon="20.48211"></trkpt>
      <trkpt lat="49.42257" lon="20.48225"></trkpt>
      <trkpt lat="49.42244" lon="20.48229"></trkpt>
      <trkpt lat="49.42231" lon="20.48228"></trkpt>
      <trkpt lat="49.42222" lon="20.48219"></trkpt>
      <trkpt lat="49.42223" lon="20.48203"></trkpt>
      <trkpt lat="49.42227" lon="20.48182"></trkpt>
      <trkpt lat="49.42233" lon="20.48153"></trkpt>
      <trkpt lat="49.42236" lon="20.48131"></trkpt>
      <trkpt lat="49.42238" lon="20.48103"></trkpt>
      <trkpt lat="49.42232" lon="20.48073"></trkpt>
      <trkpt lat="49.42223" lon="20.48053"></trkpt>
      <trkpt lat="49.42206" lon="20.48038"></trkpt>
      <trkpt lat="49.42194" lon="20.48031"></trkpt>
      <trkpt lat="49.42183" lon="20.48028"></trkpt>
      <trkpt lat="49.42161" lon="20.48019"></trkpt>
      <trkpt lat="49.42143" lon="20.48008"></trkpt>
      <trkpt lat="49.42127" lon="20.47994"></trkpt>
      <trkpt lat="49.42125" lon="20.47987"></trkpt>
      <trkpt lat="49.42124" lon="20.47974"></trkpt>
      <trkpt lat="49.42129" lon="20.47939"></trkpt>
      <trkpt lat="49.42132" lon="20.47889"></trkpt>
      <trkpt lat="49.42127" lon="20.47865"></trkpt>
      <trkpt lat="49.42114" lon="20.47828"></trkpt>
      <trkpt lat="49.42101" lon="20.47805"></trkpt>
      <trkpt lat="49.42091" lon="20.47773"></trkpt>
      <trkpt lat="49.42084" lon="20.4775"></trkpt>
      <trkpt lat="49.42079" lon="20.47724"></trkpt>
      <trkpt lat="49.4207" lon="20.47701"></trkpt>
      <trkpt lat="49.42059" lon="20.47685"></trkpt>
      <trkpt lat="49.42047" lon="20.47675"></trkpt>
      <trkpt lat="49.42029" lon="20.4767"></trkpt>
      <trkpt lat="49.42019" lon="20.47671"></trkpt>
      <trkpt lat="49.42002" lon="20.47669"></trkpt>
      <trkpt lat="49.41989" lon="20.47666"></trkpt>
      <trkpt lat="49.41978" lon="20.47668"></trkpt>
      <trkpt lat="49.41968" lon="20.47679"></trkpt>
      <trkpt lat="49.41963" lon="20.47689"></trkpt>
      <trkpt lat="49.41953" lon="20.47692"></trkpt>
      <trkpt lat="49.41943" lon="20.477"></trkpt>
      <trkpt lat="49.41937" lon="20.47708"></trkpt>
      <trkpt lat="49.41935" lon="20.47707"></trkpt>
      <trkpt lat="49.41929" lon="20.47697"></trkpt>
      <trkpt lat="49.41925" lon="20.47691"></trkpt>
      <trkpt lat="49.41919" lon="20.4769"></trkpt>
      <trkpt lat="49.41916" lon="20.47681"></trkpt>
      <trkpt lat="49.41915" lon="20.47681"></trkpt>
      <trkpt lat="49.4191" lon="20.47687"></trkpt>
      <trkpt lat="49.41906" lon="20.47687"></trkpt>
      <trkpt lat="49.41904" lon="20.47684"></trkpt>
      <trkpt lat="49.41903" lon="20.47673"></trkpt>
      <trkpt lat="49.41904" lon="20.47652"></trkpt>
      <trkpt lat="49.41899" lon="20.4764"></trkpt>
      <trkpt lat="49.41893" lon="20.47635"></trkpt>
      <trkpt lat="49.41892" lon="20.47633"></trkpt>
      <trkpt lat="49.41886" lon="20.47631"></trkpt>
      <trkpt lat="49.41881" lon="20.47633"></trkpt>
      <trkpt lat="49.41871" lon="20.47645"></trkpt>
      <trkpt lat="49.41848" lon="20.47641"></trkpt>
      <trkpt lat="49.41842" lon="20.47642"></trkpt>
      <trkpt lat="49.41837" lon="20.47657"></trkpt>
      <trkpt lat="49.4183" lon="20.47658"></trkpt>
      <trkpt lat="49.41821" lon="20.47658"></trkpt>
      <trkpt lat="49.41789" lon="20.4759"></trkpt>
      <trkpt lat="49.41779" lon="20.47585"></trkpt>
      <trkpt lat="49.41768" lon="20.47586"></trkpt>
      <trkpt lat="49.41733" lon="20.47618"></trkpt>
      <trkpt lat="49.41719" lon="20.47631"></trkpt>
      <trkpt lat="49.41692" lon="20.47662"></trkpt>
      <trkpt lat="49.41675" lon="20.47679"></trkpt>
      <trkpt lat="49.41648" lon="20.47689"></trkpt>
      <trkpt lat="49.41638" lon="20.4769"></trkpt>
      <trkpt lat="49.41633" lon="20.47689"></trkpt>
      <trkpt lat="49.41627" lon="20.47688"></trkpt>
      <trkpt lat="49.41597" lon="20.4768"></trkpt>
      <trkpt lat="49.41561" lon="20.47668"></trkpt>
      <trkpt lat="49.4154" lon="20.4767"></trkpt>
      <trkpt lat="49.41504" lon="20.47674"></trkpt>
      <trkpt lat="49.41472" lon="20.47678"></trkpt>
      <trkpt lat="49.41463" lon="20.47685"></trkpt>
      <trkpt lat="49.41427" lon="20.47688"></trkpt>
      <trkpt lat="49.41409" lon="20.47668"></trkpt>
      <trkpt lat="49.41393" lon="20.47682"></trkpt>
      <trkpt lat="49.4138" lon="20.47682"></trkpt>
      <trkpt lat="49.4137" lon="20.4768"></trkpt>
      <trkpt lat="49.41359" lon="20.47674"></trkpt>
      <trkpt lat="49.41343" lon="20.47681"></trkpt>
      <trkpt lat="49.41333" lon="20.4769"></trkpt>
      <trkpt lat="49.41318" lon="20.47704"></trkpt>
      <trkpt lat="49.41299" lon="20.47707"></trkpt>
      <trkpt lat="49.41284" lon="20.47711"></trkpt>
      <trkpt lat="49.41261" lon="20.47726"></trkpt>
      <trkpt lat="49.41251" lon="20.47733"></trkpt>
      <trkpt lat="49.41226" lon="20.47764"></trkpt>
      <trkpt lat="49.412" lon="20.47796"></trkpt>
      <trkpt lat="49.41185" lon="20.47817"></trkpt>
      <trkpt lat="49.41174" lon="20.47833"></trkpt>
      <trkpt lat="49.41166" lon="20.47843"></trkpt>
      <trkpt lat="49.41142" lon="20.47875"></trkpt>
      <trkpt lat="49.41132" lon="20.47902"></trkpt>
      <trkpt lat="49.41126" lon="20.4793"></trkpt>
      <trkpt lat="49.41121" lon="20.47939"></trkpt>
      <trkpt lat="49.411" lon="20.47959"></trkpt>
      <trkpt lat="49.41077" lon="20.47992"></trkpt>
      <trkpt lat="49.41073" lon="20.48007"></trkpt>
      <trkpt lat="49.41073" lon="20.48023"></trkpt>
      <trkpt lat="49.41062" lon="20.48045"></trkpt>
      <trkpt lat="49.41055" lon="20.48064"></trkpt>
      <trkpt lat="49.41052" lon="20.48083"></trkpt>
      <trkpt lat="49.41047" lon="20.48098"></trkpt>
      <trkpt lat="49.41034" lon="20.48111"></trkpt>
      <trkpt lat="49.41012" lon="20.48144"></trkpt>
      <trkpt lat="49.41009" lon="20.48158"></trkpt>
      <trkpt lat="49.41007" lon="20.48165"></trkpt>
      <trkpt lat="49.40978" lon="20.48241"></trkpt>
      <trkpt lat="49.40963" lon="20.48311"></trkpt>
      <trkpt lat="49.40959" lon="20.48378"></trkpt>
      <trkpt lat="49.40958" lon="20.48418"></trkpt>
      <trkpt lat="49.40957" lon="20.48435"></trkpt>
      <trkpt lat="49.40952" lon="20.48459"></trkpt>
      <trkpt lat="49.40946" lon="20.48475"></trkpt>
      <trkpt lat="49.4094" lon="20.48492"></trkpt>
      <trkpt lat="49.40924" lon="20.48529"></trkpt>
      <trkpt lat="49.40906" lon="20.48563"></trkpt>
      <trkpt lat="49.40897" lon="20.48594"></trkpt>
      <trkpt lat="49.40884" lon="20.48634"></trkpt>
      <trkpt lat="49.4087" lon="20.48688"></trkpt>
      <trkpt lat="49.40855" lon="20.48734"></trkpt>
      <trkpt lat="49.40846" lon="20.48794"></trkpt>
      <trkpt lat="49.40841" lon="20.48862"></trkpt>
      <trkpt lat="49.40833" lon="20.48871"></trkpt>
      <trkpt lat="49.40821" lon="20.48878"></trkpt>
      <trkpt lat="49.40819" lon="20.48879"></trkpt>
      <trkpt lat="49.40783" lon="20.48892"></trkpt>
      <trkpt lat="49.40741" lon="20.48924"></trkpt>
      <trkpt lat="49.40733" lon="20.48939"></trkpt>
      <trkpt lat="49.40725" lon="20.48954"></trkpt>
      <trkpt lat="49.40714" lon="20.48986"></trkpt>
      <trkpt lat="49.40698" lon="20.49001"></trkpt>
      <trkpt lat="49.40678" lon="20.49059"></trkpt>
      <trkpt lat="49.40674" lon="20.49085"></trkpt>
      <trkpt lat="49.40678" lon="20.49121"></trkpt>
      <trkpt lat="49.4068" lon="20.49147"></trkpt>
      <trkpt lat="49.40687" lon="20.49178"></trkpt>
      <trkpt lat="49.40688" lon="20.49195"></trkpt>
      <trkpt lat="49.40679" lon="20.49228"></trkpt>
      <trkpt lat="49.4068" lon="20.49262"></trkpt>
      <trkpt lat="49.40676" lon="20.49293"></trkpt>
      <trkpt lat="49.40672" lon="20.49327"></trkpt>
      <trkpt lat="49.40668" lon="20.49339"></trkpt>
      <trkpt lat="49.40661" lon="20.49361"></trkpt>
      <trkpt lat="49.40648" lon="20.49394"></trkpt>
      <trkpt lat="49.40625" lon="20.4943"></trkpt>
      <trkpt lat="49.40588" lon="20.4948"></trkpt>
      <trkpt lat="49.40579" lon="20.49502"></trkpt>
      <trkpt lat="49.40575" lon="20.49519"></trkpt>
      <trkpt lat="49.40567" lon="20.49548"></trkpt>
      <trkpt lat="49.4056" lon="20.49573"></trkpt>
      <trkpt lat="49.40557" lon="20.49595"></trkpt>
      <trkpt lat="49.40554" lon="20.49656"></trkpt>
      <trkpt lat="49.40554" lon="20.4967"></trkpt>
      <trkpt lat="49.40551" lon="20.49682"></trkpt>
      <trkpt lat="49.40546" lon="20.49707"></trkpt>
      <trkpt lat="49.40537" lon="20.49729"></trkpt>
      <trkpt lat="49.40532" lon="20.49734"></trkpt>
      <trkpt lat="49.40524" lon="20.49761"></trkpt>
      <trkpt lat="49.40511" lon="20.4981"></trkpt>
      <trkpt lat="49.40507" lon="20.4983"></trkpt>
      <trkpt lat="49.405" lon="20.49856"></trkpt>
      <trkpt lat="49.40492" lon="20.49877"></trkpt>
      <trkpt lat="49.40485" lon="20.49895"></trkpt>
      <trkpt lat="49.40482" lon="20.49913"></trkpt>
      <trkpt lat="49.40477" lon="20.49933"></trkpt>
      <trkpt lat="49.40469" lon="20.49954"></trkpt>
      <trkpt lat="49.40462" lon="20.49976"></trkpt>
      <trkpt lat="49.40454" lon="20.50003"></trkpt>
      <trkpt lat="49.40451" lon="20.50022"></trkpt>
      <trkpt lat="49.40447" lon="20.50044"></trkpt>
      <trkpt lat="49.40444" lon="20.50064"></trkpt>
      <trkpt lat="49.40438" lon="20.5008"></trkpt>
      <trkpt lat="49.40434" lon="20.50091"></trkpt>
      <trkpt lat="49.40433" lon="20.50105"></trkpt>
      <trkpt lat="49.40432" lon="20.50131"></trkpt>
      <trkpt lat="49.40425" lon="20.50173"></trkpt>
      <trkpt lat="49.40422" lon="20.50198"></trkpt>
      <trkpt lat="49.4042" lon="20.50221"></trkpt>
      <trkpt lat="49.4042" lon="20.50235"></trkpt>
      <trkpt lat="49.40419" lon="20.50248"></trkpt>
      <trkpt lat="49.40417" lon="20.50261"></trkpt>
      <trkpt lat="49.40409" lon="20.50309"></trkpt>
      <trkpt lat="49.40407" lon="20.50329"></trkpt>
      <trkpt lat="49.40401" lon="20.50352"></trkpt>
      <trkpt lat="49.40397" lon="20.50378"></trkpt>
      <trkpt lat="49.40386" lon="20.50414"></trkpt>
      <trkpt lat="49.40379" lon="20.50427"></trkpt>
      <trkpt lat="49.40374" lon="20.50436"></trkpt>
      <trkpt lat="49.40372" lon="20.50443"></trkpt>
      <trkpt lat="49.40372" lon="20.50453"></trkpt>
      <trkpt lat="49.40369" lon="20.50461"></trkpt>
      <trkpt lat="49.40364" lon="20.50475"></trkpt>
      <trkpt lat="49.4036" lon="20.50485"></trkpt>
      <trkpt lat="49.40352" lon="20.50493"></trkpt>
      <trkpt lat="49.40345" lon="20.50491"></trkpt>
      <trkpt lat="49.4034" lon="20.50494"></trkpt>
      <trkpt lat="49.40335" lon="20.50508"></trkpt>
      <trkpt lat="49.40327" lon="20.5052"></trkpt>
      <trkpt lat="49.4032" lon="20.50529"></trkpt>
      <trkpt lat="49.40288" lon="20.50557"></trkpt>
      <trkpt lat="49.40271" lon="20.50574"></trkpt>
      <trkpt lat="49.40255" lon="20.50604"></trkpt>
      <trkpt lat="49.40234" lon="20.50632"></trkpt>
      <trkpt lat="49.40226" lon="20.5065"></trkpt>
      <trkpt lat="49.40212" lon="20.50671"></trkpt>
      <trkpt lat="49.40176" lon="20.50726"></trkpt>
      <trkpt lat="49.40168" lon="20.50748"></trkpt>
      <trkpt lat="49.40152" lon="20.508"></trkpt>
      <trkpt lat="49.40121" lon="20.5086"></trkpt>
      <trkpt lat="49.40081" lon="20.50941"></trkpt>
      <trkpt lat="49.40057" lon="20.50975"></trkpt>
      <trkpt lat="49.39987" lon="20.51092"></trkpt>
      <trkpt lat="49.39964" lon="20.51116"></trkpt>
      <trkpt lat="49.39929" lon="20.51134"></trkpt>
      <trkpt lat="49.39886" lon="20.5115"></trkpt>
      <trkpt lat="49.39863" lon="20.51162"></trkpt>
      <trkpt lat="49.39786" lon="20.5119"></trkpt>
      <trkpt lat="49.39707" lon="20.51222"></trkpt>
      <trkpt lat="49.39677" lon="20.51236"></trkpt>
      <trkpt lat="49.39652" lon="20.51252"></trkpt>
      <trkpt lat="49.39545" lon="20.51418"></trkpt>
      <trkpt lat="49.39518" lon="20.51467"></trkpt>
      <trkpt lat="49.39509" lon="20.51488"></trkpt>
      <trkpt lat="49.39496" lon="20.51509"></trkpt>
      <trkpt lat="49.39474" lon="20.51578"></trkpt>
      <trkpt lat="49.39468" lon="20.51599"></trkpt>
      <trkpt lat="49.3946" lon="20.51619"></trkpt>
      <trkpt lat="49.39452" lon="20.51631"></trkpt>
      <trkpt lat="49.39436" lon="20.51645"></trkpt>
      <trkpt lat="49.39419" lon="20.51659"></trkpt>
      <trkpt lat="49.39409" lon="20.51672"></trkpt>
      <trkpt lat="49.39389" lon="20.51699"></trkpt>
      <trkpt lat="49.39372" lon="20.51716"></trkpt>
      <trkpt lat="49.39364" lon="20.51729"></trkpt>
      <trkpt lat="49.39359" lon="20.51746"></trkpt>
      <trkpt lat="49.39347" lon="20.51775"></trkpt>
      <trkpt lat="49.39317" lon="20.51833"></trkpt>
      <trkpt lat="49.39268" lon="20.51969"></trkpt>
      <trkpt lat="49.39264" lon="20.51978"></trkpt>
      <trkpt lat="49.39244" lon="20.52055"></trkpt>
      <trkpt lat="49.39231" lon="20.52096"></trkpt>
      <trkpt lat="49.3921" lon="20.52151"></trkpt>
      <trkpt lat="49.39175" lon="20.52219"></trkpt>
      <trkpt lat="49.39118" lon="20.52321"></trkpt>
      <trkpt lat="49.39096" lon="20.52352"></trkpt>
      <trkpt lat="49.39079" lon="20.52379"></trkpt>
      <trkpt lat="49.39068" lon="20.52403"></trkpt>
      <trkpt lat="49.39061" lon="20.52426"></trkpt>
      <trkpt lat="49.3905" lon="20.52459"></trkpt>
      <trkpt lat="49.39015" lon="20.52593"></trkpt>
      <trkpt lat="49.3898" lon="20.52684"></trkpt>
      <trkpt lat="49.38945" lon="20.52807"></trkpt>
      <trkpt lat="49.38911" lon="20.52922"></trkpt>
      <trkpt lat="49.38893" lon="20.53005"></trkpt>
      <trkpt lat="49.38831" lon="20.5316"></trkpt>
      <trkpt lat="49.38794" lon="20.53245"></trkpt>
      <trkpt lat="49.38757" lon="20.53322"></trkpt>
      <trkpt lat="49.38724" lon="20.53417"></trkpt>
      <trkpt lat="49.38706" lon="20.53467"></trkpt>
      <trkpt lat="49.38694" lon="20.53527"></trkpt>
      <trkpt lat="49.38689" lon="20.5359"></trkpt>
      <trkpt lat="49.38701" lon="20.53676"></trkpt>
      <trkpt lat="49.3871" lon="20.53735"></trkpt>
      <trkpt lat="49.38706" lon="20.5378"></trkpt>
      <trkpt lat="49.38696" lon="20.53845"></trkpt>
      <trkpt lat="49.38686" lon="20.53892"></trkpt>
      <trkpt lat="49.38675" lon="20.53934"></trkpt>
      <trkpt lat="49.38661" lon="20.53999"></trkpt>
      <trkpt lat="49.38651" lon="20.54045"></trkpt>
      <trkpt lat="49.38607" lon="20.54213"></trkpt>
      <trkpt lat="49.38594" lon="20.54256"></trkpt>
      <trkpt lat="49.38576" lon="20.5434"></trkpt>
      <trkpt lat="49.38562" lon="20.54443"></trkpt>
      <trkpt lat="49.38558" lon="20.54485"></trkpt>
      <trkpt lat="49.38558" lon="20.54538"></trkpt>
      <trkpt lat="49.38557" lon="20.5463"></trkpt>
      <trkpt lat="49.38556" lon="20.54648"></trkpt>
      <trkpt lat="49.38464" lon="20.54752"></trkpt>
      <trkpt lat="49.38459" lon="20.54761"></trkpt>
      <trkpt lat="49.38435" lon="20.54809"></trkpt>
      <trkpt lat="49.38418" lon="20.54863"></trkpt>
      <trkpt lat="49.38407" lon="20.54892"></trkpt>
      <trkpt lat="49.38398" lon="20.54924"></trkpt>
      <trkpt lat="49.38384" lon="20.54954"></trkpt>
      <trkpt lat="49.38314" lon="20.55071"></trkpt>
      <trkpt lat="49.38303" lon="20.55096"></trkpt>
      <trkpt lat="49.38297" lon="20.55113"></trkpt>
      <trkpt lat="49.38294" lon="20.55125"></trkpt>
      <trkpt lat="49.38284" lon="20.55129"></trkpt>
      <trkpt lat="49.38271" lon="20.55129"></trkpt>
      <trkpt lat="49.38256" lon="20.55138"></trkpt>
      <trkpt lat="49.38232" lon="20.55159"></trkpt>
      <trkpt lat="49.38207" lon="20.55202"></trkpt>
      <trkpt lat="49.38187" lon="20.5524"></trkpt>
      <trkpt lat="49.38167" lon="20.55256"></trkpt>
      <trkpt lat="49.38149" lon="20.55282"></trkpt>
      <trkpt lat="49.38125" lon="20.55346"></trkpt>
      <trkpt lat="49.38115" lon="20.55361"></trkpt>
      <trkpt lat="49.38099" lon="20.55384"></trkpt>
      <trkpt lat="49.38092" lon="20.55395"></trkpt>
      <trkpt lat="49.38094" lon="20.55405"></trkpt>
      <trkpt lat="49.38103" lon="20.5544"></trkpt>
      <trkpt lat="49.38101" lon="20.55467"></trkpt>
      <trkpt lat="49.38066" lon="20.55507"></trkpt>
      <trkpt lat="49.38057" lon="20.55526"></trkpt>
      <trkpt lat="49.38053" lon="20.55532"></trkpt>
      <trkpt lat="49.38041" lon="20.55543"></trkpt>
      <trkpt lat="49.38026" lon="20.5555"></trkpt>
      <trkpt lat="49.38041" lon="20.55543"></trkpt>
      <trkpt lat="49.38053" lon="20.55532"></trkpt>
      <trkpt lat="49.38057" lon="20.55526"></trkpt>
      <trkpt lat="49.38066" lon="20.55507"></trkpt>
      <trkpt lat="49.38101" lon="20.55467"></trkpt>
      <trkpt lat="49.38103" lon="20.5544"></trkpt>
      <trkpt lat="49.38094" lon="20.55405"></trkpt>
      <trkpt lat="49.38092" lon="20.55395"></trkpt>
      <trkpt lat="49.38099" lon="20.55384"></trkpt>
      <trkpt lat="49.38115" lon="20.55361"></trkpt>
      <trkpt lat="49.38125" lon="20.55346"></trkpt>
      <trkpt lat="49.38149" lon="20.55282"></trkpt>
      <trkpt lat="49.38167" lon="20.55256"></trkpt>
      <trkpt lat="49.38187" lon="20.5524"></trkpt>
      <trkpt lat="49.38199" lon="20.55278"></trkpt>
      <trkpt lat="49.38201" lon="20.55301"></trkpt>
      <trkpt lat="49.38204" lon="20.55338"></trkpt>
      <trkpt lat="49.38205" lon="20.55354"></trkpt>
      <trkpt lat="49.38209" lon="20.55363"></trkpt>
      <trkpt lat="49.38215" lon="20.55373"></trkpt>
      <trkpt lat="49.38233" lon="20.55394"></trkpt>
      <trkpt lat="49.38255" lon="20.55425"></trkpt>
      <trkpt lat="49.38256" lon="20.55444"></trkpt>
      <trkpt lat="49.38248" lon="20.55469"></trkpt>
      <trkpt lat="49.38241" lon="20.55512"></trkpt>
      <trkpt lat="49.38235" lon="20.55535"></trkpt>
      <trkpt lat="49.38226" lon="20.55558"></trkpt>
      <trkpt lat="49.3822" lon="20.55586"></trkpt>
      <trkpt lat="49.38213" lon="20.55602"></trkpt>
      <trkpt lat="49.38196" lon="20.55627"></trkpt>
      <trkpt lat="49.38176" lon="20.55646"></trkpt>
      <trkpt lat="49.38136" lon="20.55692"></trkpt>
      <trkpt lat="49.38127" lon="20.55699"></trkpt>
      <trkpt lat="49.38112" lon="20.55708"></trkpt>
      <trkpt lat="49.38094" lon="20.55724"></trkpt>
      <trkpt lat="49.38083" lon="20.55726"></trkpt>
      <trkpt lat="49.38076" lon="20.55727"></trkpt>
      <trkpt lat="49.38068" lon="20.55731"></trkpt>
      <trkpt lat="49.38053" lon="20.5574"></trkpt>
      <trkpt lat="49.38036" lon="20.55742"></trkpt>
      <trkpt lat="49.38019" lon="20.55747"></trkpt>
      <trkpt lat="49.38012" lon="20.55746"></trkpt>
      <trkpt lat="49.38007" lon="20.55746"></trkpt>
      <trkpt lat="49.38001" lon="20.55746"></trkpt>
      <trkpt lat="49.37993" lon="20.55747"></trkpt>
      <trkpt lat="49.37985" lon="20.55749"></trkpt>
      <trkpt lat="49.37978" lon="20.55748"></trkpt>
      <trkpt lat="49.37974" lon="20.5575"></trkpt>
      <trkpt lat="49.37961" lon="20.55763"></trkpt>
      <trkpt lat="49.37949" lon="20.55778"></trkpt>
      <trkpt lat="49.37941" lon="20.55789"></trkpt>
      <trkpt lat="49.37933" lon="20.55796"></trkpt>
      <trkpt lat="49.37918" lon="20.55816"></trkpt>
      <trkpt lat="49.3791" lon="20.55836"></trkpt>
      <trkpt lat="49.37905" lon="20.55848"></trkpt>
      <trkpt lat="49.37902" lon="20.55861"></trkpt>
      <trkpt lat="49.379" lon="20.55869"></trkpt>
      <trkpt lat="49.37896" lon="20.55877"></trkpt>
      <trkpt lat="49.37893" lon="20.55888"></trkpt>
      <trkpt lat="49.37891" lon="20.55909"></trkpt>
      <trkpt lat="49.3789" lon="20.55915"></trkpt>
      <trkpt lat="49.37892" lon="20.55924"></trkpt>
      <trkpt lat="49.37892" lon="20.55932"></trkpt>
      <trkpt lat="49.37894" lon="20.55959"></trkpt>
      <trkpt lat="49.379" lon="20.55972"></trkpt>
      <trkpt lat="49.37901" lon="20.55983"></trkpt>
      <trkpt lat="49.37903" lon="20.56004"></trkpt>
      <trkpt lat="49.37901" lon="20.56033"></trkpt>
      <trkpt lat="49.37906" lon="20.56047"></trkpt>
      <trkpt lat="49.37906" lon="20.56055"></trkpt>
      <trkpt lat="49.37906" lon="20.56063"></trkpt>
      <trkpt lat="49.37907" lon="20.56072"></trkpt>
      <trkpt lat="49.37911" lon="20.56083"></trkpt>
      <trkpt lat="49.37915" lon="20.56107"></trkpt>
      <trkpt lat="49.37914" lon="20.56118"></trkpt>
      <trkpt lat="49.37913" lon="20.56135"></trkpt>
      <trkpt lat="49.37912" lon="20.56153"></trkpt>
      <trkpt lat="49.37913" lon="20.56171"></trkpt>
      <trkpt lat="49.37916" lon="20.56182"></trkpt>
      <trkpt lat="49.37918" lon="20.56204"></trkpt>
      <trkpt lat="49.37929" lon="20.56222"></trkpt>
      <trkpt lat="49.37937" lon="20.56244"></trkpt>
      <trkpt lat="49.37942" lon="20.56278"></trkpt>
      <trkpt lat="49.37945" lon="20.56313"></trkpt>
      <trkpt lat="49.37943" lon="20.56334"></trkpt>
      <trkpt lat="49.37912" lon="20.56556"></trkpt>
      <trkpt lat="49.37906" lon="20.56578"></trkpt>
      <trkpt lat="49.37902" lon="20.56608"></trkpt>
      <trkpt lat="49.37902" lon="20.56648"></trkpt>
      <trkpt lat="49.37897" lon="20.56691"></trkpt>
      <trkpt lat="49.37898" lon="20.56731"></trkpt>
      <trkpt lat="49.37894" lon="20.5675"></trkpt>
      <trkpt lat="49.37884" lon="20.56775"></trkpt>
      <trkpt lat="49.37872" lon="20.56811"></trkpt>
      <trkpt lat="49.37862" lon="20.56855"></trkpt>
      <trkpt lat="49.37857" lon="20.56875"></trkpt>
      <trkpt lat="49.37846" lon="20.56902"></trkpt>
      <trkpt lat="49.3783" lon="20.56915"></trkpt>
      <trkpt lat="49.3782" lon="20.56929"></trkpt>
      <trkpt lat="49.37814" lon="20.56943"></trkpt>
      <trkpt lat="49.37799" lon="20.56972"></trkpt>
      <trkpt lat="49.37796" lon="20.56985"></trkpt>
      <trkpt lat="49.37794" lon="20.56999"></trkpt>
      <trkpt lat="49.37783" lon="20.57026"></trkpt>
      <trkpt lat="49.37781" lon="20.57036"></trkpt>
      <trkpt lat="49.37779" lon="20.57047"></trkpt>
      <trkpt lat="49.37775" lon="20.57055"></trkpt>
      <trkpt lat="49.37775" lon="20.57063"></trkpt>
      <trkpt lat="49.37771" lon="20.57075"></trkpt>
      <trkpt lat="49.37769" lon="20.57081"></trkpt>
      <trkpt lat="49.37766" lon="20.57092"></trkpt>
      <trkpt lat="49.37765" lon="20.57106"></trkpt>
      <trkpt lat="49.37762" lon="20.57116"></trkpt>
      <trkpt lat="49.37762" lon="20.57125"></trkpt>
      <trkpt lat="49.37764" lon="20.57138"></trkpt>
      <trkpt lat="49.37762" lon="20.57155"></trkpt>
      <trkpt lat="49.3776" lon="20.57177"></trkpt>
      <trkpt lat="49.37752" lon="20.572"></trkpt>
      <trkpt lat="49.37751" lon="20.57209"></trkpt>
      <trkpt lat="49.37745" lon="20.57225"></trkpt>
      <trkpt lat="49.37743" lon="20.57243"></trkpt>
      <trkpt lat="49.37734" lon="20.57265"></trkpt>
      <trkpt lat="49.37726" lon="20.57275"></trkpt>
      <trkpt lat="49.37716" lon="20.57284"></trkpt>
      <trkpt lat="49.37707" lon="20.57302"></trkpt>
      <trkpt lat="49.37702" lon="20.57318"></trkpt>
      <trkpt lat="49.37699" lon="20.57336"></trkpt>
      <trkpt lat="49.37697" lon="20.57351"></trkpt>
      <trkpt lat="49.37689" lon="20.57373"></trkpt>
      <trkpt lat="49.37688" lon="20.57395"></trkpt>
      <trkpt lat="49.37684" lon="20.57421"></trkpt>
      <trkpt lat="49.37684" lon="20.57432"></trkpt>
      <trkpt lat="49.37684" lon="20.57475"></trkpt>
      <trkpt lat="49.37688" lon="20.57514"></trkpt>
      <trkpt lat="49.37698" lon="20.57553"></trkpt>
      <trkpt lat="49.37712" lon="20.57583"></trkpt>
      <trkpt lat="49.37718" lon="20.57596"></trkpt>
      <trkpt lat="49.37727" lon="20.57604"></trkpt>
      <trkpt lat="49.37732" lon="20.57619"></trkpt>
      <trkpt lat="49.37742" lon="20.57632"></trkpt>
      <trkpt lat="49.37756" lon="20.57644"></trkpt>
      <trkpt lat="49.37765" lon="20.57647"></trkpt>
      <trkpt lat="49.37806" lon="20.57666"></trkpt>
      <trkpt lat="49.3786" lon="20.57683"></trkpt>
      <trkpt lat="49.37895" lon="20.57693"></trkpt>
      <trkpt lat="49.37937" lon="20.57733"></trkpt>
      <trkpt lat="49.37964" lon="20.57756"></trkpt>
      <trkpt lat="49.3797" lon="20.57761"></trkpt>
      <trkpt lat="49.38016" lon="20.57793"></trkpt>
      <trkpt lat="49.38051" lon="20.5782"></trkpt>
      <trkpt lat="49.38104" lon="20.57878"></trkpt>
      <trkpt lat="49.38131" lon="20.57907"></trkpt>
      <trkpt lat="49.38147" lon="20.57929"></trkpt>
      <trkpt lat="49.38179" lon="20.57964"></trkpt>
      <trkpt lat="49.38197" lon="20.57971"></trkpt>
      <trkpt lat="49.38242" lon="20.57987"></trkpt>
      <trkpt lat="49.38263" lon="20.57992"></trkpt>
      <trkpt lat="49.38292" lon="20.57998"></trkpt>
      <trkpt lat="49.38296" lon="20.58003"></trkpt>
      <trkpt lat="49.38301" lon="20.58014"></trkpt>
      <trkpt lat="49.38304" lon="20.58025"></trkpt>
      <trkpt lat="49.3831" lon="20.58037"></trkpt>
      <trkpt lat="49.38323" lon="20.58054"></trkpt>
      <trkpt lat="49.38338" lon="20.58076"></trkpt>
      <trkpt lat="49.3835" lon="20.58094"></trkpt>
    </trkseg>
  </trk>
</gpx>
