<?xml version="1.0" encoding="UTF-8"?>
<gpx version="1.1" creator="szlakipienin.pl" xmlns="http://www.topografix.com/GPX/1/1">
  <metadata>
    <name>Żar</name>
    <desc>7.7 km, 155 min, 391 m podejść. Opis trasy: https://szlakipienin.pl/szlaki/zar</desc>
    <link href="https://szlakipienin.pl/szlaki/zar"><text>Żar</text></link>
  </metadata>
  <trk>
    <name>Żar</name>
    <trkseg>
      <trkpt lat="49.42151" lon="20.3191"></trkpt>
      <trkpt lat="49.42153" lon="20.31892"></trkpt>
      <trkpt lat="49.42154" lon="20.31882"></trkpt>
      <trkpt lat="49.42154" lon="20.31878"></trkpt>
      <trkpt lat="49.42155" lon="20.3182"></trkpt>
      <trkpt lat="49.42156" lon="20.31803"></trkpt>
      <trkpt lat="49.42158" lon="20.31793"></trkpt>
      <trkpt lat="49.42159" lon="20.31786"></trkpt>
      <trkpt lat="49.42155" lon="20.31786"></trkpt>
      <trkpt lat="49.42146" lon="20.31785"></trkpt>
      <trkpt lat="49.42112" lon="20.31812"></trkpt>
      <trkpt lat="49.42091" lon="20.31818"></trkpt>
      <trkpt lat="49.42084" lon="20.31821"></trkpt>
      <trkpt lat="49.42028" lon="20.3183"></trkpt>
      <trkpt lat="49.41963" lon="20.31833"></trkpt>
      <trkpt lat="49.41956" lon="20.31831"></trkpt>
      <trkpt lat="49.4195" lon="20.3183"></trkpt>
      <trkpt lat="49.41946" lon="20.31819"></trkpt>
      <trkpt lat="49.41943" lon="20.31804"></trkpt>
      <trkpt lat="49.41943" lon="20.31785"></trkpt>
      <trkpt lat="49.41957" lon="20.31744"></trkpt>
      <trkpt lat="49.4196" lon="20.31725"></trkpt>
      <trkpt lat="49.41959" lon="20.3171"></trkpt>
      <trkpt lat="49.41955" lon="20.31697"></trkpt>
      <trkpt lat="49.41939" lon="20.31666"></trkpt>
      <trkpt lat="49.41936" lon="20.31657"></trkpt>
      <trkpt lat="49.41934" lon="20.3164"></trkpt>
      <trkpt lat="49.41939" lon="20.31593"></trkpt>
      <trkpt lat="49.4194" lon="20.31509"></trkpt>
      <trkpt lat="49.41945" lon="20.31483"></trkpt>
      <trkpt lat="49.41959" lon="20.31435"></trkpt>
      <trkpt lat="49.41975" lon="20.31384"></trkpt>
      <trkpt lat="49.42059" lon="20.31081"></trkpt>
      <trkpt lat="49.42075" lon="20.31023"></trkpt>
      <trkpt lat="49.42086" lon="20.30894"></trkpt>
      <trkpt lat="49.42087" lon="20.30858"></trkpt>
      <trkpt lat="49.42085" lon="20.30842"></trkpt>
      <trkpt lat="49.42074" lon="20.30786"></trkpt>
      <trkpt lat="49.4207" lon="20.30765"></trkpt>
      <trkpt lat="49.42065" lon="20.30733"></trkpt>
      <trkpt lat="49.42042" lon="20.30624"></trkpt>
      <trkpt lat="49.42033" lon="20.30563"></trkpt>
      <trkpt lat="49.41999" lon="20.30376"></trkpt>
      <trkpt lat="49.41992" lon="20.30336"></trkpt>
      <trkpt lat="49.4199" lon="20.30316"></trkpt>
      <trkpt lat="49.41983" lon="20.30295"></trkpt>
      <trkpt lat="49.41975" lon="20.30256"></trkpt>
      <trkpt lat="49.41967" lon="20.30207"></trkpt>
      <trkpt lat="49.41952" lon="20.30159"></trkpt>
      <trkpt lat="49.41938" lon="20.3012"></trkpt>
      <trkpt lat="49.4192" lon="20.30079"></trkpt>
      <trkpt lat="49.41905" lon="20.30039"></trkpt>
      <trkpt lat="49.41887" lon="20.29992"></trkpt>
      <trkpt lat="49.41873" lon="20.29967"></trkpt>
      <trkpt lat="49.41853" lon="20.2993"></trkpt>
      <trkpt lat="49.41831" lon="20.29893"></trkpt>
      <trkpt lat="49.41823" lon="20.29877"></trkpt>
      <trkpt lat="49.41738" lon="20.29756"></trkpt>
      <trkpt lat="49.41717" lon="20.29727"></trkpt>
      <trkpt lat="49.4171" lon="20.29707"></trkpt>
      <trkpt lat="49.41701" lon="20.2967"></trkpt>
      <trkpt lat="49.41698" lon="20.2965"></trkpt>
      <trkpt lat="49.41697" lon="20.29623"></trkpt>
      <trkpt lat="49.41693" lon="20.29585"></trkpt>
      <trkpt lat="49.4168" lon="20.29499"></trkpt>
      <trkpt lat="49.41683" lon="20.29474"></trkpt>
      <trkpt lat="49.41694" lon="20.29385"></trkpt>
      <trkpt lat="49.41698" lon="20.29331"></trkpt>
      <trkpt lat="49.41707" lon="20.29281"></trkpt>
      <trkpt lat="49.41723" lon="20.29158"></trkpt>
      <trkpt lat="49.41724" lon="20.29106"></trkpt>
      <trkpt lat="49.41725" lon="20.2909"></trkpt>
      <trkpt lat="49.41725" lon="20.29044"></trkpt>
      <trkpt lat="49.41723" lon="20.29012"></trkpt>
      <trkpt lat="49.41722" lon="20.28991"></trkpt>
      <trkpt lat="49.4172" lon="20.28967"></trkpt>
      <trkpt lat="49.41715" lon="20.28952"></trkpt>
      <trkpt lat="49.4171" lon="20.28937"></trkpt>
      <trkpt lat="49.41705" lon="20.28898"></trkpt>
      <trkpt lat="49.41703" lon="20.28872"></trkpt>
      <trkpt lat="49.417" lon="20.28856"></trkpt>
      <trkpt lat="49.41694" lon="20.28845"></trkpt>
      <trkpt lat="49.41686" lon="20.28837"></trkpt>
      <trkpt lat="49.41681" lon="20.28828"></trkpt>
      <trkpt lat="49.41682" lon="20.28814"></trkpt>
      <trkpt lat="49.41686" lon="20.28788"></trkpt>
      <trkpt lat="49.41686" lon="20.28762"></trkpt>
      <trkpt lat="49.41683" lon="20.28745"></trkpt>
      <trkpt lat="49.4168" lon="20.28733"></trkpt>
      <trkpt lat="49.41679" lon="20.28715"></trkpt>
      <trkpt lat="49.4168" lon="20.28698"></trkpt>
      <trkpt lat="49.4168" lon="20.28682"></trkpt>
      <trkpt lat="49.4168" lon="20.28662"></trkpt>
      <trkpt lat="49.41681" lon="20.28646"></trkpt>
      <trkpt lat="49.4168" lon="20.28639"></trkpt>
      <trkpt lat="49.41679" lon="20.28605"></trkpt>
      <trkpt lat="49.41676" lon="20.28542"></trkpt>
      <trkpt lat="49.41678" lon="20.28461"></trkpt>
      <trkpt lat="49.41672" lon="20.28393"></trkpt>
      <trkpt lat="49.41658" lon="20.28305"></trkpt>
      <trkpt lat="49.41652" lon="20.28234"></trkpt>
      <trkpt lat="49.41656" lon="20.2818"></trkpt>
      <trkpt lat="49.41656" lon="20.28156"></trkpt>
      <trkpt lat="49.41645" lon="20.28116"></trkpt>
      <trkpt lat="49.41634" lon="20.28074"></trkpt>
      <trkpt lat="49.41627" lon="20.28049"></trkpt>
      <trkpt lat="49.41625" lon="20.28017"></trkpt>
      <trkpt lat="49.41627" lon="20.27965"></trkpt>
      <trkpt lat="49.41628" lon="20.27888"></trkpt>
      <trkpt lat="49.41646" lon="20.27767"></trkpt>
      <trkpt lat="49.41646" lon="20.27721"></trkpt>
      <trkpt lat="49.41647" lon="20.27673"></trkpt>
      <trkpt lat="49.41645" lon="20.27626"></trkpt>
      <trkpt lat="49.4164" lon="20.27588"></trkpt>
      <trkpt lat="49.41624" lon="20.27545"></trkpt>
      <trkpt lat="49.41591" lon="20.27455"></trkpt>
      <trkpt lat="49.41572" lon="20.27431"></trkpt>
      <trkpt lat="49.4155" lon="20.274"></trkpt>
      <trkpt lat="49.41534" lon="20.2737"></trkpt>
      <trkpt lat="49.41518" lon="20.27354"></trkpt>
      <trkpt lat="49.41503" lon="20.27343"></trkpt>
      <trkpt lat="49.4147" lon="20.27327"></trkpt>
      <trkpt lat="49.41461" lon="20.27328"></trkpt>
      <trkpt lat="49.41446" lon="20.27329"></trkpt>
      <trkpt lat="49.41431" lon="20.27333"></trkpt>
      <trkpt lat="49.41416" lon="20.2734"></trkpt>
      <trkpt lat="49.4141" lon="20.27337"></trkpt>
      <trkpt lat="49.41404" lon="20.27329"></trkpt>
      <trkpt lat="49.41386" lon="20.27299"></trkpt>
      <trkpt lat="49.41373" lon="20.27274"></trkpt>
      <trkpt lat="49.41361" lon="20.27247"></trkpt>
      <trkpt lat="49.41344" lon="20.27204"></trkpt>
      <trkpt lat="49.41331" lon="20.27182"></trkpt>
      <trkpt lat="49.41321" lon="20.27166"></trkpt>
      <trkpt lat="49.41329" lon="20.27134"></trkpt>
      <trkpt lat="49.41359" lon="20.2706"></trkpt>
      <trkpt lat="49.41367" lon="20.27028"></trkpt>
      <trkpt lat="49.4137" lon="20.26998"></trkpt>
      <trkpt lat="49.41375" lon="20.26898"></trkpt>
      <trkpt lat="49.41372" lon="20.26871"></trkpt>
      <trkpt lat="49.41343" lon="20.26816"></trkpt>
      <trkpt lat="49.41318" lon="20.26747"></trkpt>
      <trkpt lat="49.4131" lon="20.26678"></trkpt>
      <trkpt lat="49.41315" lon="20.26635"></trkpt>
      <trkpt lat="49.41335" lon="20.2657"></trkpt>
      <trkpt lat="49.41338" lon="20.26482"></trkpt>
      <trkpt lat="49.41343" lon="20.26454"></trkpt>
      <trkpt lat="49.41345" lon="20.26448"></trkpt>
      <trkpt lat="49.4135" lon="20.26435"></trkpt>
      <trkpt lat="49.41355" lon="20.26422"></trkpt>
      <trkpt lat="49.41364" lon="20.2641"></trkpt>
      <trkpt lat="49.41366" lon="20.264"></trkpt>
      <trkpt lat="49.41379" lon="20.26364"></trkpt>
      <trkpt lat="49.41418" lon="20.2627"></trkpt>
      <trkpt lat="49.41462" lon="20.26175"></trkpt>
      <trkpt lat="49.41495" lon="20.26075"></trkpt>
      <trkpt lat="49.41505" lon="20.26031"></trkpt>
      <trkpt lat="49.4151" lon="20.25994"></trkpt>
      <trkpt lat="49.41513" lon="20.25967"></trkpt>
      <trkpt lat="49.41517" lon="20.25948"></trkpt>
      <trkpt lat="49.41522" lon="20.25938"></trkpt>
      <trkpt lat="49.41533" lon="20.25925"></trkpt>
      <trkpt lat="49.41561" lon="20.25882"></trkpt>
      <trkpt lat="49.41569" lon="20.25878"></trkpt>
      <trkpt lat="49.41579" lon="20.2588"></trkpt>
      <trkpt lat="49.41602" lon="20.2582"></trkpt>
      <trkpt lat="49.41606" lon="20.25796"></trkpt>
      <trkpt lat="49.41611" lon="20.25772"></trkpt>
      <trkpt lat="49.41617" lon="20.25761"></trkpt>
      <trkpt lat="49.41626" lon="20.25759"></trkpt>
      <trkpt lat="49.41626" lon="20.2574"></trkpt>
      <trkpt lat="49.41629" lon="20.25693"></trkpt>
      <trkpt lat="49.4163" lon="20.25677"></trkpt>
      <trkpt lat="49.41625" lon="20.25655"></trkpt>
      <trkpt lat="49.41618" lon="20.25633"></trkpt>
      <trkpt lat="49.41633" lon="20.25606"></trkpt>
      <trkpt lat="49.41646" lon="20.25586"></trkpt>
      <trkpt lat="49.41683" lon="20.25541"></trkpt>
      <trkpt lat="49.41724" lon="20.25494"></trkpt>
      <trkpt lat="49.41738" lon="20.25476"></trkpt>
      <trkpt lat="49.41751" lon="20.25445"></trkpt>
      <trkpt lat="49.41762" lon="20.25409"></trkpt>
      <trkpt lat="49.4178" lon="20.25353"></trkpt>
      <trkpt lat="49.41799" lon="20.25288"></trkpt>
      <trkpt lat="49.4181" lon="20.25263"></trkpt>
      <trkpt lat="49.41826" lon="20.25242"></trkpt>
      <trkpt lat="49.41843" lon="20.25225"></trkpt>
      <trkpt lat="49.4185" lon="20.25219"></trkpt>
      <trkpt lat="49.41858" lon="20.25212"></trkpt>
      <trkpt lat="49.41868" lon="20.25199"></trkpt>
      <trkpt lat="49.41875" lon="20.25192"></trkpt>
      <trkpt lat="49.41882" lon="20.2519"></trkpt>
      <trkpt lat="49.41892" lon="20.25184"></trkpt>
      <trkpt lat="49.41898" lon="20.25174"></trkpt>
      <trkpt lat="49.41902" lon="20.25158"></trkpt>
      <trkpt lat="49.41907" lon="20.25136"></trkpt>
      <trkpt lat="49.41913" lon="20.25112"></trkpt>
      <trkpt lat="49.41913" lon="20.25064"></trkpt>
      <trkpt lat="49.41903" lon="20.25049"></trkpt>
      <trkpt lat="49.41894" lon="20.25039"></trkpt>
      <trkpt lat="49.41887" lon="20.25023"></trkpt>
      <trkpt lat="49.41879" lon="20.25009"></trkpt>
      <trkpt lat="49.41872" lon="20.24994"></trkpt>
      <trkpt lat="49.41872" lon="20.24967"></trkpt>
      <trkpt lat="49.41873" lon="20.24942"></trkpt>
      <trkpt lat="49.41869" lon="20.24917"></trkpt>
      <trkpt lat="49.41861" lon="20.24901"></trkpt>
      <trkpt lat="49.41847" lon="20.24896"></trkpt>
      <trkpt lat="49.41831" lon="20.24897"></trkpt>
      <trkpt lat="49.41815" lon="20.24906"></trkpt>
      <trkpt lat="49.41802" lon="20.24913"></trkpt>
      <trkpt lat="49.41784" lon="20.24913"></trkpt>
      <trkpt lat="49.4177" lon="20.24907"></trkpt>
      <trkpt lat="49.41762" lon="20.24899"></trkpt>
      <trkpt lat="49.41757" lon="20.24882"></trkpt>
      <trkpt lat="49.41751" lon="20.24862"></trkpt>
      <trkpt lat="49.41741" lon="20.24845"></trkpt>
      <trkpt lat="49.41727" lon="20.24839"></trkpt>
      <trkpt lat="49.41713" lon="20.24837"></trkpt>
      <trkpt lat="49.41705" lon="20.24833"></trkpt>
      <trkpt lat="49.417" lon="20.24821"></trkpt>
      <trkpt lat="49.41703" lon="20.24803"></trkpt>
      <trkpt lat="49.41705" lon="20.2478"></trkpt>
      <trkpt lat="49.41704" lon="20.24758"></trkpt>
      <trkpt lat="49.41705" lon="20.24733"></trkpt>
      <trkpt lat="49.41704" lon="20.24705"></trkpt>
      <trkpt lat="49.41708" lon="20.24685"></trkpt>
      <trkpt lat="49.41709" lon="20.24663"></trkpt>
      <trkpt lat="49.41703" lon="20.24648"></trkpt>
      <trkpt lat="49.41699" lon="20.24627"></trkpt>
      <trkpt lat="49.41697" lon="20.24598"></trkpt>
      <trkpt lat="49.41697" lon="20.24575"></trkpt>
      <trkpt lat="49.41702" lon="20.2455"></trkpt>
      <trkpt lat="49.41712" lon="20.24518"></trkpt>
      <trkpt lat="49.41716" lon="20.24494"></trkpt>
      <trkpt lat="49.41716" lon="20.24468"></trkpt>
      <trkpt lat="49.41715" lon="20.24442"></trkpt>
      <trkpt lat="49.41714" lon="20.24398"></trkpt>
      <trkpt lat="49.41715" lon="20.24368"></trkpt>
      <trkpt lat="49.41719" lon="20.24348"></trkpt>
      <trkpt lat="49.41719" lon="20.24329"></trkpt>
      <trkpt lat="49.41715" lon="20.24304"></trkpt>
      <trkpt lat="49.41716" lon="20.24284"></trkpt>
      <trkpt lat="49.41711" lon="20.24255"></trkpt>
      <trkpt lat="49.41705" lon="20.24238"></trkpt>
      <trkpt lat="49.417" lon="20.24226"></trkpt>
      <trkpt lat="49.41691" lon="20.24216"></trkpt>
      <trkpt lat="49.4168" lon="20.24198"></trkpt>
      <trkpt lat="49.41673" lon="20.24177"></trkpt>
      <trkpt lat="49.41668" lon="20.24144"></trkpt>
      <trkpt lat="49.41668" lon="20.24119"></trkpt>
      <trkpt lat="49.41669" lon="20.24089"></trkpt>
      <trkpt lat="49.4167" lon="20.24065"></trkpt>
      <trkpt lat="49.41687" lon="20.24033"></trkpt>
      <trkpt lat="49.417" lon="20.24014"></trkpt>
      <trkpt lat="49.41712" lon="20.23998"></trkpt>
      <trkpt lat="49.41718" lon="20.23998"></trkpt>
      <trkpt lat="49.41724" lon="20.23999"></trkpt>
      <trkpt lat="49.41752" lon="20.24033"></trkpt>
      <trkpt lat="49.41761" lon="20.24034"></trkpt>
      <trkpt lat="49.4177" lon="20.24029"></trkpt>
      <trkpt lat="49.41776" lon="20.24014"></trkpt>
      <trkpt lat="49.41773" lon="20.23997"></trkpt>
      <trkpt lat="49.41772" lon="20.23979"></trkpt>
      <trkpt lat="49.41772" lon="20.23955"></trkpt>
      <trkpt lat="49.41774" lon="20.23934"></trkpt>
      <trkpt lat="49.41776" lon="20.23896"></trkpt>
      <trkpt lat="49.41776" lon="20.23868"></trkpt>
      <trkpt lat="49.41774" lon="20.2384"></trkpt>
      <trkpt lat="49.4178" lon="20.23816"></trkpt>
      <trkpt lat="49.41788" lon="20.2379"></trkpt>
      <trkpt lat="49.41788" lon="20.23757"></trkpt>
      <trkpt lat="49.41777" lon="20.23675"></trkpt>
      <trkpt lat="49.41776" lon="20.23611"></trkpt>
      <trkpt lat="49.4177" lon="20.23566"></trkpt>
      <trkpt lat="49.41795" lon="20.23407"></trkpt>
      <trkpt lat="49.41801" lon="20.23281"></trkpt>
      <trkpt lat="49.418" lon="20.23244"></trkpt>
      <trkpt lat="49.41806" lon="20.23189"></trkpt>
      <trkpt lat="49.41806" lon="20.23168"></trkpt>
      <trkpt lat="49.4181" lon="20.23132"></trkpt>
      <trkpt lat="49.41814" lon="20.23094"></trkpt>
      <trkpt lat="49.41816" lon="20.23039"></trkpt>
      <trkpt lat="49.41816" lon="20.23003"></trkpt>
    </trkseg>
  </trk>
</gpx>
