<?xml version="1.0" encoding="UTF-8"?>
<gpx version="1.1" creator="szlakipienin.pl" xmlns="http://www.topografix.com/GPX/1/1">
  <metadata>
    <name>Aksamitka</name>
    <desc>10.6 km, 239 min, 810 m podejść. Opis trasy: https://szlakipienin.pl/szlaki/aksamitka</desc>
    <link href="https://szlakipienin.pl/szlaki/aksamitka"><text>Aksamitka</text></link>
  </metadata>
  <trk>
    <name>Aksamitka</name>
    <trkseg>
      <trkpt lat="49.42514" lon="20.48259"></trkpt>
      <trkpt lat="49.42528" lon="20.48233"></trkpt>
      <trkpt lat="49.4254" lon="20.48206"></trkpt>
      <trkpt lat="49.42547" lon="20.48187"></trkpt>
      <trkpt lat="49.42555" lon="20.48166"></trkpt>
      <trkpt lat="49.4256" lon="20.48153"></trkpt>
      <trkpt lat="49.42569" lon="20.48131"></trkpt>
      <trkpt lat="49.42578" lon="20.48107"></trkpt>
      <trkpt lat="49.42574" lon="20.48103"></trkpt>
      <trkpt lat="49.42564" lon="20.48097"></trkpt>
      <trkpt lat="49.42562" lon="20.48099"></trkpt>
      <trkpt lat="49.42555" lon="20.48104"></trkpt>
      <trkpt lat="49.42555" lon="20.48079"></trkpt>
      <trkpt lat="49.42557" lon="20.48074"></trkpt>
      <trkpt lat="49.42542" lon="20.48064"></trkpt>
      <trkpt lat="49.4255" lon="20.48034"></trkpt>
      <trkpt lat="49.4252" lon="20.48031"></trkpt>
      <trkpt lat="49.42517" lon="20.48047"></trkpt>
      <trkpt lat="49.42512" lon="20.48054"></trkpt>
      <trkpt lat="49.42508" lon="20.48058"></trkpt>
      <trkpt lat="49.42503" lon="20.48059"></trkpt>
      <trkpt lat="49.42497" lon="20.48057"></trkpt>
      <trkpt lat="49.42468" lon="20.48038"></trkpt>
      <trkpt lat="49.42467" lon="20.48037"></trkpt>
      <trkpt lat="49.42465" lon="20.48036"></trkpt>
      <trkpt lat="49.42441" lon="20.48025"></trkpt>
      <trkpt lat="49.42436" lon="20.48023"></trkpt>
      <trkpt lat="49.42433" lon="20.48021"></trkpt>
      <trkpt lat="49.42429" lon="20.4804"></trkpt>
      <trkpt lat="49.42423" lon="20.48087"></trkpt>
      <trkpt lat="49.42415" lon="20.48126"></trkpt>
      <trkpt lat="49.42411" lon="20.48145"></trkpt>
      <trkpt lat="49.42392" lon="20.4822"></trkpt>
      <trkpt lat="49.42385" lon="20.48249"></trkpt>
      <trkpt lat="49.42361" lon="20.48231"></trkpt>
      <trkpt lat="49.42357" lon="20.48225"></trkpt>
      <trkpt lat="49.42354" lon="20.48217"></trkpt>
      <trkpt lat="49.42354" lon="20.48205"></trkpt>
      <trkpt lat="49.42356" lon="20.48196"></trkpt>
      <trkpt lat="49.42356" lon="20.48193"></trkpt>
      <trkpt lat="49.42362" lon="20.48176"></trkpt>
      <trkpt lat="49.42362" lon="20.48154"></trkpt>
      <trkpt lat="49.42361" lon="20.48149"></trkpt>
      <trkpt lat="49.42359" lon="20.48146"></trkpt>
      <trkpt lat="49.42356" lon="20.48147"></trkpt>
      <trkpt lat="49.4235" lon="20.48151"></trkpt>
      <trkpt lat="49.42339" lon="20.48165"></trkpt>
      <trkpt lat="49.42324" lon="20.48182"></trkpt>
      <trkpt lat="49.42309" lon="20.48194"></trkpt>
      <trkpt lat="49.42285" lon="20.48211"></trkpt>
      <trkpt lat="49.42257" lon="20.48225"></trkpt>
      <trkpt lat="49.42244" lon="20.48229"></trkpt>
      <trkpt lat="49.42231" lon="20.48228"></trkpt>
      <trkpt lat="49.42222" lon="20.48219"></trkpt>
      <trkpt lat="49.42223" lon="20.48203"></trkpt>
      <trkpt lat="49.42227" lon="20.48182"></trkpt>
      <trkpt lat="49.42233" lon="20.48153"></trkpt>
      <trkpt lat="49.42236" lon="20.48131"></trkpt>
      <trkpt lat="49.42238" lon="20.48103"></trkpt>
      <trkpt lat="49.42232" lon="20.48073"></trkpt>
      <trkpt lat="49.42223" lon="20.48053"></trkpt>
      <trkpt lat="49.42206" lon="20.48038"></trkpt>
      <trkpt lat="49.42194" lon="20.48031"></trkpt>
      <trkpt lat="49.42183" lon="20.48028"></trkpt>
      <trkpt lat="49.42161" lon="20.48019"></trkpt>
      <trkpt lat="49.42143" lon="20.48008"></trkpt>
      <trkpt lat="49.42127" lon="20.47994"></trkpt>
      <trkpt lat="49.42125" lon="20.47987"></trkpt>
      <trkpt lat="49.42124" lon="20.47974"></trkpt>
      <trkpt lat="49.42129" lon="20.47939"></trkpt>
      <trkpt lat="49.42132" lon="20.47889"></trkpt>
      <trkpt lat="49.42127" lon="20.47865"></trkpt>
      <trkpt lat="49.42114" lon="20.47828"></trkpt>
      <trkpt lat="49.42101" lon="20.47805"></trkpt>
      <trkpt lat="49.42091" lon="20.47773"></trkpt>
      <trkpt lat="49.42084" lon="20.4775"></trkpt>
      <trkpt lat="49.42079" lon="20.47724"></trkpt>
      <trkpt lat="49.4207" lon="20.47701"></trkpt>
      <trkpt lat="49.42059" lon="20.47685"></trkpt>
      <trkpt lat="49.42047" lon="20.47675"></trkpt>
      <trkpt lat="49.42029" lon="20.4767"></trkpt>
      <trkpt lat="49.42019" lon="20.47671"></trkpt>
      <trkpt lat="49.42002" lon="20.47669"></trkpt>
      <trkpt lat="49.41989" lon="20.47666"></trkpt>
      <trkpt lat="49.41978" lon="20.47668"></trkpt>
      <trkpt lat="49.41968" lon="20.47679"></trkpt>
      <trkpt lat="49.41963" lon="20.47689"></trkpt>
      <trkpt lat="49.41953" lon="20.47692"></trkpt>
      <trkpt lat="49.41943" lon="20.477"></trkpt>
      <trkpt lat="49.41937" lon="20.47708"></trkpt>
      <trkpt lat="49.41935" lon="20.47707"></trkpt>
      <trkpt lat="49.41929" lon="20.47697"></trkpt>
      <trkpt lat="49.41925" lon="20.47691"></trkpt>
      <trkpt lat="49.41919" lon="20.4769"></trkpt>
      <trkpt lat="49.41916" lon="20.47681"></trkpt>
      <trkpt lat="49.41915" lon="20.47681"></trkpt>
      <trkpt lat="49.4191" lon="20.47687"></trkpt>
      <trkpt lat="49.41906" lon="20.47687"></trkpt>
      <trkpt lat="49.41904" lon="20.47684"></trkpt>
      <trkpt lat="49.41903" lon="20.47673"></trkpt>
      <trkpt lat="49.41904" lon="20.47652"></trkpt>
      <trkpt lat="49.41899" lon="20.4764"></trkpt>
      <trkpt lat="49.41893" lon="20.47635"></trkpt>
      <trkpt lat="49.41892" lon="20.47633"></trkpt>
      <trkpt lat="49.41886" lon="20.47631"></trkpt>
      <trkpt lat="49.41881" lon="20.47633"></trkpt>
      <trkpt lat="49.41871" lon="20.47645"></trkpt>
      <trkpt lat="49.41848" lon="20.47641"></trkpt>
      <trkpt lat="49.41842" lon="20.47642"></trkpt>
      <trkpt lat="49.41837" lon="20.47657"></trkpt>
      <trkpt lat="49.4183" lon="20.47658"></trkpt>
      <trkpt lat="49.41821" lon="20.47658"></trkpt>
      <trkpt lat="49.41789" lon="20.4759"></trkpt>
      <trkpt lat="49.41779" lon="20.47585"></trkpt>
      <trkpt lat="49.41768" lon="20.47586"></trkpt>
      <trkpt lat="49.41733" lon="20.47618"></trkpt>
      <trkpt lat="49.41719" lon="20.47631"></trkpt>
      <trkpt lat="49.41692" lon="20.47662"></trkpt>
      <trkpt lat="49.41675" lon="20.47679"></trkpt>
      <trkpt lat="49.41648" lon="20.47689"></trkpt>
      <trkpt lat="49.41638" lon="20.4769"></trkpt>
      <trkpt lat="49.41633" lon="20.47689"></trkpt>
      <trkpt lat="49.41627" lon="20.47688"></trkpt>
      <trkpt lat="49.41597" lon="20.4768"></trkpt>
      <trkpt lat="49.41561" lon="20.47668"></trkpt>
      <trkpt lat="49.4154" lon="20.4767"></trkpt>
      <trkpt lat="49.41504" lon="20.47674"></trkpt>
      <trkpt lat="49.41472" lon="20.47678"></trkpt>
      <trkpt lat="49.41463" lon="20.47685"></trkpt>
      <trkpt lat="49.41427" lon="20.47688"></trkpt>
      <trkpt lat="49.41409" lon="20.47668"></trkpt>
      <trkpt lat="49.41393" lon="20.47682"></trkpt>
      <trkpt lat="49.4138" lon="20.47682"></trkpt>
      <trkpt lat="49.4137" lon="20.4768"></trkpt>
      <trkpt lat="49.41359" lon="20.47674"></trkpt>
      <trkpt lat="49.41367" lon="20.47664"></trkpt>
      <trkpt lat="49.41382" lon="20.4765"></trkpt>
      <trkpt lat="49.41389" lon="20.47644"></trkpt>
      <trkpt lat="49.41398" lon="20.47635"></trkpt>
      <trkpt lat="49.41408" lon="20.47623"></trkpt>
      <trkpt lat="49.41412" lon="20.4761"></trkpt>
      <trkpt lat="49.41414" lon="20.47601"></trkpt>
      <trkpt lat="49.41417" lon="20.4758"></trkpt>
      <trkpt lat="49.41419" lon="20.47574"></trkpt>
      <trkpt lat="49.41419" lon="20.47567"></trkpt>
      <trkpt lat="49.41423" lon="20.47566"></trkpt>
      <trkpt lat="49.41423" lon="20.47559"></trkpt>
      <trkpt lat="49.41425" lon="20.47549"></trkpt>
      <trkpt lat="49.41429" lon="20.47547"></trkpt>
      <trkpt lat="49.41429" lon="20.47537"></trkpt>
      <trkpt lat="49.41435" lon="20.47531"></trkpt>
      <trkpt lat="49.41436" lon="20.47525"></trkpt>
      <trkpt lat="49.4145" lon="20.47487"></trkpt>
      <trkpt lat="49.41457" lon="20.47462"></trkpt>
      <trkpt lat="49.41462" lon="20.47438"></trkpt>
      <trkpt lat="49.41473" lon="20.47412"></trkpt>
      <trkpt lat="49.41476" lon="20.47392"></trkpt>
      <trkpt lat="49.41483" lon="20.47375"></trkpt>
      <trkpt lat="49.41487" lon="20.47362"></trkpt>
      <trkpt lat="49.4149" lon="20.47348"></trkpt>
      <trkpt lat="49.41495" lon="20.47329"></trkpt>
      <trkpt lat="49.41512" lon="20.47292"></trkpt>
      <trkpt lat="49.41522" lon="20.47269"></trkpt>
      <trkpt lat="49.41526" lon="20.47259"></trkpt>
      <trkpt lat="49.41531" lon="20.47237"></trkpt>
      <trkpt lat="49.4152" lon="20.47233"></trkpt>
      <trkpt lat="49.41493" lon="20.47217"></trkpt>
      <trkpt lat="49.41476" lon="20.47211"></trkpt>
      <trkpt lat="49.41456" lon="20.4721"></trkpt>
      <trkpt lat="49.41452" lon="20.47208"></trkpt>
      <trkpt lat="49.41449" lon="20.47201"></trkpt>
      <trkpt lat="49.41443" lon="20.47198"></trkpt>
      <trkpt lat="49.41436" lon="20.47195"></trkpt>
      <trkpt lat="49.4143" lon="20.47198"></trkpt>
      <trkpt lat="49.41422" lon="20.47205"></trkpt>
      <trkpt lat="49.4141" lon="20.47215"></trkpt>
      <trkpt lat="49.41399" lon="20.47218"></trkpt>
      <trkpt lat="49.41374" lon="20.47222"></trkpt>
      <trkpt lat="49.41365" lon="20.47227"></trkpt>
      <trkpt lat="49.41351" lon="20.47226"></trkpt>
      <trkpt lat="49.41337" lon="20.47234"></trkpt>
      <trkpt lat="49.41332" lon="20.47238"></trkpt>
      <trkpt lat="49.41322" lon="20.47242"></trkpt>
      <trkpt lat="49.41306" lon="20.47244"></trkpt>
      <trkpt lat="49.41293" lon="20.47242"></trkpt>
      <trkpt lat="49.41278" lon="20.47231"></trkpt>
      <trkpt lat="49.41267" lon="20.47221"></trkpt>
      <trkpt lat="49.41251" lon="20.47218"></trkpt>
      <trkpt lat="49.41237" lon="20.47221"></trkpt>
      <trkpt lat="49.4122" lon="20.47233"></trkpt>
      <trkpt lat="49.41213" lon="20.47235"></trkpt>
      <trkpt lat="49.41208" lon="20.47233"></trkpt>
      <trkpt lat="49.4119" lon="20.47214"></trkpt>
      <trkpt lat="49.41147" lon="20.47142"></trkpt>
      <trkpt lat="49.4112" lon="20.4709"></trkpt>
      <trkpt lat="49.41113" lon="20.47074"></trkpt>
      <trkpt lat="49.41109" lon="20.47055"></trkpt>
      <trkpt lat="49.41101" lon="20.47033"></trkpt>
      <trkpt lat="49.41098" lon="20.47014"></trkpt>
      <trkpt lat="49.41097" lon="20.46999"></trkpt>
      <trkpt lat="49.41098" lon="20.46981"></trkpt>
      <trkpt lat="49.41103" lon="20.46954"></trkpt>
      <trkpt lat="49.41105" lon="20.46938"></trkpt>
      <trkpt lat="49.41109" lon="20.4691"></trkpt>
      <trkpt lat="49.41112" lon="20.46879"></trkpt>
      <trkpt lat="49.41113" lon="20.46866"></trkpt>
      <trkpt lat="49.41119" lon="20.46842"></trkpt>
      <trkpt lat="49.41122" lon="20.46823"></trkpt>
      <trkpt lat="49.41125" lon="20.46795"></trkpt>
      <trkpt lat="49.41123" lon="20.46773"></trkpt>
      <trkpt lat="49.41121" lon="20.46754"></trkpt>
      <trkpt lat="49.41114" lon="20.46731"></trkpt>
      <trkpt lat="49.41098" lon="20.46663"></trkpt>
      <trkpt lat="49.41087" lon="20.4663"></trkpt>
      <trkpt lat="49.4108" lon="20.46606"></trkpt>
      <trkpt lat="49.41076" lon="20.46575"></trkpt>
      <trkpt lat="49.41076" lon="20.46541"></trkpt>
      <trkpt lat="49.41076" lon="20.4649"></trkpt>
      <trkpt lat="49.41073" lon="20.46443"></trkpt>
      <trkpt lat="49.4107" lon="20.46423"></trkpt>
      <trkpt lat="49.41065" lon="20.46404"></trkpt>
      <trkpt lat="49.41061" lon="20.46391"></trkpt>
      <trkpt lat="49.41077" lon="20.46353"></trkpt>
      <trkpt lat="49.41085" lon="20.46328"></trkpt>
      <trkpt lat="49.41088" lon="20.46294"></trkpt>
      <trkpt lat="49.41092" lon="20.46265"></trkpt>
      <trkpt lat="49.41105" lon="20.46224"></trkpt>
      <trkpt lat="49.41122" lon="20.46175"></trkpt>
      <trkpt lat="49.41126" lon="20.46148"></trkpt>
      <trkpt lat="49.41128" lon="20.46128"></trkpt>
      <trkpt lat="49.41128" lon="20.46103"></trkpt>
      <trkpt lat="49.41129" lon="20.46083"></trkpt>
      <trkpt lat="49.41128" lon="20.46064"></trkpt>
      <trkpt lat="49.41124" lon="20.46046"></trkpt>
      <trkpt lat="49.41122" lon="20.46038"></trkpt>
      <trkpt lat="49.4112" lon="20.46035"></trkpt>
      <trkpt lat="49.41119" lon="20.46033"></trkpt>
      <trkpt lat="49.41116" lon="20.46033"></trkpt>
      <trkpt lat="49.4111" lon="20.46033"></trkpt>
      <trkpt lat="49.41104" lon="20.46034"></trkpt>
      <trkpt lat="49.41101" lon="20.46033"></trkpt>
      <trkpt lat="49.41098" lon="20.4603"></trkpt>
      <trkpt lat="49.41103" lon="20.46025"></trkpt>
      <trkpt lat="49.41108" lon="20.46019"></trkpt>
      <trkpt lat="49.41113" lon="20.46012"></trkpt>
      <trkpt lat="49.41115" lon="20.46008"></trkpt>
      <trkpt lat="49.41119" lon="20.46001"></trkpt>
      <trkpt lat="49.41122" lon="20.45995"></trkpt>
      <trkpt lat="49.4115" lon="20.45929"></trkpt>
      <trkpt lat="49.41186" lon="20.45843"></trkpt>
      <trkpt lat="49.41207" lon="20.45792"></trkpt>
      <trkpt lat="49.41219" lon="20.45762"></trkpt>
      <trkpt lat="49.41227" lon="20.4575"></trkpt>
      <trkpt lat="49.41233" lon="20.45739"></trkpt>
      <trkpt lat="49.4124" lon="20.45726"></trkpt>
      <trkpt lat="49.41253" lon="20.45705"></trkpt>
      <trkpt lat="49.41259" lon="20.45693"></trkpt>
      <trkpt lat="49.41266" lon="20.45682"></trkpt>
      <trkpt lat="49.41268" lon="20.45677"></trkpt>
      <trkpt lat="49.4128" lon="20.45656"></trkpt>
      <trkpt lat="49.41287" lon="20.45629"></trkpt>
      <trkpt lat="49.41295" lon="20.45602"></trkpt>
      <trkpt lat="49.41313" lon="20.45524"></trkpt>
      <trkpt lat="49.41323" lon="20.45475"></trkpt>
      <trkpt lat="49.4133" lon="20.45446"></trkpt>
      <trkpt lat="49.41333" lon="20.45434"></trkpt>
      <trkpt lat="49.41336" lon="20.45422"></trkpt>
      <trkpt lat="49.41342" lon="20.45409"></trkpt>
      <trkpt lat="49.41348" lon="20.45397"></trkpt>
      <trkpt lat="49.41354" lon="20.45386"></trkpt>
      <trkpt lat="49.4136" lon="20.45377"></trkpt>
      <trkpt lat="49.41384" lon="20.4535"></trkpt>
      <trkpt lat="49.41393" lon="20.45336"></trkpt>
      <trkpt lat="49.414" lon="20.45322"></trkpt>
      <trkpt lat="49.41448" lon="20.45217"></trkpt>
      <trkpt lat="49.41457" lon="20.45199"></trkpt>
      <trkpt lat="49.41458" lon="20.45195"></trkpt>
      <trkpt lat="49.41465" lon="20.45178"></trkpt>
      <trkpt lat="49.41468" lon="20.45164"></trkpt>
      <trkpt lat="49.41469" lon="20.4515"></trkpt>
      <trkpt lat="49.4147" lon="20.45122"></trkpt>
      <trkpt lat="49.41466" lon="20.45099"></trkpt>
      <trkpt lat="49.41461" lon="20.45077"></trkpt>
      <trkpt lat="49.41457" lon="20.45065"></trkpt>
      <trkpt lat="49.4145" lon="20.45053"></trkpt>
      <trkpt lat="49.41443" lon="20.45042"></trkpt>
      <trkpt lat="49.41435" lon="20.45034"></trkpt>
      <trkpt lat="49.41425" lon="20.45028"></trkpt>
      <trkpt lat="49.41406" lon="20.45016"></trkpt>
      <trkpt lat="49.41398" lon="20.45011"></trkpt>
      <trkpt lat="49.4139" lon="20.45028"></trkpt>
      <trkpt lat="49.41398" lon="20.45011"></trkpt>
      <trkpt lat="49.41406" lon="20.45016"></trkpt>
      <trkpt lat="49.41425" lon="20.45028"></trkpt>
      <trkpt lat="49.41435" lon="20.45034"></trkpt>
      <trkpt lat="49.41443" lon="20.45042"></trkpt>
      <trkpt lat="49.4145" lon="20.45053"></trkpt>
      <trkpt lat="49.41457" lon="20.45065"></trkpt>
      <trkpt lat="49.41461" lon="20.45077"></trkpt>
      <trkpt lat="49.41466" lon="20.45099"></trkpt>
      <trkpt lat="49.4147" lon="20.45122"></trkpt>
      <trkpt lat="49.41469" lon="20.4515"></trkpt>
      <trkpt lat="49.41468" lon="20.45164"></trkpt>
      <trkpt lat="49.41465" lon="20.45178"></trkpt>
      <trkpt lat="49.41458" lon="20.45195"></trkpt>
      <trkpt lat="49.41457" lon="20.45199"></trkpt>
      <trkpt lat="49.41448" lon="20.45217"></trkpt>
      <trkpt lat="49.414" lon="20.45322"></trkpt>
      <trkpt lat="49.41393" lon="20.45336"></trkpt>
      <trkpt lat="49.41384" lon="20.4535"></trkpt>
      <trkpt lat="49.4136" lon="20.45377"></trkpt>
      <trkpt lat="49.41354" lon="20.45386"></trkpt>
      <trkpt lat="49.41348" lon="20.45397"></trkpt>
      <trkpt lat="49.41342" lon="20.45409"></trkpt>
      <trkpt lat="49.41336" lon="20.45422"></trkpt>
      <trkpt lat="49.41333" lon="20.45434"></trkpt>
      <trkpt lat="49.4133" lon="20.45446"></trkpt>
      <trkpt lat="49.41323" lon="20.45475"></trkpt>
      <trkpt lat="49.41313" lon="20.45524"></trkpt>
      <trkpt lat="49.41295" lon="20.45602"></trkpt>
      <trkpt lat="49.41287" lon="20.45629"></trkpt>
      <trkpt lat="49.4128" lon="20.45656"></trkpt>
      <trkpt lat="49.41268" lon="20.45677"></trkpt>
      <trkpt lat="49.41266" lon="20.45682"></trkpt>
      <trkpt lat="49.41259" lon="20.45693"></trkpt>
      <trkpt lat="49.41253" lon="20.45705"></trkpt>
      <trkpt lat="49.4124" lon="20.45726"></trkpt>
      <trkpt lat="49.41233" lon="20.45739"></trkpt>
      <trkpt lat="49.41227" lon="20.4575"></trkpt>
      <trkpt lat="49.41219" lon="20.45762"></trkpt>
      <trkpt lat="49.41207" lon="20.45792"></trkpt>
      <trkpt lat="49.41186" lon="20.45843"></trkpt>
      <trkpt lat="49.4115" lon="20.45929"></trkpt>
      <trkpt lat="49.41122" lon="20.45995"></trkpt>
      <trkpt lat="49.41119" lon="20.46001"></trkpt>
      <trkpt lat="49.41115" lon="20.46008"></trkpt>
      <trkpt lat="49.41113" lon="20.46012"></trkpt>
      <trkpt lat="49.41108" lon="20.46019"></trkpt>
      <trkpt lat="49.41103" lon="20.46025"></trkpt>
      <trkpt lat="49.41098" lon="20.4603"></trkpt>
      <trkpt lat="49.41093" lon="20.46034"></trkpt>
      <trkpt lat="49.41085" lon="20.4604"></trkpt>
      <trkpt lat="49.41039" lon="20.46072"></trkpt>
      <trkpt lat="49.40993" lon="20.46102"></trkpt>
      <trkpt lat="49.4098" lon="20.46112"></trkpt>
      <trkpt lat="49.40968" lon="20.46123"></trkpt>
      <trkpt lat="49.40943" lon="20.46149"></trkpt>
      <trkpt lat="49.40854" lon="20.46244"></trkpt>
      <trkpt lat="49.40773" lon="20.46332"></trkpt>
      <trkpt lat="49.40769" lon="20.46337"></trkpt>
      <trkpt lat="49.40727" lon="20.4638"></trkpt>
      <trkpt lat="49.40709" lon="20.464"></trkpt>
      <trkpt lat="49.407" lon="20.46413"></trkpt>
      <trkpt lat="49.40692" lon="20.46425"></trkpt>
      <trkpt lat="49.40681" lon="20.46444"></trkpt>
      <trkpt lat="49.40673" lon="20.46455"></trkpt>
      <trkpt lat="49.40661" lon="20.46471"></trkpt>
      <trkpt lat="49.40624" lon="20.46504"></trkpt>
      <trkpt lat="49.40591" lon="20.46539"></trkpt>
      <trkpt lat="49.40557" lon="20.4657"></trkpt>
      <trkpt lat="49.40546" lon="20.4658"></trkpt>
      <trkpt lat="49.40536" lon="20.46592"></trkpt>
      <trkpt lat="49.40516" lon="20.46615"></trkpt>
      <trkpt lat="49.40506" lon="20.46628"></trkpt>
      <trkpt lat="49.40458" lon="20.46685"></trkpt>
      <trkpt lat="49.4044" lon="20.46699"></trkpt>
      <trkpt lat="49.40427" lon="20.46708"></trkpt>
      <trkpt lat="49.40403" lon="20.46741"></trkpt>
      <trkpt lat="49.40393" lon="20.46751"></trkpt>
      <trkpt lat="49.40383" lon="20.46758"></trkpt>
      <trkpt lat="49.40371" lon="20.46763"></trkpt>
      <trkpt lat="49.40357" lon="20.46764"></trkpt>
      <trkpt lat="49.40343" lon="20.46762"></trkpt>
      <trkpt lat="49.40336" lon="20.46758"></trkpt>
      <trkpt lat="49.40331" lon="20.46758"></trkpt>
      <trkpt lat="49.40329" lon="20.46759"></trkpt>
      <trkpt lat="49.40327" lon="20.46761"></trkpt>
      <trkpt lat="49.40324" lon="20.46766"></trkpt>
      <trkpt lat="49.40315" lon="20.46784"></trkpt>
      <trkpt lat="49.40308" lon="20.46805"></trkpt>
      <trkpt lat="49.40299" lon="20.46846"></trkpt>
      <trkpt lat="49.40291" lon="20.46879"></trkpt>
      <trkpt lat="49.40286" lon="20.46903"></trkpt>
      <trkpt lat="49.40281" lon="20.46916"></trkpt>
      <trkpt lat="49.40277" lon="20.46927"></trkpt>
      <trkpt lat="49.40268" lon="20.46947"></trkpt>
      <trkpt lat="49.40257" lon="20.46969"></trkpt>
      <trkpt lat="49.40249" lon="20.4698"></trkpt>
      <trkpt lat="49.40218" lon="20.47024"></trkpt>
      <trkpt lat="49.40207" lon="20.47037"></trkpt>
      <trkpt lat="49.40179" lon="20.47074"></trkpt>
      <trkpt lat="49.4016" lon="20.47105"></trkpt>
      <trkpt lat="49.40113" lon="20.47184"></trkpt>
      <trkpt lat="49.40066" lon="20.47237"></trkpt>
      <trkpt lat="49.40039" lon="20.47271"></trkpt>
      <trkpt lat="49.40016" lon="20.47295"></trkpt>
      <trkpt lat="49.40001" lon="20.47286"></trkpt>
      <trkpt lat="49.39995" lon="20.47282"></trkpt>
      <trkpt lat="49.39975" lon="20.47267"></trkpt>
      <trkpt lat="49.39961" lon="20.47251"></trkpt>
      <trkpt lat="49.3995" lon="20.47239"></trkpt>
      <trkpt lat="49.39937" lon="20.4722"></trkpt>
      <trkpt lat="49.3992" lon="20.47192"></trkpt>
      <trkpt lat="49.39898" lon="20.47155"></trkpt>
      <trkpt lat="49.39895" lon="20.4715"></trkpt>
      <trkpt lat="49.39883" lon="20.47123"></trkpt>
      <trkpt lat="49.39867" lon="20.47082"></trkpt>
      <trkpt lat="49.39858" lon="20.47054"></trkpt>
      <trkpt lat="49.39851" lon="20.47043"></trkpt>
      <trkpt lat="49.39844" lon="20.4703"></trkpt>
      <trkpt lat="49.3984" lon="20.47021"></trkpt>
      <trkpt lat="49.39837" lon="20.47012"></trkpt>
      <trkpt lat="49.39833" lon="20.46996"></trkpt>
      <trkpt lat="49.39827" lon="20.46971"></trkpt>
      <trkpt lat="49.3982" lon="20.4695"></trkpt>
      <trkpt lat="49.39814" lon="20.46938"></trkpt>
      <trkpt lat="49.39804" lon="20.46918"></trkpt>
      <trkpt lat="49.39787" lon="20.46889"></trkpt>
      <trkpt lat="49.39772" lon="20.46867"></trkpt>
      <trkpt lat="49.39755" lon="20.46833"></trkpt>
      <trkpt lat="49.39744" lon="20.46796"></trkpt>
      <trkpt lat="49.39738" lon="20.46782"></trkpt>
      <trkpt lat="49.39729" lon="20.46765"></trkpt>
      <trkpt lat="49.39712" lon="20.46742"></trkpt>
      <trkpt lat="49.39704" lon="20.46725"></trkpt>
      <trkpt lat="49.39693" lon="20.46703"></trkpt>
      <trkpt lat="49.39687" lon="20.46693"></trkpt>
      <trkpt lat="49.39679" lon="20.46688"></trkpt>
      <trkpt lat="49.39678" lon="20.46697"></trkpt>
      <trkpt lat="49.39676" lon="20.46729"></trkpt>
      <trkpt lat="49.39678" lon="20.46745"></trkpt>
      <trkpt lat="49.39677" lon="20.46772"></trkpt>
      <trkpt lat="49.39674" lon="20.46797"></trkpt>
      <trkpt lat="49.39651" lon="20.46899"></trkpt>
      <trkpt lat="49.39641" lon="20.4696"></trkpt>
      <trkpt lat="49.39632" lon="20.46985"></trkpt>
      <trkpt lat="49.39612" lon="20.47038"></trkpt>
      <trkpt lat="49.39599" lon="20.47064"></trkpt>
      <trkpt lat="49.39587" lon="20.47086"></trkpt>
      <trkpt lat="49.39579" lon="20.47096"></trkpt>
      <trkpt lat="49.39566" lon="20.47105"></trkpt>
      <trkpt lat="49.39552" lon="20.47112"></trkpt>
      <trkpt lat="49.39529" lon="20.47118"></trkpt>
      <trkpt lat="49.39502" lon="20.47124"></trkpt>
      <trkpt lat="49.39499" lon="20.47123"></trkpt>
      <trkpt lat="49.39476" lon="20.47107"></trkpt>
      <trkpt lat="49.39438" lon="20.47076"></trkpt>
      <trkpt lat="49.3942" lon="20.4706"></trkpt>
      <trkpt lat="49.39413" lon="20.47051"></trkpt>
      <trkpt lat="49.39406" lon="20.47037"></trkpt>
      <trkpt lat="49.39393" lon="20.47007"></trkpt>
      <trkpt lat="49.39384" lon="20.46976"></trkpt>
      <trkpt lat="49.39369" lon="20.46942"></trkpt>
      <trkpt lat="49.39355" lon="20.46924"></trkpt>
      <trkpt lat="49.39345" lon="20.46915"></trkpt>
      <trkpt lat="49.3934" lon="20.46909"></trkpt>
      <trkpt lat="49.39334" lon="20.46905"></trkpt>
      <trkpt lat="49.39329" lon="20.46905"></trkpt>
      <trkpt lat="49.39322" lon="20.46903"></trkpt>
      <trkpt lat="49.39307" lon="20.469"></trkpt>
      <trkpt lat="49.39296" lon="20.46899"></trkpt>
      <trkpt lat="49.39265" lon="20.46888"></trkpt>
      <trkpt lat="49.39254" lon="20.46886"></trkpt>
      <trkpt lat="49.39215" lon="20.46879"></trkpt>
      <trkpt lat="49.39144" lon="20.46879"></trkpt>
      <trkpt lat="49.39131" lon="20.46881"></trkpt>
      <trkpt lat="49.39122" lon="20.4688"></trkpt>
      <trkpt lat="49.39112" lon="20.46874"></trkpt>
      <trkpt lat="49.391" lon="20.4687"></trkpt>
      <trkpt lat="49.3909" lon="20.46871"></trkpt>
      <trkpt lat="49.39068" lon="20.46879"></trkpt>
      <trkpt lat="49.39052" lon="20.46883"></trkpt>
      <trkpt lat="49.3904" lon="20.46882"></trkpt>
      <trkpt lat="49.39028" lon="20.46883"></trkpt>
      <trkpt lat="49.39015" lon="20.46881"></trkpt>
      <trkpt lat="49.38999" lon="20.46882"></trkpt>
      <trkpt lat="49.38985" lon="20.46888"></trkpt>
      <trkpt lat="49.3898" lon="20.46897"></trkpt>
      <trkpt lat="49.38974" lon="20.46899"></trkpt>
      <trkpt lat="49.3897" lon="20.46896"></trkpt>
      <trkpt lat="49.38953" lon="20.4687"></trkpt>
      <trkpt lat="49.38945" lon="20.46862"></trkpt>
      <trkpt lat="49.38938" lon="20.4685"></trkpt>
      <trkpt lat="49.38927" lon="20.46838"></trkpt>
      <trkpt lat="49.38917" lon="20.46834"></trkpt>
      <trkpt lat="49.38912" lon="20.46829"></trkpt>
      <trkpt lat="49.38896" lon="20.46804"></trkpt>
      <trkpt lat="49.38888" lon="20.46784"></trkpt>
      <trkpt lat="49.38873" lon="20.46753"></trkpt>
      <trkpt lat="49.38863" lon="20.46722"></trkpt>
      <trkpt lat="49.38851" lon="20.46663"></trkpt>
      <trkpt lat="49.38847" lon="20.46623"></trkpt>
      <trkpt lat="49.38845" lon="20.46613"></trkpt>
      <trkpt lat="49.38845" lon="20.46602"></trkpt>
      <trkpt lat="49.38842" lon="20.46575"></trkpt>
      <trkpt lat="49.38837" lon="20.46562"></trkpt>
      <trkpt lat="49.38819" lon="20.4653"></trkpt>
      <trkpt lat="49.3881" lon="20.46505"></trkpt>
      <trkpt lat="49.3879" lon="20.46467"></trkpt>
      <trkpt lat="49.38785" lon="20.46458"></trkpt>
      <trkpt lat="49.38779" lon="20.46439"></trkpt>
      <trkpt lat="49.38774" lon="20.46418"></trkpt>
      <trkpt lat="49.38771" lon="20.46402"></trkpt>
      <trkpt lat="49.38764" lon="20.46384"></trkpt>
      <trkpt lat="49.38758" lon="20.46373"></trkpt>
      <trkpt lat="49.38755" lon="20.46364"></trkpt>
      <trkpt lat="49.38751" lon="20.46357"></trkpt>
      <trkpt lat="49.38749" lon="20.46346"></trkpt>
      <trkpt lat="49.38746" lon="20.46302"></trkpt>
      <trkpt lat="49.38741" lon="20.46287"></trkpt>
      <trkpt lat="49.38739" lon="20.46273"></trkpt>
      <trkpt lat="49.38738" lon="20.46268"></trkpt>
      <trkpt lat="49.38735" lon="20.46259"></trkpt>
      <trkpt lat="49.38733" lon="20.46254"></trkpt>
      <trkpt lat="49.38732" lon="20.46249"></trkpt>
      <trkpt lat="49.38732" lon="20.4624"></trkpt>
      <trkpt lat="49.38731" lon="20.46236"></trkpt>
      <trkpt lat="49.38728" lon="20.46232"></trkpt>
      <trkpt lat="49.38723" lon="20.46222"></trkpt>
      <trkpt lat="49.38714" lon="20.46192"></trkpt>
      <trkpt lat="49.38708" lon="20.46185"></trkpt>
      <trkpt lat="49.38702" lon="20.46175"></trkpt>
      <trkpt lat="49.38696" lon="20.46172"></trkpt>
      <trkpt lat="49.38691" lon="20.46156"></trkpt>
      <trkpt lat="49.38683" lon="20.46147"></trkpt>
      <trkpt lat="49.38668" lon="20.46136"></trkpt>
      <trkpt lat="49.3865" lon="20.46127"></trkpt>
      <trkpt lat="49.3864" lon="20.4612"></trkpt>
      <trkpt lat="49.38624" lon="20.4612"></trkpt>
      <trkpt lat="49.38626" lon="20.46154"></trkpt>
      <trkpt lat="49.3863" lon="20.4618"></trkpt>
      <trkpt lat="49.38631" lon="20.4622"></trkpt>
      <trkpt lat="49.38642" lon="20.46258"></trkpt>
      <trkpt lat="49.38641" lon="20.4628"></trkpt>
      <trkpt lat="49.38639" lon="20.46304"></trkpt>
      <trkpt lat="49.3863" lon="20.46337"></trkpt>
      <trkpt lat="49.38632" lon="20.46383"></trkpt>
      <trkpt lat="49.38629" lon="20.46428"></trkpt>
      <trkpt lat="49.38632" lon="20.46443"></trkpt>
      <trkpt lat="49.38643" lon="20.46486"></trkpt>
      <trkpt lat="49.38657" lon="20.46605"></trkpt>
      <trkpt lat="49.38668" lon="20.46661"></trkpt>
      <trkpt lat="49.38672" lon="20.46685"></trkpt>
      <trkpt lat="49.38676" lon="20.46715"></trkpt>
      <trkpt lat="49.38675" lon="20.46739"></trkpt>
      <trkpt lat="49.38671" lon="20.4676"></trkpt>
      <trkpt lat="49.38674" lon="20.4679"></trkpt>
      <trkpt lat="49.38678" lon="20.4682"></trkpt>
      <trkpt lat="49.38676" lon="20.46851"></trkpt>
      <trkpt lat="49.38679" lon="20.46865"></trkpt>
      <trkpt lat="49.38673" lon="20.46894"></trkpt>
      <trkpt lat="49.38665" lon="20.46916"></trkpt>
      <trkpt lat="49.38643" lon="20.46955"></trkpt>
      <trkpt lat="49.38626" lon="20.46994"></trkpt>
      <trkpt lat="49.38615" lon="20.47005"></trkpt>
      <trkpt lat="49.38589" lon="20.47007"></trkpt>
      <trkpt lat="49.38566" lon="20.47009"></trkpt>
      <trkpt lat="49.38549" lon="20.47012"></trkpt>
      <trkpt lat="49.38541" lon="20.47017"></trkpt>
      <trkpt lat="49.38535" lon="20.47036"></trkpt>
      <trkpt lat="49.3853" lon="20.47049"></trkpt>
      <trkpt lat="49.38513" lon="20.4708"></trkpt>
    </trkseg>
  </trk>
</gpx>
