<?xml version="1.0" encoding="UTF-8"?>
<gpx version="1.1" creator="szlakipienin.pl" xmlns="http://www.topografix.com/GPX/1/1">
  <metadata>
    <name>Góra Zamkowa</name>
    <desc>5 km, 119 min, 437 m podejść. Opis trasy: https://szlakipienin.pl/szlaki/gora-zamkowa</desc>
    <link href="https://szlakipienin.pl/szlaki/gora-zamkowa"><text>Góra Zamkowa</text></link>
  </metadata>
  <trk>
    <name>Góra Zamkowa</name>
    <trkseg>
      <trkpt lat="49.44058" lon="20.42791"></trkpt>
      <trkpt lat="49.44061" lon="20.42775"></trkpt>
      <trkpt lat="49.44062" lon="20.42771"></trkpt>
      <trkpt lat="49.44061" lon="20.42766"></trkpt>
      <trkpt lat="49.4406" lon="20.42744"></trkpt>
      <trkpt lat="49.44057" lon="20.42691"></trkpt>
      <trkpt lat="49.4406" lon="20.42669"></trkpt>
      <trkpt lat="49.44063" lon="20.42651"></trkpt>
      <trkpt lat="49.44065" lon="20.42637"></trkpt>
      <trkpt lat="49.4407" lon="20.42606"></trkpt>
      <trkpt lat="49.44071" lon="20.4259"></trkpt>
      <trkpt lat="49.44074" lon="20.42584"></trkpt>
      <trkpt lat="49.44067" lon="20.42553"></trkpt>
      <trkpt lat="49.44062" lon="20.42529"></trkpt>
      <trkpt lat="49.44059" lon="20.42517"></trkpt>
      <trkpt lat="49.44055" lon="20.42499"></trkpt>
      <trkpt lat="49.44053" lon="20.42485"></trkpt>
      <trkpt lat="49.4405" lon="20.42469"></trkpt>
      <trkpt lat="49.4404" lon="20.42396"></trkpt>
      <trkpt lat="49.44038" lon="20.42373"></trkpt>
      <trkpt lat="49.44037" lon="20.42363"></trkpt>
      <trkpt lat="49.44037" lon="20.4235"></trkpt>
      <trkpt lat="49.44037" lon="20.42341"></trkpt>
      <trkpt lat="49.44037" lon="20.42331"></trkpt>
      <trkpt lat="49.44038" lon="20.4232"></trkpt>
      <trkpt lat="49.44039" lon="20.42307"></trkpt>
      <trkpt lat="49.44039" lon="20.42298"></trkpt>
      <trkpt lat="49.44041" lon="20.42278"></trkpt>
      <trkpt lat="49.44035" lon="20.42276"></trkpt>
      <trkpt lat="49.44033" lon="20.42274"></trkpt>
      <trkpt lat="49.44031" lon="20.42271"></trkpt>
      <trkpt lat="49.44027" lon="20.42265"></trkpt>
      <trkpt lat="49.44012" lon="20.4224"></trkpt>
      <trkpt lat="49.44009" lon="20.42234"></trkpt>
      <trkpt lat="49.43996" lon="20.42225"></trkpt>
      <trkpt lat="49.43953" lon="20.42193"></trkpt>
      <trkpt lat="49.43935" lon="20.42184"></trkpt>
      <trkpt lat="49.4393" lon="20.42181"></trkpt>
      <trkpt lat="49.43916" lon="20.42178"></trkpt>
      <trkpt lat="49.43893" lon="20.42187"></trkpt>
      <trkpt lat="49.43891" lon="20.42187"></trkpt>
      <trkpt lat="49.43882" lon="20.42188"></trkpt>
      <trkpt lat="49.43847" lon="20.42186"></trkpt>
      <trkpt lat="49.43838" lon="20.42187"></trkpt>
      <trkpt lat="49.43825" lon="20.42196"></trkpt>
      <trkpt lat="49.43822" lon="20.42201"></trkpt>
      <trkpt lat="49.438" lon="20.42224"></trkpt>
      <trkpt lat="49.43782" lon="20.42232"></trkpt>
      <trkpt lat="49.43774" lon="20.42232"></trkpt>
      <trkpt lat="49.43749" lon="20.42231"></trkpt>
      <trkpt lat="49.43739" lon="20.42232"></trkpt>
      <trkpt lat="49.43727" lon="20.42237"></trkpt>
      <trkpt lat="49.43689" lon="20.42257"></trkpt>
      <trkpt lat="49.43671" lon="20.42265"></trkpt>
      <trkpt lat="49.43628" lon="20.42261"></trkpt>
      <trkpt lat="49.43616" lon="20.42264"></trkpt>
      <trkpt lat="49.43552" lon="20.42303"></trkpt>
      <trkpt lat="49.43534" lon="20.42311"></trkpt>
      <trkpt lat="49.43517" lon="20.42329"></trkpt>
      <trkpt lat="49.43503" lon="20.42339"></trkpt>
      <trkpt lat="49.43489" lon="20.42348"></trkpt>
      <trkpt lat="49.43481" lon="20.4235"></trkpt>
      <trkpt lat="49.43473" lon="20.4235"></trkpt>
      <trkpt lat="49.43468" lon="20.42355"></trkpt>
      <trkpt lat="49.43454" lon="20.4236"></trkpt>
      <trkpt lat="49.43441" lon="20.42364"></trkpt>
      <trkpt lat="49.43434" lon="20.42363"></trkpt>
      <trkpt lat="49.43425" lon="20.42369"></trkpt>
      <trkpt lat="49.43417" lon="20.42369"></trkpt>
      <trkpt lat="49.43404" lon="20.42374"></trkpt>
      <trkpt lat="49.434" lon="20.42376"></trkpt>
      <trkpt lat="49.43387" lon="20.42374"></trkpt>
      <trkpt lat="49.43371" lon="20.4236"></trkpt>
      <trkpt lat="49.43363" lon="20.4236"></trkpt>
      <trkpt lat="49.4336" lon="20.4236"></trkpt>
      <trkpt lat="49.43352" lon="20.42361"></trkpt>
      <trkpt lat="49.43341" lon="20.42355"></trkpt>
      <trkpt lat="49.4332" lon="20.42344"></trkpt>
      <trkpt lat="49.43307" lon="20.42335"></trkpt>
      <trkpt lat="49.43301" lon="20.42326"></trkpt>
      <trkpt lat="49.43269" lon="20.42305"></trkpt>
      <trkpt lat="49.43253" lon="20.42299"></trkpt>
      <trkpt lat="49.43244" lon="20.42296"></trkpt>
      <trkpt lat="49.43223" lon="20.42279"></trkpt>
      <trkpt lat="49.4314" lon="20.42228"></trkpt>
      <trkpt lat="49.43124" lon="20.42212"></trkpt>
      <trkpt lat="49.43113" lon="20.42198"></trkpt>
      <trkpt lat="49.43101" lon="20.42186"></trkpt>
      <trkpt lat="49.43092" lon="20.42182"></trkpt>
      <trkpt lat="49.43071" lon="20.42176"></trkpt>
      <trkpt lat="49.43046" lon="20.42154"></trkpt>
      <trkpt lat="49.43012" lon="20.42128"></trkpt>
      <trkpt lat="49.43" lon="20.4212"></trkpt>
      <trkpt lat="49.42992" lon="20.42111"></trkpt>
      <trkpt lat="49.4298" lon="20.42096"></trkpt>
      <trkpt lat="49.4297" lon="20.42074"></trkpt>
      <trkpt lat="49.42965" lon="20.42055"></trkpt>
      <trkpt lat="49.42961" lon="20.42038"></trkpt>
      <trkpt lat="49.42935" lon="20.41981"></trkpt>
      <trkpt lat="49.42895" lon="20.41904"></trkpt>
      <trkpt lat="49.42854" lon="20.41802"></trkpt>
      <trkpt lat="49.42834" lon="20.41751"></trkpt>
      <trkpt lat="49.42803" lon="20.41681"></trkpt>
      <trkpt lat="49.42785" lon="20.41645"></trkpt>
      <trkpt lat="49.42752" lon="20.4156"></trkpt>
      <trkpt lat="49.42707" lon="20.41472"></trkpt>
      <trkpt lat="49.42687" lon="20.41437"></trkpt>
      <trkpt lat="49.42673" lon="20.41413"></trkpt>
      <trkpt lat="49.42664" lon="20.41385"></trkpt>
      <trkpt lat="49.42647" lon="20.41333"></trkpt>
      <trkpt lat="49.42639" lon="20.41308"></trkpt>
      <trkpt lat="49.42621" lon="20.41275"></trkpt>
      <trkpt lat="49.42607" lon="20.41262"></trkpt>
      <trkpt lat="49.42588" lon="20.41262"></trkpt>
      <trkpt lat="49.42567" lon="20.41259"></trkpt>
      <trkpt lat="49.42553" lon="20.41248"></trkpt>
      <trkpt lat="49.42542" lon="20.41227"></trkpt>
      <trkpt lat="49.42531" lon="20.41172"></trkpt>
      <trkpt lat="49.42501" lon="20.41102"></trkpt>
      <trkpt lat="49.42468" lon="20.41069"></trkpt>
      <trkpt lat="49.4246" lon="20.41057"></trkpt>
      <trkpt lat="49.42455" lon="20.41052"></trkpt>
      <trkpt lat="49.42453" lon="20.41053"></trkpt>
      <trkpt lat="49.42452" lon="20.41053"></trkpt>
      <trkpt lat="49.42449" lon="20.41054"></trkpt>
      <trkpt lat="49.42446" lon="20.41056"></trkpt>
      <trkpt lat="49.42441" lon="20.41067"></trkpt>
      <trkpt lat="49.42417" lon="20.41136"></trkpt>
      <trkpt lat="49.4241" lon="20.41148"></trkpt>
      <trkpt lat="49.42394" lon="20.41154"></trkpt>
      <trkpt lat="49.42378" lon="20.41149"></trkpt>
      <trkpt lat="49.42351" lon="20.41132"></trkpt>
      <trkpt lat="49.42335" lon="20.41116"></trkpt>
      <trkpt lat="49.42324" lon="20.41097"></trkpt>
      <trkpt lat="49.42315" lon="20.41082"></trkpt>
      <trkpt lat="49.42296" lon="20.41054"></trkpt>
      <trkpt lat="49.42285" lon="20.41037"></trkpt>
      <trkpt lat="49.42264" lon="20.41004"></trkpt>
      <trkpt lat="49.42254" lon="20.41"></trkpt>
      <trkpt lat="49.42237" lon="20.40998"></trkpt>
      <trkpt lat="49.42221" lon="20.40992"></trkpt>
      <trkpt lat="49.42198" lon="20.40979"></trkpt>
      <trkpt lat="49.42187" lon="20.40965"></trkpt>
      <trkpt lat="49.4217" lon="20.40943"></trkpt>
      <trkpt lat="49.42161" lon="20.40931"></trkpt>
      <trkpt lat="49.42148" lon="20.40926"></trkpt>
      <trkpt lat="49.42139" lon="20.40928"></trkpt>
      <trkpt lat="49.42129" lon="20.40936"></trkpt>
      <trkpt lat="49.42121" lon="20.40937"></trkpt>
      <trkpt lat="49.42111" lon="20.40931"></trkpt>
      <trkpt lat="49.42097" lon="20.40923"></trkpt>
      <trkpt lat="49.42086" lon="20.4092"></trkpt>
      <trkpt lat="49.42042" lon="20.40903"></trkpt>
      <trkpt lat="49.42037" lon="20.40901"></trkpt>
      <trkpt lat="49.41994" lon="20.40866"></trkpt>
      <trkpt lat="49.41981" lon="20.40858"></trkpt>
      <trkpt lat="49.41935" lon="20.40835"></trkpt>
      <trkpt lat="49.41918" lon="20.40819"></trkpt>
      <trkpt lat="49.419" lon="20.40807"></trkpt>
      <trkpt lat="49.41918" lon="20.40819"></trkpt>
      <trkpt lat="49.41935" lon="20.40835"></trkpt>
      <trkpt lat="49.41981" lon="20.40858"></trkpt>
      <trkpt lat="49.41994" lon="20.40866"></trkpt>
      <trkpt lat="49.42037" lon="20.40901"></trkpt>
      <trkpt lat="49.42042" lon="20.40903"></trkpt>
      <trkpt lat="49.42086" lon="20.4092"></trkpt>
      <trkpt lat="49.42097" lon="20.40923"></trkpt>
      <trkpt lat="49.42111" lon="20.40931"></trkpt>
      <trkpt lat="49.42121" lon="20.40937"></trkpt>
      <trkpt lat="49.42129" lon="20.40936"></trkpt>
      <trkpt lat="49.42139" lon="20.40928"></trkpt>
      <trkpt lat="49.42148" lon="20.40926"></trkpt>
      <trkpt lat="49.42161" lon="20.40931"></trkpt>
      <trkpt lat="49.4217" lon="20.40943"></trkpt>
      <trkpt lat="49.42187" lon="20.40965"></trkpt>
      <trkpt lat="49.42198" lon="20.40979"></trkpt>
      <trkpt lat="49.42221" lon="20.40992"></trkpt>
      <trkpt lat="49.42237" lon="20.40998"></trkpt>
      <trkpt lat="49.42254" lon="20.41"></trkpt>
      <trkpt lat="49.42264" lon="20.41004"></trkpt>
      <trkpt lat="49.42285" lon="20.41037"></trkpt>
      <trkpt lat="49.42264" lon="20.41043"></trkpt>
      <trkpt lat="49.42252" lon="20.41046"></trkpt>
      <trkpt lat="49.42242" lon="20.41047"></trkpt>
      <trkpt lat="49.42233" lon="20.4105"></trkpt>
      <trkpt lat="49.42187" lon="20.41072"></trkpt>
      <trkpt lat="49.42175" lon="20.41081"></trkpt>
      <trkpt lat="49.42168" lon="20.41089"></trkpt>
      <trkpt lat="49.4216" lon="20.41103"></trkpt>
      <trkpt lat="49.42146" lon="20.41134"></trkpt>
      <trkpt lat="49.42142" lon="20.41142"></trkpt>
      <trkpt lat="49.42138" lon="20.41149"></trkpt>
      <trkpt lat="49.42134" lon="20.41153"></trkpt>
      <trkpt lat="49.42122" lon="20.41162"></trkpt>
      <trkpt lat="49.42108" lon="20.41175"></trkpt>
      <trkpt lat="49.42094" lon="20.41191"></trkpt>
      <trkpt lat="49.42089" lon="20.41202"></trkpt>
      <trkpt lat="49.42083" lon="20.41222"></trkpt>
      <trkpt lat="49.42077" lon="20.41251"></trkpt>
      <trkpt lat="49.42075" lon="20.41274"></trkpt>
      <trkpt lat="49.42075" lon="20.41295"></trkpt>
      <trkpt lat="49.4208" lon="20.41328"></trkpt>
      <trkpt lat="49.42084" lon="20.41362"></trkpt>
      <trkpt lat="49.42079" lon="20.41386"></trkpt>
      <trkpt lat="49.42066" lon="20.4142"></trkpt>
      <trkpt lat="49.4206" lon="20.41446"></trkpt>
      <trkpt lat="49.42056" lon="20.41466"></trkpt>
      <trkpt lat="49.42047" lon="20.41483"></trkpt>
      <trkpt lat="49.42025" lon="20.41515"></trkpt>
      <trkpt lat="49.41993" lon="20.41542"></trkpt>
      <trkpt lat="49.41982" lon="20.4155"></trkpt>
      <trkpt lat="49.41961" lon="20.41552"></trkpt>
      <trkpt lat="49.41947" lon="20.41548"></trkpt>
      <trkpt lat="49.41937" lon="20.41543"></trkpt>
      <trkpt lat="49.4193" lon="20.41546"></trkpt>
      <trkpt lat="49.41923" lon="20.41554"></trkpt>
      <trkpt lat="49.4192" lon="20.41569"></trkpt>
      <trkpt lat="49.4192" lon="20.41587"></trkpt>
      <trkpt lat="49.41918" lon="20.416"></trkpt>
      <trkpt lat="49.41911" lon="20.41612"></trkpt>
      <trkpt lat="49.41901" lon="20.4162"></trkpt>
      <trkpt lat="49.41891" lon="20.41624"></trkpt>
      <trkpt lat="49.41882" lon="20.41628"></trkpt>
      <trkpt lat="49.41874" lon="20.41644"></trkpt>
      <trkpt lat="49.41867" lon="20.41659"></trkpt>
      <trkpt lat="49.41859" lon="20.41673"></trkpt>
      <trkpt lat="49.41856" lon="20.4169"></trkpt>
      <trkpt lat="49.41861" lon="20.41718"></trkpt>
      <trkpt lat="49.41858" lon="20.41751"></trkpt>
      <trkpt lat="49.41852" lon="20.41778"></trkpt>
      <trkpt lat="49.41842" lon="20.41801"></trkpt>
      <trkpt lat="49.41827" lon="20.41822"></trkpt>
      <trkpt lat="49.41822" lon="20.41831"></trkpt>
      <trkpt lat="49.41823" lon="20.41837"></trkpt>
      <trkpt lat="49.41828" lon="20.41843"></trkpt>
      <trkpt lat="49.41844" lon="20.41854"></trkpt>
      <trkpt lat="49.41862" lon="20.41862"></trkpt>
      <trkpt lat="49.41875" lon="20.41869"></trkpt>
      <trkpt lat="49.41886" lon="20.41882"></trkpt>
      <trkpt lat="49.41894" lon="20.41894"></trkpt>
      <trkpt lat="49.41911" lon="20.4191"></trkpt>
      <trkpt lat="49.41923" lon="20.41917"></trkpt>
      <trkpt lat="49.41933" lon="20.41919"></trkpt>
      <trkpt lat="49.4194" lon="20.41927"></trkpt>
      <trkpt lat="49.41944" lon="20.41935"></trkpt>
      <trkpt lat="49.41954" lon="20.41956"></trkpt>
      <trkpt lat="49.41967" lon="20.4197"></trkpt>
      <trkpt lat="49.41982" lon="20.41991"></trkpt>
      <trkpt lat="49.41968" lon="20.41999"></trkpt>
      <trkpt lat="49.41957" lon="20.42006"></trkpt>
      <trkpt lat="49.41951" lon="20.42024"></trkpt>
    </trkseg>
  </trk>
</gpx>
