<?xml version="1.0" encoding="UTF-8"?>
<gpx version="1.1" creator="szlakipienin.pl" xmlns="http://www.topografix.com/GPX/1/1">
  <metadata>
    <name>Cisówka</name>
    <desc>3.4 km, 69 min, 183 m podejść. Opis trasy: https://szlakipienin.pl/szlaki/cisowka</desc>
    <link href="https://szlakipienin.pl/szlaki/cisowka"><text>Cisówka</text></link>
  </metadata>
  <trk>
    <name>Cisówka</name>
    <trkseg>
      <trkpt lat="49.42151" lon="20.3191"></trkpt>
      <trkpt lat="49.42153" lon="20.31892"></trkpt>
      <trkpt lat="49.42154" lon="20.31882"></trkpt>
      <trkpt lat="49.42154" lon="20.31878"></trkpt>
      <trkpt lat="49.42155" lon="20.3182"></trkpt>
      <trkpt lat="49.42156" lon="20.31803"></trkpt>
      <trkpt lat="49.42158" lon="20.31793"></trkpt>
      <trkpt lat="49.42159" lon="20.31786"></trkpt>
      <trkpt lat="49.42155" lon="20.31786"></trkpt>
      <trkpt lat="49.42146" lon="20.31785"></trkpt>
      <trkpt lat="49.42112" lon="20.31812"></trkpt>
      <trkpt lat="49.42091" lon="20.31818"></trkpt>
      <trkpt lat="49.42084" lon="20.31821"></trkpt>
      <trkpt lat="49.42028" lon="20.3183"></trkpt>
      <trkpt lat="49.41963" lon="20.31833"></trkpt>
      <trkpt lat="49.41956" lon="20.31831"></trkpt>
      <trkpt lat="49.4195" lon="20.3183"></trkpt>
      <trkpt lat="49.41946" lon="20.31819"></trkpt>
      <trkpt lat="49.41943" lon="20.31804"></trkpt>
      <trkpt lat="49.41943" lon="20.31785"></trkpt>
      <trkpt lat="49.41957" lon="20.31744"></trkpt>
      <trkpt lat="49.4196" lon="20.31725"></trkpt>
      <trkpt lat="49.41959" lon="20.3171"></trkpt>
      <trkpt lat="49.41955" lon="20.31697"></trkpt>
      <trkpt lat="49.41939" lon="20.31666"></trkpt>
      <trkpt lat="49.41936" lon="20.31657"></trkpt>
      <trkpt lat="49.41934" lon="20.3164"></trkpt>
      <trkpt lat="49.41939" lon="20.31593"></trkpt>
      <trkpt lat="49.4194" lon="20.31509"></trkpt>
      <trkpt lat="49.41945" lon="20.31483"></trkpt>
      <trkpt lat="49.41959" lon="20.31435"></trkpt>
      <trkpt lat="49.41975" lon="20.31384"></trkpt>
      <trkpt lat="49.42059" lon="20.31081"></trkpt>
      <trkpt lat="49.42075" lon="20.31023"></trkpt>
      <trkpt lat="49.42086" lon="20.30894"></trkpt>
      <trkpt lat="49.42087" lon="20.30858"></trkpt>
      <trkpt lat="49.42085" lon="20.30842"></trkpt>
      <trkpt lat="49.42074" lon="20.30786"></trkpt>
      <trkpt lat="49.4207" lon="20.30765"></trkpt>
      <trkpt lat="49.42065" lon="20.30733"></trkpt>
      <trkpt lat="49.42042" lon="20.30624"></trkpt>
      <trkpt lat="49.42033" lon="20.30563"></trkpt>
      <trkpt lat="49.41999" lon="20.30376"></trkpt>
      <trkpt lat="49.41992" lon="20.30336"></trkpt>
      <trkpt lat="49.4199" lon="20.30316"></trkpt>
      <trkpt lat="49.41983" lon="20.30295"></trkpt>
      <trkpt lat="49.41975" lon="20.30256"></trkpt>
      <trkpt lat="49.41967" lon="20.30207"></trkpt>
      <trkpt lat="49.41952" lon="20.30159"></trkpt>
      <trkpt lat="49.41938" lon="20.3012"></trkpt>
      <trkpt lat="49.4192" lon="20.30079"></trkpt>
      <trkpt lat="49.41905" lon="20.30039"></trkpt>
      <trkpt lat="49.41887" lon="20.29992"></trkpt>
      <trkpt lat="49.41873" lon="20.29967"></trkpt>
      <trkpt lat="49.41853" lon="20.2993"></trkpt>
      <trkpt lat="49.41831" lon="20.29893"></trkpt>
      <trkpt lat="49.41823" lon="20.29877"></trkpt>
      <trkpt lat="49.41738" lon="20.29756"></trkpt>
      <trkpt lat="49.41717" lon="20.29727"></trkpt>
      <trkpt lat="49.4171" lon="20.29707"></trkpt>
      <trkpt lat="49.41701" lon="20.2967"></trkpt>
      <trkpt lat="49.41698" lon="20.2965"></trkpt>
      <trkpt lat="49.41697" lon="20.29623"></trkpt>
      <trkpt lat="49.41693" lon="20.29585"></trkpt>
      <trkpt lat="49.4168" lon="20.29499"></trkpt>
      <trkpt lat="49.41683" lon="20.29474"></trkpt>
      <trkpt lat="49.41694" lon="20.29385"></trkpt>
      <trkpt lat="49.41698" lon="20.29331"></trkpt>
      <trkpt lat="49.41707" lon="20.29281"></trkpt>
      <trkpt lat="49.41723" lon="20.29158"></trkpt>
      <trkpt lat="49.41724" lon="20.29106"></trkpt>
      <trkpt lat="49.41725" lon="20.2909"></trkpt>
      <trkpt lat="49.41725" lon="20.29044"></trkpt>
      <trkpt lat="49.41723" lon="20.29012"></trkpt>
      <trkpt lat="49.41722" lon="20.28991"></trkpt>
      <trkpt lat="49.4172" lon="20.28967"></trkpt>
      <trkpt lat="49.41715" lon="20.28952"></trkpt>
      <trkpt lat="49.4171" lon="20.28937"></trkpt>
      <trkpt lat="49.41705" lon="20.28898"></trkpt>
      <trkpt lat="49.41703" lon="20.28872"></trkpt>
      <trkpt lat="49.417" lon="20.28856"></trkpt>
      <trkpt lat="49.41694" lon="20.28845"></trkpt>
      <trkpt lat="49.41686" lon="20.28837"></trkpt>
      <trkpt lat="49.41681" lon="20.28828"></trkpt>
      <trkpt lat="49.41682" lon="20.28814"></trkpt>
      <trkpt lat="49.41686" lon="20.28788"></trkpt>
      <trkpt lat="49.41686" lon="20.28762"></trkpt>
      <trkpt lat="49.41683" lon="20.28745"></trkpt>
      <trkpt lat="49.4168" lon="20.28733"></trkpt>
      <trkpt lat="49.41679" lon="20.28715"></trkpt>
      <trkpt lat="49.4168" lon="20.28698"></trkpt>
      <trkpt lat="49.4168" lon="20.28682"></trkpt>
      <trkpt lat="49.4168" lon="20.28662"></trkpt>
      <trkpt lat="49.41681" lon="20.28646"></trkpt>
      <trkpt lat="49.4168" lon="20.28639"></trkpt>
      <trkpt lat="49.41679" lon="20.28605"></trkpt>
      <trkpt lat="49.41676" lon="20.28542"></trkpt>
      <trkpt lat="49.41678" lon="20.28461"></trkpt>
      <trkpt lat="49.41672" lon="20.28393"></trkpt>
      <trkpt lat="49.41658" lon="20.28305"></trkpt>
      <trkpt lat="49.41652" lon="20.28234"></trkpt>
      <trkpt lat="49.41656" lon="20.2818"></trkpt>
      <trkpt lat="49.41656" lon="20.28156"></trkpt>
      <trkpt lat="49.41645" lon="20.28116"></trkpt>
      <trkpt lat="49.41634" lon="20.28074"></trkpt>
      <trkpt lat="49.41627" lon="20.28049"></trkpt>
      <trkpt lat="49.41625" lon="20.28017"></trkpt>
      <trkpt lat="49.41627" lon="20.27965"></trkpt>
      <trkpt lat="49.41628" lon="20.27888"></trkpt>
    </trkseg>
  </trk>
</gpx>
