<?xml version="1.0" encoding="UTF-8"?>
<gpx version="1.1" creator="szlakipienin.pl" xmlns="http://www.topografix.com/GPX/1/1">
  <metadata>
    <name>Sokolica</name>
    <desc>3.2 km, 78 min, 292 m podejść. Opis trasy: https://szlakipienin.pl/szlaki/sokolica</desc>
    <link href="https://szlakipienin.pl/szlaki/sokolica"><text>Sokolica</text></link>
  </metadata>
  <trk>
    <name>Sokolica</name>
    <trkseg>
      <trkpt lat="49.44058" lon="20.42791"></trkpt>
      <trkpt lat="49.44055" lon="20.4279"></trkpt>
      <trkpt lat="49.44052" lon="20.42789"></trkpt>
      <trkpt lat="49.44049" lon="20.42789"></trkpt>
      <trkpt lat="49.44046" lon="20.4279"></trkpt>
      <trkpt lat="49.4404" lon="20.42792"></trkpt>
      <trkpt lat="49.44033" lon="20.42795"></trkpt>
      <trkpt lat="49.44025" lon="20.42795"></trkpt>
      <trkpt lat="49.44012" lon="20.42794"></trkpt>
      <trkpt lat="49.44008" lon="20.42795"></trkpt>
      <trkpt lat="49.44005" lon="20.42795"></trkpt>
      <trkpt lat="49.43975" lon="20.42804"></trkpt>
      <trkpt lat="49.43926" lon="20.42831"></trkpt>
      <trkpt lat="49.43919" lon="20.42835"></trkpt>
      <trkpt lat="49.43913" lon="20.42839"></trkpt>
      <trkpt lat="49.43902" lon="20.42853"></trkpt>
      <trkpt lat="49.43871" lon="20.42886"></trkpt>
      <trkpt lat="49.43865" lon="20.42893"></trkpt>
      <trkpt lat="49.43853" lon="20.42907"></trkpt>
      <trkpt lat="49.43824" lon="20.42945"></trkpt>
      <trkpt lat="49.43798" lon="20.42988"></trkpt>
      <trkpt lat="49.43794" lon="20.42995"></trkpt>
      <trkpt lat="49.43774" lon="20.43025"></trkpt>
      <trkpt lat="49.4374" lon="20.4308"></trkpt>
      <trkpt lat="49.43737" lon="20.43084"></trkpt>
      <trkpt lat="49.43735" lon="20.43088"></trkpt>
      <trkpt lat="49.4373" lon="20.43095"></trkpt>
      <trkpt lat="49.43727" lon="20.43099"></trkpt>
      <trkpt lat="49.43717" lon="20.43115"></trkpt>
      <trkpt lat="49.43699" lon="20.43141"></trkpt>
      <trkpt lat="49.43689" lon="20.43157"></trkpt>
      <trkpt lat="49.43668" lon="20.43189"></trkpt>
      <trkpt lat="49.43656" lon="20.43206"></trkpt>
      <trkpt lat="49.43648" lon="20.43219"></trkpt>
      <trkpt lat="49.43628" lon="20.43248"></trkpt>
      <trkpt lat="49.43617" lon="20.43266"></trkpt>
      <trkpt lat="49.43606" lon="20.43282"></trkpt>
      <trkpt lat="49.43594" lon="20.43304"></trkpt>
      <trkpt lat="49.43572" lon="20.43343"></trkpt>
      <trkpt lat="49.43559" lon="20.43367"></trkpt>
      <trkpt lat="49.43525" lon="20.4343"></trkpt>
      <trkpt lat="49.43512" lon="20.43454"></trkpt>
      <trkpt lat="49.43498" lon="20.43484"></trkpt>
      <trkpt lat="49.43468" lon="20.43545"></trkpt>
      <trkpt lat="49.43454" lon="20.43578"></trkpt>
      <trkpt lat="49.43451" lon="20.43584"></trkpt>
      <trkpt lat="49.43444" lon="20.43592"></trkpt>
      <trkpt lat="49.43441" lon="20.43595"></trkpt>
      <trkpt lat="49.43431" lon="20.43603"></trkpt>
      <trkpt lat="49.43428" lon="20.43605"></trkpt>
      <trkpt lat="49.43382" lon="20.4364"></trkpt>
      <trkpt lat="49.43358" lon="20.43661"></trkpt>
      <trkpt lat="49.43353" lon="20.43665"></trkpt>
      <trkpt lat="49.43285" lon="20.43733"></trkpt>
      <trkpt lat="49.43282" lon="20.43736"></trkpt>
      <trkpt lat="49.43227" lon="20.43796"></trkpt>
      <trkpt lat="49.43217" lon="20.43804"></trkpt>
      <trkpt lat="49.4319" lon="20.43822"></trkpt>
      <trkpt lat="49.43156" lon="20.43841"></trkpt>
      <trkpt lat="49.4312" lon="20.43849"></trkpt>
      <trkpt lat="49.43119" lon="20.43849"></trkpt>
      <trkpt lat="49.43066" lon="20.43851"></trkpt>
      <trkpt lat="49.43035" lon="20.43857"></trkpt>
      <trkpt lat="49.42971" lon="20.43887"></trkpt>
      <trkpt lat="49.42906" lon="20.43911"></trkpt>
      <trkpt lat="49.42851" lon="20.43938"></trkpt>
      <trkpt lat="49.42819" lon="20.43968"></trkpt>
      <trkpt lat="49.42796" lon="20.44001"></trkpt>
      <trkpt lat="49.42793" lon="20.44006"></trkpt>
      <trkpt lat="49.42779" lon="20.44019"></trkpt>
      <trkpt lat="49.42756" lon="20.44033"></trkpt>
      <trkpt lat="49.42736" lon="20.44054"></trkpt>
      <trkpt lat="49.42707" lon="20.44066"></trkpt>
      <trkpt lat="49.42686" lon="20.4407"></trkpt>
      <trkpt lat="49.42662" lon="20.44066"></trkpt>
      <trkpt lat="49.42646" lon="20.44069"></trkpt>
      <trkpt lat="49.42638" lon="20.44072"></trkpt>
      <trkpt lat="49.42606" lon="20.44086"></trkpt>
      <trkpt lat="49.42573" lon="20.44109"></trkpt>
      <trkpt lat="49.42526" lon="20.44157"></trkpt>
      <trkpt lat="49.42505" lon="20.44183"></trkpt>
      <trkpt lat="49.42495" lon="20.44198"></trkpt>
      <trkpt lat="49.42466" lon="20.44267"></trkpt>
      <trkpt lat="49.42421" lon="20.44297"></trkpt>
      <trkpt lat="49.42396" lon="20.44306"></trkpt>
      <trkpt lat="49.42374" lon="20.44318"></trkpt>
      <trkpt lat="49.42354" lon="20.44327"></trkpt>
      <trkpt lat="49.42325" lon="20.44339"></trkpt>
      <trkpt lat="49.42284" lon="20.44342"></trkpt>
      <trkpt lat="49.42259" lon="20.44348"></trkpt>
      <trkpt lat="49.42247" lon="20.44348"></trkpt>
      <trkpt lat="49.42224" lon="20.44341"></trkpt>
      <trkpt lat="49.42187" lon="20.44344"></trkpt>
      <trkpt lat="49.4217" lon="20.44346"></trkpt>
      <trkpt lat="49.42151" lon="20.44373"></trkpt>
      <trkpt lat="49.42131" lon="20.44394"></trkpt>
      <trkpt lat="49.42115" lon="20.44396"></trkpt>
      <trkpt lat="49.42106" lon="20.44391"></trkpt>
      <trkpt lat="49.42099" lon="20.44378"></trkpt>
      <trkpt lat="49.42101" lon="20.44355"></trkpt>
      <trkpt lat="49.42093" lon="20.44346"></trkpt>
      <trkpt lat="49.42074" lon="20.44349"></trkpt>
      <trkpt lat="49.42056" lon="20.44351"></trkpt>
      <trkpt lat="49.4204" lon="20.44346"></trkpt>
      <trkpt lat="49.42026" lon="20.44335"></trkpt>
      <trkpt lat="49.4202" lon="20.4432"></trkpt>
      <trkpt lat="49.42017" lon="20.44306"></trkpt>
      <trkpt lat="49.42013" lon="20.44286"></trkpt>
      <trkpt lat="49.42017" lon="20.44265"></trkpt>
      <trkpt lat="49.42025" lon="20.44244"></trkpt>
      <trkpt lat="49.42032" lon="20.44227"></trkpt>
      <trkpt lat="49.4203" lon="20.44206"></trkpt>
      <trkpt lat="49.42026" lon="20.44191"></trkpt>
      <trkpt lat="49.42017" lon="20.44175"></trkpt>
      <trkpt lat="49.42002" lon="20.44159"></trkpt>
      <trkpt lat="49.41994" lon="20.44144"></trkpt>
      <trkpt lat="49.41991" lon="20.44121"></trkpt>
      <trkpt lat="49.41991" lon="20.441"></trkpt>
      <trkpt lat="49.41997" lon="20.44081"></trkpt>
      <trkpt lat="49.42" lon="20.44066"></trkpt>
      <trkpt lat="49.41997" lon="20.44049"></trkpt>
      <trkpt lat="49.41992" lon="20.44032"></trkpt>
      <trkpt lat="49.41983" lon="20.44022"></trkpt>
      <trkpt lat="49.41978" lon="20.43999"></trkpt>
      <trkpt lat="49.41977" lon="20.43986"></trkpt>
      <trkpt lat="49.41973" lon="20.4397"></trkpt>
      <trkpt lat="49.41961" lon="20.43933"></trkpt>
      <trkpt lat="49.41948" lon="20.43914"></trkpt>
      <trkpt lat="49.41937" lon="20.43925"></trkpt>
      <trkpt lat="49.4192" lon="20.43952"></trkpt>
      <trkpt lat="49.41892" lon="20.43989"></trkpt>
      <trkpt lat="49.41868" lon="20.43993"></trkpt>
      <trkpt lat="49.41854" lon="20.44002"></trkpt>
      <trkpt lat="49.41842" lon="20.44018"></trkpt>
      <trkpt lat="49.41827" lon="20.44045"></trkpt>
      <trkpt lat="49.41815" lon="20.44058"></trkpt>
      <trkpt lat="49.41808" lon="20.44077"></trkpt>
    </trkseg>
  </trk>
</gpx>
