<?xml version="1.0" encoding="UTF-8"?>
<gpx version="1.1" creator="szlakipienin.pl" xmlns="http://www.topografix.com/GPX/1/1">
  <metadata>
    <name>Szafranówka</name>
    <desc>2.3 km, 62 min, 278 m podejść. Opis trasy: https://szlakipienin.pl/szlaki/szafranowka</desc>
    <link href="https://szlakipienin.pl/szlaki/szafranowka"><text>Szafranówka</text></link>
  </metadata>
  <trk>
    <name>Szafranówka</name>
    <trkseg>
      <trkpt lat="49.42514" lon="20.48259"></trkpt>
      <trkpt lat="49.42528" lon="20.48233"></trkpt>
      <trkpt lat="49.4254" lon="20.48206"></trkpt>
      <trkpt lat="49.42547" lon="20.48187"></trkpt>
      <trkpt lat="49.42555" lon="20.48166"></trkpt>
      <trkpt lat="49.4256" lon="20.48153"></trkpt>
      <trkpt lat="49.42569" lon="20.48131"></trkpt>
      <trkpt lat="49.42578" lon="20.48107"></trkpt>
      <trkpt lat="49.42574" lon="20.48103"></trkpt>
      <trkpt lat="49.42564" lon="20.48097"></trkpt>
      <trkpt lat="49.42562" lon="20.48099"></trkpt>
      <trkpt lat="49.42555" lon="20.48104"></trkpt>
      <trkpt lat="49.42555" lon="20.48079"></trkpt>
      <trkpt lat="49.42557" lon="20.48074"></trkpt>
      <trkpt lat="49.42542" lon="20.48064"></trkpt>
      <trkpt lat="49.4255" lon="20.48034"></trkpt>
      <trkpt lat="49.4252" lon="20.48031"></trkpt>
      <trkpt lat="49.42517" lon="20.48047"></trkpt>
      <trkpt lat="49.42512" lon="20.48054"></trkpt>
      <trkpt lat="49.42508" lon="20.48058"></trkpt>
      <trkpt lat="49.42503" lon="20.48059"></trkpt>
      <trkpt lat="49.42497" lon="20.48057"></trkpt>
      <trkpt lat="49.42468" lon="20.48038"></trkpt>
      <trkpt lat="49.42467" lon="20.48037"></trkpt>
      <trkpt lat="49.42465" lon="20.48036"></trkpt>
      <trkpt lat="49.42441" lon="20.48025"></trkpt>
      <trkpt lat="49.42436" lon="20.48023"></trkpt>
      <trkpt lat="49.42433" lon="20.48021"></trkpt>
      <trkpt lat="49.42429" lon="20.4804"></trkpt>
      <trkpt lat="49.42423" lon="20.48087"></trkpt>
      <trkpt lat="49.42415" lon="20.48126"></trkpt>
      <trkpt lat="49.42411" lon="20.48145"></trkpt>
      <trkpt lat="49.42392" lon="20.4822"></trkpt>
      <trkpt lat="49.42385" lon="20.48249"></trkpt>
      <trkpt lat="49.42361" lon="20.48231"></trkpt>
      <trkpt lat="49.42357" lon="20.48225"></trkpt>
      <trkpt lat="49.42354" lon="20.48217"></trkpt>
      <trkpt lat="49.42354" lon="20.48205"></trkpt>
      <trkpt lat="49.42356" lon="20.48196"></trkpt>
      <trkpt lat="49.42356" lon="20.48193"></trkpt>
      <trkpt lat="49.42362" lon="20.48176"></trkpt>
      <trkpt lat="49.42362" lon="20.48154"></trkpt>
      <trkpt lat="49.42361" lon="20.48149"></trkpt>
      <trkpt lat="49.42359" lon="20.48146"></trkpt>
      <trkpt lat="49.42356" lon="20.48147"></trkpt>
      <trkpt lat="49.4235" lon="20.48151"></trkpt>
      <trkpt lat="49.42339" lon="20.48165"></trkpt>
      <trkpt lat="49.42324" lon="20.48182"></trkpt>
      <trkpt lat="49.42309" lon="20.48194"></trkpt>
      <trkpt lat="49.42285" lon="20.48211"></trkpt>
      <trkpt lat="49.42257" lon="20.48225"></trkpt>
      <trkpt lat="49.42244" lon="20.48229"></trkpt>
      <trkpt lat="49.42231" lon="20.48228"></trkpt>
      <trkpt lat="49.42222" lon="20.48219"></trkpt>
      <trkpt lat="49.42223" lon="20.48203"></trkpt>
      <trkpt lat="49.42227" lon="20.48182"></trkpt>
      <trkpt lat="49.42233" lon="20.48153"></trkpt>
      <trkpt lat="49.42236" lon="20.48131"></trkpt>
      <trkpt lat="49.42238" lon="20.48103"></trkpt>
      <trkpt lat="49.42232" lon="20.48073"></trkpt>
      <trkpt lat="49.42223" lon="20.48053"></trkpt>
      <trkpt lat="49.42206" lon="20.48038"></trkpt>
      <trkpt lat="49.42194" lon="20.48031"></trkpt>
      <trkpt lat="49.42183" lon="20.48028"></trkpt>
      <trkpt lat="49.42161" lon="20.48019"></trkpt>
      <trkpt lat="49.42143" lon="20.48008"></trkpt>
      <trkpt lat="49.42127" lon="20.47994"></trkpt>
      <trkpt lat="49.42125" lon="20.47987"></trkpt>
      <trkpt lat="49.42124" lon="20.47974"></trkpt>
      <trkpt lat="49.42129" lon="20.47939"></trkpt>
      <trkpt lat="49.42132" lon="20.47889"></trkpt>
      <trkpt lat="49.42127" lon="20.47865"></trkpt>
      <trkpt lat="49.42114" lon="20.47828"></trkpt>
      <trkpt lat="49.42101" lon="20.47805"></trkpt>
      <trkpt lat="49.42091" lon="20.47773"></trkpt>
      <trkpt lat="49.42084" lon="20.4775"></trkpt>
      <trkpt lat="49.42079" lon="20.47724"></trkpt>
      <trkpt lat="49.4207" lon="20.47701"></trkpt>
      <trkpt lat="49.42059" lon="20.47685"></trkpt>
      <trkpt lat="49.42047" lon="20.47675"></trkpt>
      <trkpt lat="49.42029" lon="20.4767"></trkpt>
      <trkpt lat="49.42019" lon="20.47671"></trkpt>
      <trkpt lat="49.42002" lon="20.47669"></trkpt>
      <trkpt lat="49.41989" lon="20.47666"></trkpt>
      <trkpt lat="49.41978" lon="20.47668"></trkpt>
      <trkpt lat="49.41968" lon="20.47679"></trkpt>
      <trkpt lat="49.41963" lon="20.47689"></trkpt>
      <trkpt lat="49.41953" lon="20.47692"></trkpt>
      <trkpt lat="49.41943" lon="20.477"></trkpt>
      <trkpt lat="49.41937" lon="20.47708"></trkpt>
      <trkpt lat="49.41935" lon="20.47707"></trkpt>
      <trkpt lat="49.41929" lon="20.47697"></trkpt>
      <trkpt lat="49.41925" lon="20.47691"></trkpt>
      <trkpt lat="49.41919" lon="20.4769"></trkpt>
      <trkpt lat="49.41916" lon="20.47681"></trkpt>
      <trkpt lat="49.41915" lon="20.47681"></trkpt>
      <trkpt lat="49.4191" lon="20.47687"></trkpt>
      <trkpt lat="49.41906" lon="20.47687"></trkpt>
      <trkpt lat="49.41904" lon="20.47684"></trkpt>
      <trkpt lat="49.41903" lon="20.47673"></trkpt>
      <trkpt lat="49.41904" lon="20.47652"></trkpt>
      <trkpt lat="49.41899" lon="20.4764"></trkpt>
      <trkpt lat="49.41893" lon="20.47635"></trkpt>
      <trkpt lat="49.41892" lon="20.47633"></trkpt>
      <trkpt lat="49.41886" lon="20.47631"></trkpt>
      <trkpt lat="49.41881" lon="20.47633"></trkpt>
      <trkpt lat="49.41871" lon="20.47645"></trkpt>
      <trkpt lat="49.41848" lon="20.47641"></trkpt>
      <trkpt lat="49.41842" lon="20.47642"></trkpt>
      <trkpt lat="49.41837" lon="20.47657"></trkpt>
      <trkpt lat="49.4183" lon="20.47658"></trkpt>
      <trkpt lat="49.41821" lon="20.47658"></trkpt>
      <trkpt lat="49.41789" lon="20.4759"></trkpt>
      <trkpt lat="49.41779" lon="20.47585"></trkpt>
      <trkpt lat="49.41768" lon="20.47586"></trkpt>
      <trkpt lat="49.41733" lon="20.47618"></trkpt>
      <trkpt lat="49.41719" lon="20.47631"></trkpt>
      <trkpt lat="49.41692" lon="20.47662"></trkpt>
      <trkpt lat="49.41675" lon="20.47679"></trkpt>
      <trkpt lat="49.41648" lon="20.47689"></trkpt>
      <trkpt lat="49.41638" lon="20.4769"></trkpt>
      <trkpt lat="49.41633" lon="20.47689"></trkpt>
      <trkpt lat="49.41627" lon="20.47688"></trkpt>
      <trkpt lat="49.41597" lon="20.4768"></trkpt>
      <trkpt lat="49.41561" lon="20.47668"></trkpt>
      <trkpt lat="49.4154" lon="20.4767"></trkpt>
      <trkpt lat="49.41504" lon="20.47674"></trkpt>
      <trkpt lat="49.41472" lon="20.47678"></trkpt>
      <trkpt lat="49.41463" lon="20.47685"></trkpt>
      <trkpt lat="49.41427" lon="20.47688"></trkpt>
      <trkpt lat="49.41409" lon="20.47668"></trkpt>
      <trkpt lat="49.41393" lon="20.47682"></trkpt>
      <trkpt lat="49.4138" lon="20.47682"></trkpt>
      <trkpt lat="49.4137" lon="20.4768"></trkpt>
      <trkpt lat="49.41359" lon="20.47674"></trkpt>
      <trkpt lat="49.41367" lon="20.47664"></trkpt>
      <trkpt lat="49.41382" lon="20.4765"></trkpt>
      <trkpt lat="49.41389" lon="20.47644"></trkpt>
      <trkpt lat="49.41398" lon="20.47635"></trkpt>
      <trkpt lat="49.41408" lon="20.47623"></trkpt>
      <trkpt lat="49.41412" lon="20.4761"></trkpt>
    </trkseg>
  </trk>
</gpx>
