<?xml version="1.0" encoding="UTF-8"?>
<gpx version="1.1" creator="szlakipienin.pl" xmlns="http://www.topografix.com/GPX/1/1">
  <metadata>
    <name>Rowerem do Czerwonego Klasztoru</name>
    <desc>9.7 km, 58 min, 219 m podejść. Opis trasy: https://szlakipienin.pl/szlaki/rowerem-do-czerwonego-klasztoru</desc>
    <link href="https://szlakipienin.pl/szlaki/rowerem-do-czerwonego-klasztoru"><text>Rowerem do Czerwonego Klasztoru</text></link>
  </metadata>
  <trk>
    <name>Rowerem do Czerwonego Klasztoru</name>
    <trkseg>
      <trkpt lat="49.42537" lon="20.45875"></trkpt>
      <trkpt lat="49.4254" lon="20.4588"></trkpt>
      <trkpt lat="49.42506" lon="20.45909"></trkpt>
      <trkpt lat="49.42444" lon="20.45956"></trkpt>
      <trkpt lat="49.4239" lon="20.46001"></trkpt>
      <trkpt lat="49.42375" lon="20.46012"></trkpt>
      <trkpt lat="49.42358" lon="20.46022"></trkpt>
      <trkpt lat="49.42349" lon="20.4602"></trkpt>
      <trkpt lat="49.42345" lon="20.4602"></trkpt>
      <trkpt lat="49.42335" lon="20.46013"></trkpt>
      <trkpt lat="49.42316" lon="20.45995"></trkpt>
      <trkpt lat="49.42286" lon="20.4597"></trkpt>
      <trkpt lat="49.42263" lon="20.45953"></trkpt>
      <trkpt lat="49.42232" lon="20.45929"></trkpt>
      <trkpt lat="49.42209" lon="20.45915"></trkpt>
      <trkpt lat="49.42131" lon="20.45898"></trkpt>
      <trkpt lat="49.42115" lon="20.45892"></trkpt>
      <trkpt lat="49.42074" lon="20.45868"></trkpt>
      <trkpt lat="49.42042" lon="20.45843"></trkpt>
      <trkpt lat="49.42008" lon="20.45812"></trkpt>
      <trkpt lat="49.41986" lon="20.45793"></trkpt>
      <trkpt lat="49.41965" lon="20.45767"></trkpt>
      <trkpt lat="49.41924" lon="20.4571"></trkpt>
      <trkpt lat="49.41865" lon="20.4564"></trkpt>
      <trkpt lat="49.41856" lon="20.45627"></trkpt>
      <trkpt lat="49.41837" lon="20.456"></trkpt>
      <trkpt lat="49.41829" lon="20.45588"></trkpt>
      <trkpt lat="49.41806" lon="20.4554"></trkpt>
      <trkpt lat="49.4179" lon="20.455"></trkpt>
      <trkpt lat="49.41777" lon="20.45459"></trkpt>
      <trkpt lat="49.41764" lon="20.45421"></trkpt>
      <trkpt lat="49.41752" lon="20.45381"></trkpt>
      <trkpt lat="49.41748" lon="20.4537"></trkpt>
      <trkpt lat="49.41746" lon="20.45359"></trkpt>
      <trkpt lat="49.41743" lon="20.45341"></trkpt>
      <trkpt lat="49.41734" lon="20.45293"></trkpt>
      <trkpt lat="49.41729" lon="20.45268"></trkpt>
      <trkpt lat="49.41725" lon="20.45251"></trkpt>
      <trkpt lat="49.41719" lon="20.45235"></trkpt>
      <trkpt lat="49.41713" lon="20.45223"></trkpt>
      <trkpt lat="49.41709" lon="20.45214"></trkpt>
      <trkpt lat="49.41703" lon="20.45203"></trkpt>
      <trkpt lat="49.41698" lon="20.45191"></trkpt>
      <trkpt lat="49.41695" lon="20.45174"></trkpt>
      <trkpt lat="49.41695" lon="20.45155"></trkpt>
      <trkpt lat="49.41694" lon="20.45136"></trkpt>
      <trkpt lat="49.41691" lon="20.4512"></trkpt>
      <trkpt lat="49.41685" lon="20.45093"></trkpt>
      <trkpt lat="49.41676" lon="20.45071"></trkpt>
      <trkpt lat="49.41667" lon="20.45051"></trkpt>
      <trkpt lat="49.41658" lon="20.45027"></trkpt>
      <trkpt lat="49.41652" lon="20.45006"></trkpt>
      <trkpt lat="49.4165" lon="20.44985"></trkpt>
      <trkpt lat="49.41649" lon="20.44969"></trkpt>
      <trkpt lat="49.41651" lon="20.4494"></trkpt>
      <trkpt lat="49.41653" lon="20.44909"></trkpt>
      <trkpt lat="49.41656" lon="20.44885"></trkpt>
      <trkpt lat="49.4166" lon="20.44865"></trkpt>
      <trkpt lat="49.41663" lon="20.44846"></trkpt>
      <trkpt lat="49.41664" lon="20.44822"></trkpt>
      <trkpt lat="49.41665" lon="20.44804"></trkpt>
      <trkpt lat="49.41664" lon="20.44777"></trkpt>
      <trkpt lat="49.41663" lon="20.44752"></trkpt>
      <trkpt lat="49.4166" lon="20.44728"></trkpt>
      <trkpt lat="49.41656" lon="20.44715"></trkpt>
      <trkpt lat="49.41652" lon="20.44701"></trkpt>
      <trkpt lat="49.41647" lon="20.44684"></trkpt>
      <trkpt lat="49.4164" lon="20.44664"></trkpt>
      <trkpt lat="49.41633" lon="20.44653"></trkpt>
      <trkpt lat="49.41627" lon="20.44652"></trkpt>
      <trkpt lat="49.41625" lon="20.44652"></trkpt>
      <trkpt lat="49.41604" lon="20.44662"></trkpt>
      <trkpt lat="49.416" lon="20.44661"></trkpt>
      <trkpt lat="49.4159" lon="20.44668"></trkpt>
      <trkpt lat="49.41573" lon="20.4468"></trkpt>
      <trkpt lat="49.41559" lon="20.44685"></trkpt>
      <trkpt lat="49.41472" lon="20.44796"></trkpt>
      <trkpt lat="49.41446" lon="20.44833"></trkpt>
      <trkpt lat="49.41431" lon="20.44864"></trkpt>
      <trkpt lat="49.41423" lon="20.4488"></trkpt>
      <trkpt lat="49.41415" lon="20.44892"></trkpt>
      <trkpt lat="49.41413" lon="20.44896"></trkpt>
      <trkpt lat="49.41406" lon="20.44905"></trkpt>
      <trkpt lat="49.41397" lon="20.44917"></trkpt>
      <trkpt lat="49.41392" lon="20.44926"></trkpt>
      <trkpt lat="49.41387" lon="20.44938"></trkpt>
      <trkpt lat="49.41385" lon="20.44954"></trkpt>
      <trkpt lat="49.41385" lon="20.4497"></trkpt>
      <trkpt lat="49.41386" lon="20.44981"></trkpt>
      <trkpt lat="49.41388" lon="20.4499"></trkpt>
      <trkpt lat="49.41398" lon="20.45011"></trkpt>
      <trkpt lat="49.4139" lon="20.45028"></trkpt>
      <trkpt lat="49.41384" lon="20.45035"></trkpt>
      <trkpt lat="49.41381" lon="20.45038"></trkpt>
      <trkpt lat="49.41373" lon="20.45043"></trkpt>
      <trkpt lat="49.41362" lon="20.45055"></trkpt>
      <trkpt lat="49.41346" lon="20.45077"></trkpt>
      <trkpt lat="49.41316" lon="20.45145"></trkpt>
      <trkpt lat="49.41304" lon="20.45158"></trkpt>
      <trkpt lat="49.41291" lon="20.45162"></trkpt>
      <trkpt lat="49.41273" lon="20.45164"></trkpt>
      <trkpt lat="49.41259" lon="20.45162"></trkpt>
      <trkpt lat="49.41242" lon="20.45148"></trkpt>
      <trkpt lat="49.41224" lon="20.45128"></trkpt>
      <trkpt lat="49.41211" lon="20.45106"></trkpt>
      <trkpt lat="49.41199" lon="20.45081"></trkpt>
      <trkpt lat="49.4119" lon="20.45056"></trkpt>
      <trkpt lat="49.41185" lon="20.45028"></trkpt>
      <trkpt lat="49.41186" lon="20.45006"></trkpt>
      <trkpt lat="49.41188" lon="20.4498"></trkpt>
      <trkpt lat="49.41184" lon="20.44948"></trkpt>
      <trkpt lat="49.41175" lon="20.449"></trkpt>
      <trkpt lat="49.4117" lon="20.44864"></trkpt>
      <trkpt lat="49.41168" lon="20.44823"></trkpt>
      <trkpt lat="49.41167" lon="20.44791"></trkpt>
      <trkpt lat="49.41165" lon="20.44757"></trkpt>
      <trkpt lat="49.41162" lon="20.44683"></trkpt>
      <trkpt lat="49.41164" lon="20.4464"></trkpt>
      <trkpt lat="49.41171" lon="20.44603"></trkpt>
      <trkpt lat="49.41187" lon="20.44543"></trkpt>
      <trkpt lat="49.412" lon="20.44496"></trkpt>
      <trkpt lat="49.41219" lon="20.44453"></trkpt>
      <trkpt lat="49.41231" lon="20.44429"></trkpt>
      <trkpt lat="49.41255" lon="20.44394"></trkpt>
      <trkpt lat="49.41298" lon="20.44353"></trkpt>
      <trkpt lat="49.41335" lon="20.44312"></trkpt>
      <trkpt lat="49.41351" lon="20.44288"></trkpt>
      <trkpt lat="49.41372" lon="20.44247"></trkpt>
      <trkpt lat="49.41389" lon="20.44181"></trkpt>
      <trkpt lat="49.41404" lon="20.4412"></trkpt>
      <trkpt lat="49.41415" lon="20.44047"></trkpt>
      <trkpt lat="49.41419" lon="20.44008"></trkpt>
      <trkpt lat="49.41422" lon="20.43911"></trkpt>
      <trkpt lat="49.41425" lon="20.43875"></trkpt>
      <trkpt lat="49.41429" lon="20.43855"></trkpt>
      <trkpt lat="49.41435" lon="20.43831"></trkpt>
      <trkpt lat="49.41451" lon="20.43792"></trkpt>
      <trkpt lat="49.4147" lon="20.43776"></trkpt>
      <trkpt lat="49.41499" lon="20.43745"></trkpt>
      <trkpt lat="49.41552" lon="20.43704"></trkpt>
      <trkpt lat="49.41593" lon="20.43691"></trkpt>
      <trkpt lat="49.41641" lon="20.43677"></trkpt>
      <trkpt lat="49.41687" lon="20.43665"></trkpt>
      <trkpt lat="49.41718" lon="20.43652"></trkpt>
      <trkpt lat="49.41726" lon="20.43645"></trkpt>
      <trkpt lat="49.41737" lon="20.43624"></trkpt>
      <trkpt lat="49.41743" lon="20.43603"></trkpt>
      <trkpt lat="49.41746" lon="20.43571"></trkpt>
      <trkpt lat="49.41746" lon="20.43458"></trkpt>
      <trkpt lat="49.41735" lon="20.43358"></trkpt>
      <trkpt lat="49.41721" lon="20.43285"></trkpt>
      <trkpt lat="49.41705" lon="20.43227"></trkpt>
      <trkpt lat="49.41667" lon="20.43147"></trkpt>
      <trkpt lat="49.41643" lon="20.43101"></trkpt>
      <trkpt lat="49.41625" lon="20.43076"></trkpt>
      <trkpt lat="49.41606" lon="20.43056"></trkpt>
      <trkpt lat="49.41589" lon="20.43048"></trkpt>
      <trkpt lat="49.41574" lon="20.43042"></trkpt>
      <trkpt lat="49.41524" lon="20.43024"></trkpt>
      <trkpt lat="49.41491" lon="20.43012"></trkpt>
      <trkpt lat="49.41431" lon="20.42995"></trkpt>
      <trkpt lat="49.41395" lon="20.42989"></trkpt>
      <trkpt lat="49.41291" lon="20.42974"></trkpt>
      <trkpt lat="49.4126" lon="20.42965"></trkpt>
      <trkpt lat="49.41232" lon="20.42953"></trkpt>
      <trkpt lat="49.41215" lon="20.4295"></trkpt>
      <trkpt lat="49.41203" lon="20.42953"></trkpt>
      <trkpt lat="49.41139" lon="20.4298"></trkpt>
      <trkpt lat="49.41118" lon="20.42983"></trkpt>
      <trkpt lat="49.41076" lon="20.42985"></trkpt>
      <trkpt lat="49.41046" lon="20.42984"></trkpt>
      <trkpt lat="49.40989" lon="20.4298"></trkpt>
      <trkpt lat="49.40938" lon="20.42969"></trkpt>
      <trkpt lat="49.40858" lon="20.42929"></trkpt>
      <trkpt lat="49.40837" lon="20.42918"></trkpt>
      <trkpt lat="49.40828" lon="20.42917"></trkpt>
      <trkpt lat="49.40815" lon="20.42923"></trkpt>
      <trkpt lat="49.40809" lon="20.42938"></trkpt>
      <trkpt lat="49.40806" lon="20.42962"></trkpt>
      <trkpt lat="49.40805" lon="20.42988"></trkpt>
      <trkpt lat="49.40811" lon="20.43026"></trkpt>
      <trkpt lat="49.40817" lon="20.43052"></trkpt>
      <trkpt lat="49.40828" lon="20.43083"></trkpt>
      <trkpt lat="49.40836" lon="20.43107"></trkpt>
      <trkpt lat="49.4084" lon="20.43129"></trkpt>
      <trkpt lat="49.40847" lon="20.43188"></trkpt>
      <trkpt lat="49.40848" lon="20.43242"></trkpt>
      <trkpt lat="49.40848" lon="20.43328"></trkpt>
      <trkpt lat="49.40845" lon="20.43358"></trkpt>
      <trkpt lat="49.40839" lon="20.43405"></trkpt>
      <trkpt lat="49.40815" lon="20.43517"></trkpt>
      <trkpt lat="49.40792" lon="20.43581"></trkpt>
      <trkpt lat="49.40751" lon="20.43668"></trkpt>
      <trkpt lat="49.40733" lon="20.43696"></trkpt>
      <trkpt lat="49.40718" lon="20.43716"></trkpt>
      <trkpt lat="49.40696" lon="20.43734"></trkpt>
      <trkpt lat="49.40669" lon="20.43748"></trkpt>
      <trkpt lat="49.40635" lon="20.43752"></trkpt>
      <trkpt lat="49.40575" lon="20.43749"></trkpt>
      <trkpt lat="49.40539" lon="20.43738"></trkpt>
      <trkpt lat="49.40402" lon="20.43651"></trkpt>
      <trkpt lat="49.40398" lon="20.43649"></trkpt>
      <trkpt lat="49.40388" lon="20.43633"></trkpt>
      <trkpt lat="49.40366" lon="20.43615"></trkpt>
      <trkpt lat="49.40293" lon="20.43562"></trkpt>
      <trkpt lat="49.40257" lon="20.43534"></trkpt>
      <trkpt lat="49.40235" lon="20.43521"></trkpt>
      <trkpt lat="49.40215" lon="20.43515"></trkpt>
      <trkpt lat="49.40185" lon="20.43512"></trkpt>
      <trkpt lat="49.40131" lon="20.43516"></trkpt>
      <trkpt lat="49.40063" lon="20.43556"></trkpt>
      <trkpt lat="49.40048" lon="20.43561"></trkpt>
      <trkpt lat="49.40008" lon="20.43569"></trkpt>
      <trkpt lat="49.40001" lon="20.43569"></trkpt>
      <trkpt lat="49.39995" lon="20.43569"></trkpt>
      <trkpt lat="49.39932" lon="20.4357"></trkpt>
      <trkpt lat="49.39886" lon="20.43555"></trkpt>
      <trkpt lat="49.39749" lon="20.43471"></trkpt>
      <trkpt lat="49.39704" lon="20.43438"></trkpt>
      <trkpt lat="49.39696" lon="20.43431"></trkpt>
      <trkpt lat="49.39676" lon="20.43418"></trkpt>
      <trkpt lat="49.39654" lon="20.43391"></trkpt>
      <trkpt lat="49.39639" lon="20.4337"></trkpt>
      <trkpt lat="49.39611" lon="20.43303"></trkpt>
      <trkpt lat="49.39586" lon="20.43248"></trkpt>
      <trkpt lat="49.39567" lon="20.43206"></trkpt>
      <trkpt lat="49.39555" lon="20.43177"></trkpt>
      <trkpt lat="49.39553" lon="20.43162"></trkpt>
      <trkpt lat="49.39553" lon="20.43137"></trkpt>
      <trkpt lat="49.39555" lon="20.43109"></trkpt>
      <trkpt lat="49.39561" lon="20.43088"></trkpt>
      <trkpt lat="49.39575" lon="20.43061"></trkpt>
      <trkpt lat="49.39595" lon="20.43035"></trkpt>
      <trkpt lat="49.39638" lon="20.42995"></trkpt>
      <trkpt lat="49.39708" lon="20.42959"></trkpt>
      <trkpt lat="49.39733" lon="20.42946"></trkpt>
      <trkpt lat="49.398" lon="20.42914"></trkpt>
      <trkpt lat="49.39872" lon="20.42895"></trkpt>
      <trkpt lat="49.40186" lon="20.42757"></trkpt>
      <trkpt lat="49.4021" lon="20.42727"></trkpt>
      <trkpt lat="49.40225" lon="20.42697"></trkpt>
      <trkpt lat="49.40253" lon="20.42623"></trkpt>
      <trkpt lat="49.40272" lon="20.42544"></trkpt>
      <trkpt lat="49.40285" lon="20.42503"></trkpt>
      <trkpt lat="49.40311" lon="20.42429"></trkpt>
      <trkpt lat="49.40379" lon="20.42281"></trkpt>
      <trkpt lat="49.40441" lon="20.42151"></trkpt>
      <trkpt lat="49.40457" lon="20.42124"></trkpt>
      <trkpt lat="49.40484" lon="20.42079"></trkpt>
      <trkpt lat="49.40508" lon="20.42037"></trkpt>
      <trkpt lat="49.40526" lon="20.41986"></trkpt>
      <trkpt lat="49.40537" lon="20.41935"></trkpt>
      <trkpt lat="49.40541" lon="20.4191"></trkpt>
      <trkpt lat="49.40539" lon="20.41873"></trkpt>
      <trkpt lat="49.4054" lon="20.41831"></trkpt>
      <trkpt lat="49.4054" lon="20.41783"></trkpt>
      <trkpt lat="49.40531" lon="20.41738"></trkpt>
      <trkpt lat="49.40519" lon="20.41701"></trkpt>
      <trkpt lat="49.40508" lon="20.41676"></trkpt>
      <trkpt lat="49.405" lon="20.41663"></trkpt>
      <trkpt lat="49.40484" lon="20.41648"></trkpt>
      <trkpt lat="49.40469" lon="20.41644"></trkpt>
      <trkpt lat="49.40452" lon="20.41643"></trkpt>
      <trkpt lat="49.40421" lon="20.41642"></trkpt>
      <trkpt lat="49.4037" lon="20.41641"></trkpt>
      <trkpt lat="49.4034" lon="20.41643"></trkpt>
      <trkpt lat="49.40325" lon="20.41647"></trkpt>
      <trkpt lat="49.40309" lon="20.41656"></trkpt>
      <trkpt lat="49.40294" lon="20.41665"></trkpt>
      <trkpt lat="49.40278" lon="20.41674"></trkpt>
      <trkpt lat="49.40247" lon="20.41685"></trkpt>
      <trkpt lat="49.40227" lon="20.41686"></trkpt>
      <trkpt lat="49.40192" lon="20.41687"></trkpt>
      <trkpt lat="49.40185" lon="20.41687"></trkpt>
      <trkpt lat="49.40161" lon="20.41681"></trkpt>
      <trkpt lat="49.40117" lon="20.41667"></trkpt>
      <trkpt lat="49.40092" lon="20.41662"></trkpt>
      <trkpt lat="49.4008" lon="20.41652"></trkpt>
      <trkpt lat="49.40074" lon="20.41647"></trkpt>
      <trkpt lat="49.4007" lon="20.41639"></trkpt>
      <trkpt lat="49.40067" lon="20.41634"></trkpt>
      <trkpt lat="49.40062" lon="20.41631"></trkpt>
      <trkpt lat="49.40048" lon="20.41627"></trkpt>
      <trkpt lat="49.4004" lon="20.41625"></trkpt>
      <trkpt lat="49.40032" lon="20.41626"></trkpt>
      <trkpt lat="49.40024" lon="20.41626"></trkpt>
      <trkpt lat="49.40013" lon="20.41633"></trkpt>
      <trkpt lat="49.40002" lon="20.41641"></trkpt>
      <trkpt lat="49.39992" lon="20.41648"></trkpt>
      <trkpt lat="49.39984" lon="20.41657"></trkpt>
      <trkpt lat="49.39982" lon="20.41655"></trkpt>
      <trkpt lat="49.39965" lon="20.4164"></trkpt>
      <trkpt lat="49.39943" lon="20.41621"></trkpt>
      <trkpt lat="49.39933" lon="20.41613"></trkpt>
      <trkpt lat="49.39924" lon="20.41604"></trkpt>
      <trkpt lat="49.39919" lon="20.41617"></trkpt>
      <trkpt lat="49.39914" lon="20.41631"></trkpt>
      <trkpt lat="49.39905" lon="20.41644"></trkpt>
      <trkpt lat="49.39901" lon="20.4165"></trkpt>
      <trkpt lat="49.39897" lon="20.41658"></trkpt>
      <trkpt lat="49.39896" lon="20.41662"></trkpt>
      <trkpt lat="49.39892" lon="20.41658"></trkpt>
      <trkpt lat="49.39884" lon="20.41649"></trkpt>
      <trkpt lat="49.3987" lon="20.41666"></trkpt>
      <trkpt lat="49.39867" lon="20.41668"></trkpt>
      <trkpt lat="49.39857" lon="20.41675"></trkpt>
      <trkpt lat="49.39852" lon="20.41679"></trkpt>
      <trkpt lat="49.39854" lon="20.41685"></trkpt>
      <trkpt lat="49.39865" lon="20.4171"></trkpt>
    </trkseg>
  </trk>
</gpx>
