<?xml version="1.0" encoding="UTF-8"?>
<gpx version="1.1" creator="szlakipienin.pl" xmlns="http://www.topografix.com/GPX/1/1">
  <metadata>
    <name>Velo Czorsztyn</name>
    <desc>27.1 km, 136 min, 177 m podejść. Opis trasy: https://szlakipienin.pl/szlaki/velo-czorsztyn</desc>
    <link href="https://szlakipienin.pl/szlaki/velo-czorsztyn"><text>Velo Czorsztyn</text></link>
  </metadata>
  <trk>
    <name>Velo Czorsztyn</name>
    <trkseg>
      <trkpt lat="49.42157" lon="20.31778"></trkpt>
      <trkpt lat="49.42206" lon="20.31678"></trkpt>
      <trkpt lat="49.42231" lon="20.31491"></trkpt>
      <trkpt lat="49.42239" lon="20.31494"></trkpt>
      <trkpt lat="49.42358" lon="20.31181"></trkpt>
      <trkpt lat="49.42416" lon="20.31115"></trkpt>
      <trkpt lat="49.42489" lon="20.31066"></trkpt>
      <trkpt lat="49.42581" lon="20.31043"></trkpt>
      <trkpt lat="49.42609" lon="20.30959"></trkpt>
      <trkpt lat="49.42614" lon="20.30889"></trkpt>
      <trkpt lat="49.426" lon="20.30837"></trkpt>
      <trkpt lat="49.42521" lon="20.30805"></trkpt>
      <trkpt lat="49.42468" lon="20.30732"></trkpt>
      <trkpt lat="49.42627" lon="20.30677"></trkpt>
      <trkpt lat="49.42643" lon="20.30647"></trkpt>
      <trkpt lat="49.42654" lon="20.30472"></trkpt>
      <trkpt lat="49.42705" lon="20.30237"></trkpt>
      <trkpt lat="49.42698" lon="20.30024"></trkpt>
      <trkpt lat="49.42676" lon="20.29905"></trkpt>
      <trkpt lat="49.42703" lon="20.29856"></trkpt>
      <trkpt lat="49.42731" lon="20.29837"></trkpt>
      <trkpt lat="49.42755" lon="20.29673"></trkpt>
      <trkpt lat="49.42795" lon="20.29572"></trkpt>
      <trkpt lat="49.42769" lon="20.29455"></trkpt>
      <trkpt lat="49.4277" lon="20.29292"></trkpt>
      <trkpt lat="49.42783" lon="20.29212"></trkpt>
      <trkpt lat="49.42768" lon="20.29085"></trkpt>
      <trkpt lat="49.42782" lon="20.29035"></trkpt>
      <trkpt lat="49.42846" lon="20.29106"></trkpt>
      <trkpt lat="49.42884" lon="20.29342"></trkpt>
      <trkpt lat="49.42961" lon="20.29686"></trkpt>
      <trkpt lat="49.42973" lon="20.2986"></trkpt>
      <trkpt lat="49.42981" lon="20.29853"></trkpt>
      <trkpt lat="49.4299" lon="20.29604"></trkpt>
      <trkpt lat="49.43012" lon="20.29534"></trkpt>
      <trkpt lat="49.43018" lon="20.2942"></trkpt>
      <trkpt lat="49.43004" lon="20.28998"></trkpt>
      <trkpt lat="49.42959" lon="20.28676"></trkpt>
      <trkpt lat="49.42952" lon="20.28522"></trkpt>
      <trkpt lat="49.43033" lon="20.28124"></trkpt>
      <trkpt lat="49.43034" lon="20.27971"></trkpt>
      <trkpt lat="49.42996" lon="20.27764"></trkpt>
      <trkpt lat="49.42987" lon="20.27462"></trkpt>
      <trkpt lat="49.43093" lon="20.27575"></trkpt>
      <trkpt lat="49.43136" lon="20.27573"></trkpt>
      <trkpt lat="49.43168" lon="20.27538"></trkpt>
      <trkpt lat="49.43254" lon="20.27282"></trkpt>
      <trkpt lat="49.43282" lon="20.27049"></trkpt>
      <trkpt lat="49.43336" lon="20.27129"></trkpt>
      <trkpt lat="49.43416" lon="20.27319"></trkpt>
      <trkpt lat="49.43518" lon="20.27111"></trkpt>
      <trkpt lat="49.43538" lon="20.26918"></trkpt>
      <trkpt lat="49.4344" lon="20.26887"></trkpt>
      <trkpt lat="49.43441" lon="20.26843"></trkpt>
      <trkpt lat="49.43475" lon="20.26781"></trkpt>
      <trkpt lat="49.43456" lon="20.26699"></trkpt>
      <trkpt lat="49.43458" lon="20.2653"></trkpt>
      <trkpt lat="49.43474" lon="20.26398"></trkpt>
      <trkpt lat="49.43537" lon="20.26235"></trkpt>
      <trkpt lat="49.43619" lon="20.26136"></trkpt>
      <trkpt lat="49.43643" lon="20.2604"></trkpt>
      <trkpt lat="49.43692" lon="20.26027"></trkpt>
      <trkpt lat="49.43709" lon="20.26002"></trkpt>
      <trkpt lat="49.43706" lon="20.25912"></trkpt>
      <trkpt lat="49.43722" lon="20.25857"></trkpt>
      <trkpt lat="49.43749" lon="20.25831"></trkpt>
      <trkpt lat="49.43794" lon="20.25852"></trkpt>
      <trkpt lat="49.43871" lon="20.25734"></trkpt>
      <trkpt lat="49.43945" lon="20.25423"></trkpt>
      <trkpt lat="49.43981" lon="20.25318"></trkpt>
      <trkpt lat="49.44" lon="20.25164"></trkpt>
      <trkpt lat="49.44086" lon="20.24917"></trkpt>
      <trkpt lat="49.44123" lon="20.24634"></trkpt>
      <trkpt lat="49.44249" lon="20.24011"></trkpt>
      <trkpt lat="49.44237" lon="20.2392"></trkpt>
      <trkpt lat="49.44213" lon="20.23854"></trkpt>
      <trkpt lat="49.44239" lon="20.2384"></trkpt>
      <trkpt lat="49.44252" lon="20.23869"></trkpt>
      <trkpt lat="49.44275" lon="20.23879"></trkpt>
      <trkpt lat="49.44346" lon="20.23859"></trkpt>
      <trkpt lat="49.44431" lon="20.23782"></trkpt>
      <trkpt lat="49.4426" lon="20.23665"></trkpt>
      <trkpt lat="49.44758" lon="20.23888"></trkpt>
      <trkpt lat="49.44804" lon="20.23869"></trkpt>
      <trkpt lat="49.4511" lon="20.23583"></trkpt>
      <trkpt lat="49.45232" lon="20.23328"></trkpt>
      <trkpt lat="49.45388" lon="20.23157"></trkpt>
      <trkpt lat="49.4542" lon="20.2308"></trkpt>
      <trkpt lat="49.45556" lon="20.22346"></trkpt>
      <trkpt lat="49.45503" lon="20.21851"></trkpt>
      <trkpt lat="49.45544" lon="20.21802"></trkpt>
      <trkpt lat="49.45548" lon="20.21704"></trkpt>
      <trkpt lat="49.45585" lon="20.21548"></trkpt>
      <trkpt lat="49.45579" lon="20.21515"></trkpt>
      <trkpt lat="49.45597" lon="20.21471"></trkpt>
      <trkpt lat="49.45564" lon="20.21387"></trkpt>
      <trkpt lat="49.45996" lon="20.20945"></trkpt>
      <trkpt lat="49.46122" lon="20.20838"></trkpt>
      <trkpt lat="49.46306" lon="20.21563"></trkpt>
      <trkpt lat="49.46634" lon="20.22054"></trkpt>
      <trkpt lat="49.46653" lon="20.22175"></trkpt>
      <trkpt lat="49.46678" lon="20.22155"></trkpt>
      <trkpt lat="49.46671" lon="20.21997"></trkpt>
      <trkpt lat="49.46667" lon="20.22151"></trkpt>
      <trkpt lat="49.46769" lon="20.22553"></trkpt>
      <trkpt lat="49.46781" lon="20.2255"></trkpt>
      <trkpt lat="49.46752" lon="20.22436"></trkpt>
      <trkpt lat="49.46734" lon="20.2242"></trkpt>
      <trkpt lat="49.46701" lon="20.22426"></trkpt>
      <trkpt lat="49.46673" lon="20.22453"></trkpt>
      <trkpt lat="49.466" lon="20.22622"></trkpt>
      <trkpt lat="49.46643" lon="20.22668"></trkpt>
      <trkpt lat="49.46627" lon="20.22893"></trkpt>
      <trkpt lat="49.46586" lon="20.22996"></trkpt>
      <trkpt lat="49.46554" lon="20.23318"></trkpt>
      <trkpt lat="49.46529" lon="20.23432"></trkpt>
      <trkpt lat="49.46492" lon="20.23484"></trkpt>
      <trkpt lat="49.46493" lon="20.23514"></trkpt>
      <trkpt lat="49.46465" lon="20.23553"></trkpt>
      <trkpt lat="49.46407" lon="20.23703"></trkpt>
      <trkpt lat="49.46402" lon="20.23818"></trkpt>
      <trkpt lat="49.46359" lon="20.2407"></trkpt>
      <trkpt lat="49.46364" lon="20.24126"></trkpt>
      <trkpt lat="49.46333" lon="20.24221"></trkpt>
      <trkpt lat="49.46348" lon="20.24254"></trkpt>
      <trkpt lat="49.46339" lon="20.24275"></trkpt>
      <trkpt lat="49.46322" lon="20.24264"></trkpt>
      <trkpt lat="49.46305" lon="20.24282"></trkpt>
      <trkpt lat="49.46277" lon="20.24338"></trkpt>
      <trkpt lat="49.4626" lon="20.24416"></trkpt>
      <trkpt lat="49.46262" lon="20.2447"></trkpt>
      <trkpt lat="49.46288" lon="20.24505"></trkpt>
      <trkpt lat="49.46285" lon="20.24525"></trkpt>
      <trkpt lat="49.46231" lon="20.24528"></trkpt>
      <trkpt lat="49.46183" lon="20.2467"></trkpt>
      <trkpt lat="49.46138" lon="20.24744"></trkpt>
      <trkpt lat="49.46117" lon="20.24848"></trkpt>
      <trkpt lat="49.46097" lon="20.24847"></trkpt>
      <trkpt lat="49.46001" lon="20.24952"></trkpt>
      <trkpt lat="49.45911" lon="20.25089"></trkpt>
      <trkpt lat="49.45847" lon="20.25154"></trkpt>
      <trkpt lat="49.4585" lon="20.25183"></trkpt>
      <trkpt lat="49.45902" lon="20.25234"></trkpt>
      <trkpt lat="49.45925" lon="20.25295"></trkpt>
      <trkpt lat="49.45868" lon="20.25304"></trkpt>
      <trkpt lat="49.45795" lon="20.25236"></trkpt>
      <trkpt lat="49.45761" lon="20.25226"></trkpt>
      <trkpt lat="49.45715" lon="20.2526"></trkpt>
      <trkpt lat="49.45644" lon="20.25369"></trkpt>
      <trkpt lat="49.45586" lon="20.25423"></trkpt>
      <trkpt lat="49.45452" lon="20.25378"></trkpt>
      <trkpt lat="49.45391" lon="20.25413"></trkpt>
      <trkpt lat="49.45342" lon="20.25495"></trkpt>
      <trkpt lat="49.45337" lon="20.25518"></trkpt>
      <trkpt lat="49.45354" lon="20.25549"></trkpt>
      <trkpt lat="49.45327" lon="20.25572"></trkpt>
      <trkpt lat="49.45303" lon="20.25672"></trkpt>
      <trkpt lat="49.45315" lon="20.25709"></trkpt>
      <trkpt lat="49.45401" lon="20.25721"></trkpt>
      <trkpt lat="49.45375" lon="20.25745"></trkpt>
      <trkpt lat="49.45355" lon="20.25799"></trkpt>
      <trkpt lat="49.45326" lon="20.25813"></trkpt>
      <trkpt lat="49.4533" lon="20.25856"></trkpt>
      <trkpt lat="49.45298" lon="20.25895"></trkpt>
      <trkpt lat="49.45287" lon="20.25938"></trkpt>
      <trkpt lat="49.45297" lon="20.25987"></trkpt>
      <trkpt lat="49.45316" lon="20.25998"></trkpt>
      <trkpt lat="49.4534" lon="20.25981"></trkpt>
      <trkpt lat="49.4535" lon="20.26014"></trkpt>
      <trkpt lat="49.45331" lon="20.26053"></trkpt>
      <trkpt lat="49.45244" lon="20.26116"></trkpt>
      <trkpt lat="49.45239" lon="20.26147"></trkpt>
      <trkpt lat="49.45198" lon="20.26154"></trkpt>
      <trkpt lat="49.45222" lon="20.26225"></trkpt>
      <trkpt lat="49.45222" lon="20.26315"></trkpt>
      <trkpt lat="49.45252" lon="20.26353"></trkpt>
      <trkpt lat="49.45253" lon="20.26389"></trkpt>
      <trkpt lat="49.45186" lon="20.26374"></trkpt>
      <trkpt lat="49.45142" lon="20.26432"></trkpt>
      <trkpt lat="49.45167" lon="20.26546"></trkpt>
      <trkpt lat="49.45198" lon="20.26622"></trkpt>
      <trkpt lat="49.45203" lon="20.26711"></trkpt>
      <trkpt lat="49.45177" lon="20.26669"></trkpt>
      <trkpt lat="49.45177" lon="20.26608"></trkpt>
      <trkpt lat="49.45148" lon="20.26492"></trkpt>
      <trkpt lat="49.45124" lon="20.26449"></trkpt>
      <trkpt lat="49.4513" lon="20.26402"></trkpt>
      <trkpt lat="49.45147" lon="20.26373"></trkpt>
      <trkpt lat="49.4514" lon="20.26282"></trkpt>
      <trkpt lat="49.45114" lon="20.26243"></trkpt>
      <trkpt lat="49.45041" lon="20.26209"></trkpt>
      <trkpt lat="49.45033" lon="20.263"></trkpt>
      <trkpt lat="49.44955" lon="20.2656"></trkpt>
      <trkpt lat="49.44922" lon="20.26721"></trkpt>
      <trkpt lat="49.44776" lon="20.2694"></trkpt>
      <trkpt lat="49.44667" lon="20.26998"></trkpt>
      <trkpt lat="49.44604" lon="20.27074"></trkpt>
      <trkpt lat="49.44519" lon="20.27237"></trkpt>
      <trkpt lat="49.44583" lon="20.27378"></trkpt>
      <trkpt lat="49.44665" lon="20.27516"></trkpt>
      <trkpt lat="49.44843" lon="20.277"></trkpt>
      <trkpt lat="49.44911" lon="20.27862"></trkpt>
      <trkpt lat="49.45022" lon="20.2798"></trkpt>
      <trkpt lat="49.44979" lon="20.28049"></trkpt>
      <trkpt lat="49.45004" lon="20.28129"></trkpt>
      <trkpt lat="49.45001" lon="20.28169"></trkpt>
      <trkpt lat="49.44742" lon="20.28135"></trkpt>
      <trkpt lat="49.44567" lon="20.28152"></trkpt>
      <trkpt lat="49.4453" lon="20.28207"></trkpt>
      <trkpt lat="49.44509" lon="20.28298"></trkpt>
      <trkpt lat="49.44524" lon="20.28341"></trkpt>
      <trkpt lat="49.44563" lon="20.28368"></trkpt>
      <trkpt lat="49.44581" lon="20.28412"></trkpt>
      <trkpt lat="49.44452" lon="20.28462"></trkpt>
      <trkpt lat="49.44404" lon="20.28504"></trkpt>
      <trkpt lat="49.44353" lon="20.28592"></trkpt>
      <trkpt lat="49.44294" lon="20.2874"></trkpt>
      <trkpt lat="49.44273" lon="20.28814"></trkpt>
      <trkpt lat="49.44274" lon="20.28916"></trkpt>
      <trkpt lat="49.44222" lon="20.28939"></trkpt>
      <trkpt lat="49.44195" lon="20.28928"></trkpt>
      <trkpt lat="49.44194" lon="20.28953"></trkpt>
      <trkpt lat="49.44121" lon="20.29041"></trkpt>
      <trkpt lat="49.44121" lon="20.29073"></trkpt>
      <trkpt lat="49.44047" lon="20.29171"></trkpt>
      <trkpt lat="49.44015" lon="20.2924"></trkpt>
      <trkpt lat="49.43948" lon="20.29307"></trkpt>
      <trkpt lat="49.43915" lon="20.2937"></trkpt>
      <trkpt lat="49.43862" lon="20.29404"></trkpt>
      <trkpt lat="49.43839" lon="20.29454"></trkpt>
      <trkpt lat="49.43801" lon="20.29483"></trkpt>
      <trkpt lat="49.43764" lon="20.29455"></trkpt>
      <trkpt lat="49.43731" lon="20.2946"></trkpt>
      <trkpt lat="49.43691" lon="20.29515"></trkpt>
      <trkpt lat="49.43668" lon="20.29616"></trkpt>
      <trkpt lat="49.43667" lon="20.29707"></trkpt>
      <trkpt lat="49.437" lon="20.2978"></trkpt>
      <trkpt lat="49.43717" lon="20.29886"></trkpt>
      <trkpt lat="49.43751" lon="20.29934"></trkpt>
      <trkpt lat="49.43797" lon="20.2992"></trkpt>
      <trkpt lat="49.43858" lon="20.29935"></trkpt>
      <trkpt lat="49.43907" lon="20.29916"></trkpt>
      <trkpt lat="49.44099" lon="20.29973"></trkpt>
      <trkpt lat="49.44139" lon="20.29963"></trkpt>
      <trkpt lat="49.44185" lon="20.29913"></trkpt>
      <trkpt lat="49.44215" lon="20.29966"></trkpt>
      <trkpt lat="49.44352" lon="20.29999"></trkpt>
      <trkpt lat="49.44395" lon="20.29974"></trkpt>
      <trkpt lat="49.44598" lon="20.29959"></trkpt>
      <trkpt lat="49.44612" lon="20.29971"></trkpt>
      <trkpt lat="49.4449" lon="20.3016"></trkpt>
      <trkpt lat="49.44466" lon="20.30243"></trkpt>
      <trkpt lat="49.44329" lon="20.30288"></trkpt>
      <trkpt lat="49.44287" lon="20.30336"></trkpt>
      <trkpt lat="49.44267" lon="20.30411"></trkpt>
      <trkpt lat="49.44286" lon="20.30523"></trkpt>
      <trkpt lat="49.44282" lon="20.30557"></trkpt>
      <trkpt lat="49.44216" lon="20.30512"></trkpt>
      <trkpt lat="49.44181" lon="20.30506"></trkpt>
      <trkpt lat="49.44149" lon="20.30534"></trkpt>
      <trkpt lat="49.4409" lon="20.30631"></trkpt>
      <trkpt lat="49.44049" lon="20.30654"></trkpt>
      <trkpt lat="49.43788" lon="20.30693"></trkpt>
      <trkpt lat="49.43774" lon="20.30852"></trkpt>
      <trkpt lat="49.43795" lon="20.30892"></trkpt>
      <trkpt lat="49.43842" lon="20.30916"></trkpt>
      <trkpt lat="49.43848" lon="20.30988"></trkpt>
      <trkpt lat="49.43757" lon="20.30997"></trkpt>
      <trkpt lat="49.43729" lon="20.31046"></trkpt>
      <trkpt lat="49.43698" lon="20.31052"></trkpt>
      <trkpt lat="49.4369" lon="20.31075"></trkpt>
    </trkseg>
  </trk>
</gpx>
