<?xml version="1.0" encoding="UTF-8"?>
<gpx version="1.1" creator="szlakipienin.pl" xmlns="http://www.topografix.com/GPX/1/1">
  <metadata>
    <name>Rubin Szczawnicy</name>
    <desc>42 km, 800 min, 1700 m podejść. Opis trasy: https://szlakipienin.pl/szlaki/rubin-szczawnicy</desc>
    <link href="https://szlakipienin.pl/szlaki/rubin-szczawnicy"><text>Rubin Szczawnicy</text></link>
  </metadata>
  <trk>
    <name>Rubin Szczawnicy</name>
    <trkseg>
      <trkpt lat="49.41986" lon="20.45793"></trkpt>
      <trkpt lat="49.42074" lon="20.45868"></trkpt>
      <trkpt lat="49.42114" lon="20.45892"></trkpt>
      <trkpt lat="49.42209" lon="20.45915"></trkpt>
      <trkpt lat="49.42349" lon="20.4602"></trkpt>
      <trkpt lat="49.42349" lon="20.46042"></trkpt>
      <trkpt lat="49.42396" lon="20.46172"></trkpt>
      <trkpt lat="49.42404" lon="20.46338"></trkpt>
      <trkpt lat="49.42436" lon="20.46332"></trkpt>
      <trkpt lat="49.42441" lon="20.46312"></trkpt>
      <trkpt lat="49.42496" lon="20.46323"></trkpt>
      <trkpt lat="49.42523" lon="20.46305"></trkpt>
      <trkpt lat="49.42545" lon="20.46439"></trkpt>
      <trkpt lat="49.42578" lon="20.46471"></trkpt>
      <trkpt lat="49.42609" lon="20.46472"></trkpt>
      <trkpt lat="49.42669" lon="20.46514"></trkpt>
      <trkpt lat="49.42712" lon="20.46562"></trkpt>
      <trkpt lat="49.42734" lon="20.46642"></trkpt>
      <trkpt lat="49.42728" lon="20.46732"></trkpt>
      <trkpt lat="49.42776" lon="20.46803"></trkpt>
      <trkpt lat="49.42906" lon="20.46794"></trkpt>
      <trkpt lat="49.429" lon="20.46764"></trkpt>
      <trkpt lat="49.42882" lon="20.46747"></trkpt>
      <trkpt lat="49.42874" lon="20.467"></trkpt>
      <trkpt lat="49.42916" lon="20.46687"></trkpt>
      <trkpt lat="49.42988" lon="20.46626"></trkpt>
      <trkpt lat="49.4302" lon="20.46471"></trkpt>
      <trkpt lat="49.4302" lon="20.46376"></trkpt>
      <trkpt lat="49.43031" lon="20.46329"></trkpt>
      <trkpt lat="49.43122" lon="20.46297"></trkpt>
      <trkpt lat="49.4332" lon="20.46276"></trkpt>
      <trkpt lat="49.43522" lon="20.46179"></trkpt>
      <trkpt lat="49.43585" lon="20.46116"></trkpt>
      <trkpt lat="49.43667" lon="20.46102"></trkpt>
      <trkpt lat="49.43789" lon="20.46142"></trkpt>
      <trkpt lat="49.43826" lon="20.46184"></trkpt>
      <trkpt lat="49.43927" lon="20.4622"></trkpt>
      <trkpt lat="49.44171" lon="20.46147"></trkpt>
      <trkpt lat="49.44228" lon="20.46166"></trkpt>
      <trkpt lat="49.44308" lon="20.46157"></trkpt>
      <trkpt lat="49.445" lon="20.46179"></trkpt>
      <trkpt lat="49.44517" lon="20.46223"></trkpt>
      <trkpt lat="49.44533" lon="20.46242"></trkpt>
      <trkpt lat="49.44604" lon="20.46255"></trkpt>
      <trkpt lat="49.44741" lon="20.46358"></trkpt>
      <trkpt lat="49.4478" lon="20.46363"></trkpt>
      <trkpt lat="49.44797" lon="20.46348"></trkpt>
      <trkpt lat="49.44849" lon="20.46349"></trkpt>
      <trkpt lat="49.4487" lon="20.46331"></trkpt>
      <trkpt lat="49.44899" lon="20.46327"></trkpt>
      <trkpt lat="49.44935" lon="20.46351"></trkpt>
      <trkpt lat="49.44963" lon="20.46354"></trkpt>
      <trkpt lat="49.45039" lon="20.46298"></trkpt>
      <trkpt lat="49.45091" lon="20.46312"></trkpt>
      <trkpt lat="49.45152" lon="20.46372"></trkpt>
      <trkpt lat="49.4523" lon="20.46423"></trkpt>
      <trkpt lat="49.45316" lon="20.46568"></trkpt>
      <trkpt lat="49.45358" lon="20.46618"></trkpt>
      <trkpt lat="49.45424" lon="20.46652"></trkpt>
      <trkpt lat="49.45488" lon="20.46736"></trkpt>
      <trkpt lat="49.45519" lon="20.46744"></trkpt>
      <trkpt lat="49.45541" lon="20.46771"></trkpt>
      <trkpt lat="49.45585" lon="20.46769"></trkpt>
      <trkpt lat="49.45618" lon="20.46747"></trkpt>
      <trkpt lat="49.45757" lon="20.46741"></trkpt>
      <trkpt lat="49.45976" lon="20.46834"></trkpt>
      <trkpt lat="49.46123" lon="20.46788"></trkpt>
      <trkpt lat="49.46145" lon="20.46813"></trkpt>
      <trkpt lat="49.46177" lon="20.46884"></trkpt>
      <trkpt lat="49.46294" lon="20.47"></trkpt>
      <trkpt lat="49.46355" lon="20.46979"></trkpt>
      <trkpt lat="49.46419" lon="20.46981"></trkpt>
      <trkpt lat="49.46469" lon="20.46999"></trkpt>
      <trkpt lat="49.46524" lon="20.4708"></trkpt>
      <trkpt lat="49.4654" lon="20.47137"></trkpt>
      <trkpt lat="49.4654" lon="20.4718"></trkpt>
      <trkpt lat="49.46576" lon="20.47272"></trkpt>
      <trkpt lat="49.46569" lon="20.47374"></trkpt>
      <trkpt lat="49.46531" lon="20.47593"></trkpt>
      <trkpt lat="49.46561" lon="20.47689"></trkpt>
      <trkpt lat="49.46583" lon="20.47801"></trkpt>
      <trkpt lat="49.46548" lon="20.47948"></trkpt>
      <trkpt lat="49.46463" lon="20.48163"></trkpt>
      <trkpt lat="49.46526" lon="20.48231"></trkpt>
      <trkpt lat="49.46577" lon="20.48347"></trkpt>
      <trkpt lat="49.46599" lon="20.48507"></trkpt>
      <trkpt lat="49.46549" lon="20.48682"></trkpt>
      <trkpt lat="49.46616" lon="20.48744"></trkpt>
      <trkpt lat="49.46675" lon="20.48769"></trkpt>
      <trkpt lat="49.4668" lon="20.48784"></trkpt>
      <trkpt lat="49.46686" lon="20.48947"></trkpt>
      <trkpt lat="49.4671" lon="20.49061"></trkpt>
      <trkpt lat="49.46724" lon="20.49219"></trkpt>
      <trkpt lat="49.46732" lon="20.49434"></trkpt>
      <trkpt lat="49.46748" lon="20.49487"></trkpt>
      <trkpt lat="49.46769" lon="20.49515"></trkpt>
      <trkpt lat="49.46854" lon="20.4956"></trkpt>
      <trkpt lat="49.46933" lon="20.49742"></trkpt>
      <trkpt lat="49.4702" lon="20.4983"></trkpt>
      <trkpt lat="49.47082" lon="20.49856"></trkpt>
      <trkpt lat="49.47134" lon="20.49923"></trkpt>
      <trkpt lat="49.47221" lon="20.49978"></trkpt>
      <trkpt lat="49.47257" lon="20.5002"></trkpt>
      <trkpt lat="49.47267" lon="20.50046"></trkpt>
      <trkpt lat="49.47275" lon="20.50095"></trkpt>
      <trkpt lat="49.47254" lon="20.50155"></trkpt>
      <trkpt lat="49.47207" lon="20.50396"></trkpt>
      <trkpt lat="49.47187" lon="20.50463"></trkpt>
      <trkpt lat="49.47183" lon="20.50493"></trkpt>
      <trkpt lat="49.47195" lon="20.50574"></trkpt>
      <trkpt lat="49.47173" lon="20.50702"></trkpt>
      <trkpt lat="49.47223" lon="20.50858"></trkpt>
      <trkpt lat="49.47222" lon="20.50885"></trkpt>
      <trkpt lat="49.47267" lon="20.51074"></trkpt>
      <trkpt lat="49.47322" lon="20.51249"></trkpt>
      <trkpt lat="49.47347" lon="20.51292"></trkpt>
      <trkpt lat="49.47325" lon="20.51507"></trkpt>
      <trkpt lat="49.47293" lon="20.51616"></trkpt>
      <trkpt lat="49.47279" lon="20.51827"></trkpt>
      <trkpt lat="49.47277" lon="20.51877"></trkpt>
      <trkpt lat="49.47302" lon="20.52039"></trkpt>
      <trkpt lat="49.47258" lon="20.52196"></trkpt>
      <trkpt lat="49.47246" lon="20.52275"></trkpt>
      <trkpt lat="49.47212" lon="20.52383"></trkpt>
      <trkpt lat="49.4719" lon="20.52623"></trkpt>
      <trkpt lat="49.47194" lon="20.52659"></trkpt>
      <trkpt lat="49.47237" lon="20.52782"></trkpt>
      <trkpt lat="49.4725" lon="20.52886"></trkpt>
      <trkpt lat="49.47257" lon="20.53014"></trkpt>
      <trkpt lat="49.47236" lon="20.53254"></trkpt>
      <trkpt lat="49.47275" lon="20.53389"></trkpt>
      <trkpt lat="49.47291" lon="20.53548"></trkpt>
      <trkpt lat="49.47256" lon="20.54068"></trkpt>
      <trkpt lat="49.47205" lon="20.54239"></trkpt>
      <trkpt lat="49.47179" lon="20.54276"></trkpt>
      <trkpt lat="49.47027" lon="20.54431"></trkpt>
      <trkpt lat="49.46934" lon="20.54487"></trkpt>
      <trkpt lat="49.46929" lon="20.54517"></trkpt>
      <trkpt lat="49.46994" lon="20.54667"></trkpt>
      <trkpt lat="49.46989" lon="20.54768"></trkpt>
      <trkpt lat="49.4696" lon="20.5493"></trkpt>
      <trkpt lat="49.46843" lon="20.55175"></trkpt>
      <trkpt lat="49.4668" lon="20.55369"></trkpt>
      <trkpt lat="49.46667" lon="20.55455"></trkpt>
      <trkpt lat="49.46671" lon="20.55568"></trkpt>
      <trkpt lat="49.46681" lon="20.55541"></trkpt>
      <trkpt lat="49.46636" lon="20.55668"></trkpt>
      <trkpt lat="49.46633" lon="20.55724"></trkpt>
      <trkpt lat="49.46614" lon="20.558"></trkpt>
      <trkpt lat="49.46597" lon="20.55834"></trkpt>
      <trkpt lat="49.46489" lon="20.55969"></trkpt>
      <trkpt lat="49.46511" lon="20.56008"></trkpt>
      <trkpt lat="49.46616" lon="20.56314"></trkpt>
      <trkpt lat="49.46637" lon="20.56553"></trkpt>
      <trkpt lat="49.4666" lon="20.56643"></trkpt>
      <trkpt lat="49.46686" lon="20.56694"></trkpt>
      <trkpt lat="49.46682" lon="20.56833"></trkpt>
      <trkpt lat="49.46663" lon="20.5694"></trkpt>
      <trkpt lat="49.46618" lon="20.57033"></trkpt>
      <trkpt lat="49.46593" lon="20.57132"></trkpt>
      <trkpt lat="49.46565" lon="20.57167"></trkpt>
      <trkpt lat="49.46552" lon="20.57208"></trkpt>
      <trkpt lat="49.46601" lon="20.57452"></trkpt>
      <trkpt lat="49.4659" lon="20.57539"></trkpt>
      <trkpt lat="49.46544" lon="20.57676"></trkpt>
      <trkpt lat="49.46496" lon="20.57734"></trkpt>
      <trkpt lat="49.46419" lon="20.57738"></trkpt>
      <trkpt lat="49.46349" lon="20.5776"></trkpt>
      <trkpt lat="49.46231" lon="20.57764"></trkpt>
      <trkpt lat="49.46164" lon="20.578"></trkpt>
      <trkpt lat="49.4614" lon="20.57826"></trkpt>
      <trkpt lat="49.4595" lon="20.57756"></trkpt>
      <trkpt lat="49.45928" lon="20.5776"></trkpt>
      <trkpt lat="49.45904" lon="20.57777"></trkpt>
      <trkpt lat="49.4588" lon="20.5782"></trkpt>
      <trkpt lat="49.45794" lon="20.57903"></trkpt>
      <trkpt lat="49.45701" lon="20.57963"></trkpt>
      <trkpt lat="49.45642" lon="20.58035"></trkpt>
      <trkpt lat="49.45578" lon="20.58092"></trkpt>
      <trkpt lat="49.45491" lon="20.58101"></trkpt>
      <trkpt lat="49.45398" lon="20.58179"></trkpt>
      <trkpt lat="49.45342" lon="20.58366"></trkpt>
      <trkpt lat="49.45326" lon="20.58488"></trkpt>
      <trkpt lat="49.45329" lon="20.58581"></trkpt>
      <trkpt lat="49.45294" lon="20.58749"></trkpt>
      <trkpt lat="49.45316" lon="20.58935"></trkpt>
      <trkpt lat="49.45306" lon="20.59169"></trkpt>
      <trkpt lat="49.45323" lon="20.5927"></trkpt>
      <trkpt lat="49.45304" lon="20.59368"></trkpt>
      <trkpt lat="49.45286" lon="20.59438"></trkpt>
      <trkpt lat="49.45231" lon="20.59526"></trkpt>
      <trkpt lat="49.45205" lon="20.59643"></trkpt>
      <trkpt lat="49.45161" lon="20.59757"></trkpt>
      <trkpt lat="49.45092" lon="20.59876"></trkpt>
      <trkpt lat="49.45081" lon="20.59966"></trkpt>
      <trkpt lat="49.45024" lon="20.60165"></trkpt>
      <trkpt lat="49.4497" lon="20.60328"></trkpt>
      <trkpt lat="49.44906" lon="20.60469"></trkpt>
      <trkpt lat="49.44877" lon="20.60577"></trkpt>
      <trkpt lat="49.44828" lon="20.60673"></trkpt>
      <trkpt lat="49.44793" lon="20.60684"></trkpt>
      <trkpt lat="49.44695" lon="20.60619"></trkpt>
      <trkpt lat="49.44587" lon="20.60584"></trkpt>
      <trkpt lat="49.445" lon="20.60541"></trkpt>
      <trkpt lat="49.44429" lon="20.60538"></trkpt>
      <trkpt lat="49.44333" lon="20.60558"></trkpt>
      <trkpt lat="49.44297" lon="20.60585"></trkpt>
      <trkpt lat="49.44267" lon="20.60639"></trkpt>
      <trkpt lat="49.4421" lon="20.60704"></trkpt>
      <trkpt lat="49.44189" lon="20.6076"></trkpt>
      <trkpt lat="49.44155" lon="20.60795"></trkpt>
      <trkpt lat="49.44024" lon="20.60823"></trkpt>
      <trkpt lat="49.43908" lon="20.60983"></trkpt>
      <trkpt lat="49.43813" lon="20.61059"></trkpt>
      <trkpt lat="49.4382" lon="20.6106"></trkpt>
      <trkpt lat="49.43743" lon="20.61009"></trkpt>
      <trkpt lat="49.43698" lon="20.60937"></trkpt>
      <trkpt lat="49.43634" lon="20.60867"></trkpt>
      <trkpt lat="49.43535" lon="20.60839"></trkpt>
      <trkpt lat="49.43469" lon="20.60787"></trkpt>
      <trkpt lat="49.43456" lon="20.60753"></trkpt>
      <trkpt lat="49.43461" lon="20.60701"></trkpt>
      <trkpt lat="49.43446" lon="20.60636"></trkpt>
      <trkpt lat="49.43396" lon="20.60582"></trkpt>
      <trkpt lat="49.43358" lon="20.60504"></trkpt>
      <trkpt lat="49.43191" lon="20.60529"></trkpt>
      <trkpt lat="49.43174" lon="20.6051"></trkpt>
      <trkpt lat="49.43126" lon="20.60517"></trkpt>
      <trkpt lat="49.43037" lon="20.60489"></trkpt>
      <trkpt lat="49.42824" lon="20.60476"></trkpt>
      <trkpt lat="49.42712" lon="20.60556"></trkpt>
      <trkpt lat="49.42677" lon="20.60645"></trkpt>
      <trkpt lat="49.42611" lon="20.60641"></trkpt>
      <trkpt lat="49.42581" lon="20.60786"></trkpt>
      <trkpt lat="49.42547" lon="20.60852"></trkpt>
      <trkpt lat="49.42531" lon="20.60919"></trkpt>
      <trkpt lat="49.42494" lon="20.60995"></trkpt>
      <trkpt lat="49.42422" lon="20.61096"></trkpt>
      <trkpt lat="49.42326" lon="20.61189"></trkpt>
      <trkpt lat="49.42253" lon="20.61303"></trkpt>
      <trkpt lat="49.42196" lon="20.6142"></trkpt>
      <trkpt lat="49.4209" lon="20.61588"></trkpt>
      <trkpt lat="49.42058" lon="20.61619"></trkpt>
      <trkpt lat="49.42028" lon="20.61689"></trkpt>
      <trkpt lat="49.41974" lon="20.6163"></trkpt>
      <trkpt lat="49.41954" lon="20.61583"></trkpt>
      <trkpt lat="49.419" lon="20.61507"></trkpt>
      <trkpt lat="49.41821" lon="20.61484"></trkpt>
      <trkpt lat="49.41736" lon="20.61431"></trkpt>
      <trkpt lat="49.41665" lon="20.6136"></trkpt>
      <trkpt lat="49.41614" lon="20.61284"></trkpt>
      <trkpt lat="49.41438" lon="20.61163"></trkpt>
      <trkpt lat="49.41347" lon="20.61125"></trkpt>
      <trkpt lat="49.41211" lon="20.61124"></trkpt>
      <trkpt lat="49.41158" lon="20.61165"></trkpt>
      <trkpt lat="49.41002" lon="20.6121"></trkpt>
      <trkpt lat="49.40877" lon="20.61156"></trkpt>
      <trkpt lat="49.40744" lon="20.61147"></trkpt>
      <trkpt lat="49.40718" lon="20.61177"></trkpt>
      <trkpt lat="49.40676" lon="20.61199"></trkpt>
      <trkpt lat="49.40549" lon="20.61219"></trkpt>
      <trkpt lat="49.40473" lon="20.6129"></trkpt>
      <trkpt lat="49.40426" lon="20.61316"></trkpt>
      <trkpt lat="49.40359" lon="20.61307"></trkpt>
      <trkpt lat="49.40277" lon="20.61318"></trkpt>
      <trkpt lat="49.40261" lon="20.61305"></trkpt>
      <trkpt lat="49.40256" lon="20.61285"></trkpt>
      <trkpt lat="49.4026" lon="20.61187"></trkpt>
      <trkpt lat="49.40244" lon="20.61069"></trkpt>
      <trkpt lat="49.40254" lon="20.60972"></trkpt>
      <trkpt lat="49.40248" lon="20.60939"></trkpt>
      <trkpt lat="49.40231" lon="20.60859"></trkpt>
      <trkpt lat="49.40185" lon="20.60769"></trkpt>
      <trkpt lat="49.4015" lon="20.60604"></trkpt>
      <trkpt lat="49.40136" lon="20.60588"></trkpt>
      <trkpt lat="49.39995" lon="20.6059"></trkpt>
      <trkpt lat="49.39949" lon="20.6054"></trkpt>
      <trkpt lat="49.39861" lon="20.60483"></trkpt>
      <trkpt lat="49.39795" lon="20.60367"></trkpt>
      <trkpt lat="49.39731" lon="20.6029"></trkpt>
      <trkpt lat="49.39641" lon="20.60231"></trkpt>
      <trkpt lat="49.39599" lon="20.60219"></trkpt>
      <trkpt lat="49.39499" lon="20.60113"></trkpt>
      <trkpt lat="49.39467" lon="20.60093"></trkpt>
      <trkpt lat="49.39398" lon="20.6009"></trkpt>
      <trkpt lat="49.39147" lon="20.60173"></trkpt>
      <trkpt lat="49.39118" lon="20.60168"></trkpt>
      <trkpt lat="49.39084" lon="20.60145"></trkpt>
      <trkpt lat="49.39042" lon="20.60146"></trkpt>
      <trkpt lat="49.38978" lon="20.60121"></trkpt>
      <trkpt lat="49.38923" lon="20.6009"></trkpt>
      <trkpt lat="49.3886" lon="20.60035"></trkpt>
      <trkpt lat="49.38809" lon="20.59971"></trkpt>
      <trkpt lat="49.38781" lon="20.59899"></trkpt>
      <trkpt lat="49.38725" lon="20.59805"></trkpt>
      <trkpt lat="49.38665" lon="20.59782"></trkpt>
      <trkpt lat="49.38646" lon="20.59761"></trkpt>
      <trkpt lat="49.38552" lon="20.59613"></trkpt>
      <trkpt lat="49.38529" lon="20.59552"></trkpt>
      <trkpt lat="49.38392" lon="20.59329"></trkpt>
      <trkpt lat="49.38412" lon="20.59174"></trkpt>
      <trkpt lat="49.38561" lon="20.58667"></trkpt>
      <trkpt lat="49.38553" lon="20.5856"></trkpt>
      <trkpt lat="49.38541" lon="20.5852"></trkpt>
      <trkpt lat="49.38516" lon="20.58478"></trkpt>
      <trkpt lat="49.38409" lon="20.58188"></trkpt>
      <trkpt lat="49.38292" lon="20.57998"></trkpt>
      <trkpt lat="49.38179" lon="20.57964"></trkpt>
      <trkpt lat="49.38051" lon="20.57819"></trkpt>
      <trkpt lat="49.37896" lon="20.57693"></trkpt>
      <trkpt lat="49.37806" lon="20.57666"></trkpt>
      <trkpt lat="49.37742" lon="20.57632"></trkpt>
      <trkpt lat="49.37698" lon="20.57553"></trkpt>
      <trkpt lat="49.37684" lon="20.57474"></trkpt>
      <trkpt lat="49.37689" lon="20.57374"></trkpt>
      <trkpt lat="49.37707" lon="20.57302"></trkpt>
      <trkpt lat="49.37743" lon="20.57243"></trkpt>
      <trkpt lat="49.37781" lon="20.57036"></trkpt>
      <trkpt lat="49.37799" lon="20.56972"></trkpt>
      <trkpt lat="49.37857" lon="20.56874"></trkpt>
      <trkpt lat="49.37898" lon="20.56731"></trkpt>
      <trkpt lat="49.37902" lon="20.56608"></trkpt>
      <trkpt lat="49.37945" lon="20.56313"></trkpt>
      <trkpt lat="49.37937" lon="20.56244"></trkpt>
      <trkpt lat="49.37917" lon="20.56204"></trkpt>
      <trkpt lat="49.37913" lon="20.56172"></trkpt>
      <trkpt lat="49.37915" lon="20.56107"></trkpt>
      <trkpt lat="49.37891" lon="20.55915"></trkpt>
      <trkpt lat="49.37896" lon="20.55876"></trkpt>
      <trkpt lat="49.37919" lon="20.55816"></trkpt>
      <trkpt lat="49.37974" lon="20.5575"></trkpt>
      <trkpt lat="49.38094" lon="20.55724"></trkpt>
      <trkpt lat="49.38136" lon="20.55692"></trkpt>
      <trkpt lat="49.38212" lon="20.55601"></trkpt>
      <trkpt lat="49.38241" lon="20.55512"></trkpt>
      <trkpt lat="49.38255" lon="20.55424"></trkpt>
      <trkpt lat="49.38205" lon="20.55354"></trkpt>
      <trkpt lat="49.38199" lon="20.55278"></trkpt>
      <trkpt lat="49.38186" lon="20.55239"></trkpt>
      <trkpt lat="49.38148" lon="20.55282"></trkpt>
      <trkpt lat="49.38125" lon="20.55346"></trkpt>
      <trkpt lat="49.38092" lon="20.55395"></trkpt>
      <trkpt lat="49.38103" lon="20.55441"></trkpt>
      <trkpt lat="49.38101" lon="20.55467"></trkpt>
      <trkpt lat="49.38037" lon="20.55545"></trkpt>
      <trkpt lat="49.38101" lon="20.55467"></trkpt>
      <trkpt lat="49.38103" lon="20.55441"></trkpt>
      <trkpt lat="49.38092" lon="20.55395"></trkpt>
      <trkpt lat="49.38125" lon="20.55346"></trkpt>
      <trkpt lat="49.38148" lon="20.55282"></trkpt>
      <trkpt lat="49.38186" lon="20.55239"></trkpt>
      <trkpt lat="49.38232" lon="20.55159"></trkpt>
      <trkpt lat="49.38271" lon="20.5513"></trkpt>
      <trkpt lat="49.38294" lon="20.55125"></trkpt>
      <trkpt lat="49.38314" lon="20.55071"></trkpt>
      <trkpt lat="49.38398" lon="20.54924"></trkpt>
      <trkpt lat="49.38434" lon="20.54809"></trkpt>
      <trkpt lat="49.38464" lon="20.54752"></trkpt>
      <trkpt lat="49.38556" lon="20.54648"></trkpt>
      <trkpt lat="49.38558" lon="20.54485"></trkpt>
      <trkpt lat="49.38576" lon="20.5434"></trkpt>
      <trkpt lat="49.38651" lon="20.54046"></trkpt>
      <trkpt lat="49.38706" lon="20.5378"></trkpt>
      <trkpt lat="49.3871" lon="20.53735"></trkpt>
      <trkpt lat="49.38689" lon="20.5359"></trkpt>
      <trkpt lat="49.38706" lon="20.53466"></trkpt>
      <trkpt lat="49.38757" lon="20.53322"></trkpt>
      <trkpt lat="49.38893" lon="20.53005"></trkpt>
      <trkpt lat="49.38979" lon="20.52685"></trkpt>
      <trkpt lat="49.39014" lon="20.52593"></trkpt>
      <trkpt lat="49.39068" lon="20.52403"></trkpt>
      <trkpt lat="49.3921" lon="20.52151"></trkpt>
      <trkpt lat="49.39244" lon="20.52055"></trkpt>
      <trkpt lat="49.39264" lon="20.51978"></trkpt>
      <trkpt lat="49.39263" lon="20.51875"></trkpt>
      <trkpt lat="49.39249" lon="20.51754"></trkpt>
      <trkpt lat="49.39255" lon="20.51703"></trkpt>
      <trkpt lat="49.39274" lon="20.5157"></trkpt>
      <trkpt lat="49.39307" lon="20.51488"></trkpt>
      <trkpt lat="49.39334" lon="20.51323"></trkpt>
      <trkpt lat="49.39331" lon="20.51359"></trkpt>
      <trkpt lat="49.39442" lon="20.51312"></trkpt>
      <trkpt lat="49.39531" lon="20.51256"></trkpt>
      <trkpt lat="49.39652" lon="20.51252"></trkpt>
      <trkpt lat="49.39964" lon="20.51116"></trkpt>
      <trkpt lat="49.40081" lon="20.50941"></trkpt>
      <trkpt lat="49.40152" lon="20.508"></trkpt>
      <trkpt lat="49.40176" lon="20.50726"></trkpt>
      <trkpt lat="49.40234" lon="20.50632"></trkpt>
      <trkpt lat="49.40271" lon="20.50574"></trkpt>
      <trkpt lat="49.40327" lon="20.50521"></trkpt>
      <trkpt lat="49.4034" lon="20.50493"></trkpt>
      <trkpt lat="49.4036" lon="20.50485"></trkpt>
      <trkpt lat="49.40407" lon="20.50329"></trkpt>
      <trkpt lat="49.40434" lon="20.50091"></trkpt>
      <trkpt lat="49.40523" lon="20.49761"></trkpt>
      <trkpt lat="49.40546" lon="20.49707"></trkpt>
      <trkpt lat="49.4056" lon="20.49574"></trkpt>
      <trkpt lat="49.40578" lon="20.49503"></trkpt>
      <trkpt lat="49.40647" lon="20.49393"></trkpt>
      <trkpt lat="49.40672" lon="20.49327"></trkpt>
      <trkpt lat="49.40688" lon="20.49195"></trkpt>
      <trkpt lat="49.40674" lon="20.49084"></trkpt>
      <trkpt lat="49.40698" lon="20.49001"></trkpt>
      <trkpt lat="49.40714" lon="20.48986"></trkpt>
      <trkpt lat="49.40742" lon="20.48924"></trkpt>
      <trkpt lat="49.40841" lon="20.48862"></trkpt>
      <trkpt lat="49.40855" lon="20.48734"></trkpt>
      <trkpt lat="49.40906" lon="20.48563"></trkpt>
      <trkpt lat="49.40958" lon="20.48435"></trkpt>
      <trkpt lat="49.40963" lon="20.48312"></trkpt>
      <trkpt lat="49.40978" lon="20.48242"></trkpt>
      <trkpt lat="49.41011" lon="20.48145"></trkpt>
      <trkpt lat="49.41047" lon="20.48098"></trkpt>
      <trkpt lat="49.41078" lon="20.47992"></trkpt>
      <trkpt lat="49.41121" lon="20.47939"></trkpt>
      <trkpt lat="49.41142" lon="20.47875"></trkpt>
      <trkpt lat="49.41251" lon="20.47732"></trkpt>
      <trkpt lat="49.41318" lon="20.47703"></trkpt>
      <trkpt lat="49.41408" lon="20.47623"></trkpt>
      <trkpt lat="49.41495" lon="20.47329"></trkpt>
      <trkpt lat="49.41541" lon="20.47211"></trkpt>
      <trkpt lat="49.41554" lon="20.47139"></trkpt>
      <trkpt lat="49.41577" lon="20.47076"></trkpt>
      <trkpt lat="49.41549" lon="20.47004"></trkpt>
      <trkpt lat="49.41548" lon="20.46972"></trkpt>
      <trkpt lat="49.4157" lon="20.4689"></trkpt>
      <trkpt lat="49.41608" lon="20.46629"></trkpt>
      <trkpt lat="49.41607" lon="20.46426"></trkpt>
      <trkpt lat="49.41603" lon="20.46441"></trkpt>
      <trkpt lat="49.41595" lon="20.46382"></trkpt>
      <trkpt lat="49.41572" lon="20.46336"></trkpt>
      <trkpt lat="49.41573" lon="20.46278"></trkpt>
      <trkpt lat="49.41594" lon="20.46248"></trkpt>
      <trkpt lat="49.41606" lon="20.46197"></trkpt>
      <trkpt lat="49.4163" lon="20.46149"></trkpt>
      <trkpt lat="49.41655" lon="20.46152"></trkpt>
      <trkpt lat="49.4167" lon="20.46127"></trkpt>
      <trkpt lat="49.41671" lon="20.46073"></trkpt>
      <trkpt lat="49.41729" lon="20.45988"></trkpt>
      <trkpt lat="49.41778" lon="20.4588"></trkpt>
      <trkpt lat="49.41808" lon="20.45771"></trkpt>
      <trkpt lat="49.41822" lon="20.45776"></trkpt>
      <trkpt lat="49.4186" lon="20.45752"></trkpt>
      <trkpt lat="49.41879" lon="20.4576"></trkpt>
      <trkpt lat="49.41879" lon="20.45736"></trkpt>
      <trkpt lat="49.41891" lon="20.45724"></trkpt>
      <trkpt lat="49.41971" lon="20.45793"></trkpt>
    </trkseg>
  </trk>
</gpx>
