<?xml version="1.0" encoding="UTF-8"?>
<gpx version="1.1" creator="szlakipienin.pl" xmlns="http://www.topografix.com/GPX/1/1">
  <metadata>
    <name>Szmaragd Dunajca</name>
    <desc>29.1 km, 530 min, 935 m podejść. Opis trasy: https://szlakipienin.pl/szlaki/szmaragd-dunajca</desc>
    <link href="https://szlakipienin.pl/szlaki/szmaragd-dunajca"><text>Szmaragd Dunajca</text></link>
  </metadata>
  <trk>
    <name>Szmaragd Dunajca</name>
    <trkseg>
      <trkpt lat="49.40598" lon="20.5475"></trkpt>
      <trkpt lat="49.40565" lon="20.54723"></trkpt>
      <trkpt lat="49.40518" lon="20.54779"></trkpt>
      <trkpt lat="49.40476" lon="20.54804"></trkpt>
      <trkpt lat="49.40425" lon="20.54791"></trkpt>
      <trkpt lat="49.40402" lon="20.54806"></trkpt>
      <trkpt lat="49.40386" lon="20.54796"></trkpt>
      <trkpt lat="49.40362" lon="20.54815"></trkpt>
      <trkpt lat="49.40312" lon="20.54804"></trkpt>
      <trkpt lat="49.40249" lon="20.54895"></trkpt>
      <trkpt lat="49.40208" lon="20.54891"></trkpt>
      <trkpt lat="49.40169" lon="20.54906"></trkpt>
      <trkpt lat="49.4015" lon="20.54925"></trkpt>
      <trkpt lat="49.40122" lon="20.5498"></trkpt>
      <trkpt lat="49.40067" lon="20.5503"></trkpt>
      <trkpt lat="49.39884" lon="20.55066"></trkpt>
      <trkpt lat="49.39818" lon="20.55174"></trkpt>
      <trkpt lat="49.39808" lon="20.55224"></trkpt>
      <trkpt lat="49.39733" lon="20.55275"></trkpt>
      <trkpt lat="49.39708" lon="20.55314"></trkpt>
      <trkpt lat="49.39676" lon="20.55326"></trkpt>
      <trkpt lat="49.39676" lon="20.55367"></trkpt>
      <trkpt lat="49.39687" lon="20.55398"></trkpt>
      <trkpt lat="49.39536" lon="20.5551"></trkpt>
      <trkpt lat="49.39372" lon="20.55546"></trkpt>
      <trkpt lat="49.39289" lon="20.55513"></trkpt>
      <trkpt lat="49.3926" lon="20.55477"></trkpt>
      <trkpt lat="49.39207" lon="20.55497"></trkpt>
      <trkpt lat="49.3916" lon="20.55472"></trkpt>
      <trkpt lat="49.3911" lon="20.55488"></trkpt>
      <trkpt lat="49.39093" lon="20.55478"></trkpt>
      <trkpt lat="49.39093" lon="20.55453"></trkpt>
      <trkpt lat="49.39147" lon="20.55421"></trkpt>
      <trkpt lat="49.39168" lon="20.55373"></trkpt>
      <trkpt lat="49.39228" lon="20.55311"></trkpt>
      <trkpt lat="49.39248" lon="20.55262"></trkpt>
      <trkpt lat="49.39287" lon="20.5522"></trkpt>
      <trkpt lat="49.39293" lon="20.55192"></trkpt>
      <trkpt lat="49.3927" lon="20.55176"></trkpt>
      <trkpt lat="49.39142" lon="20.55158"></trkpt>
      <trkpt lat="49.39067" lon="20.55164"></trkpt>
      <trkpt lat="49.39024" lon="20.5509"></trkpt>
      <trkpt lat="49.38951" lon="20.55037"></trkpt>
      <trkpt lat="49.38875" lon="20.5495"></trkpt>
      <trkpt lat="49.38875" lon="20.54933"></trkpt>
      <trkpt lat="49.38933" lon="20.54826"></trkpt>
      <trkpt lat="49.38927" lon="20.54803"></trkpt>
      <trkpt lat="49.38843" lon="20.5474"></trkpt>
      <trkpt lat="49.38706" lon="20.54921"></trkpt>
      <trkpt lat="49.38729" lon="20.54817"></trkpt>
      <trkpt lat="49.38781" lon="20.5446"></trkpt>
      <trkpt lat="49.38794" lon="20.54319"></trkpt>
      <trkpt lat="49.38791" lon="20.54048"></trkpt>
      <trkpt lat="49.3883" lon="20.5388"></trkpt>
      <trkpt lat="49.38882" lon="20.53781"></trkpt>
      <trkpt lat="49.38963" lon="20.53663"></trkpt>
      <trkpt lat="49.39041" lon="20.53626"></trkpt>
      <trkpt lat="49.38902" lon="20.53696"></trkpt>
      <trkpt lat="49.38701" lon="20.53676"></trkpt>
      <trkpt lat="49.38689" lon="20.5359"></trkpt>
      <trkpt lat="49.38694" lon="20.53527"></trkpt>
      <trkpt lat="49.38706" lon="20.53466"></trkpt>
      <trkpt lat="49.38757" lon="20.53322"></trkpt>
      <trkpt lat="49.38893" lon="20.53005"></trkpt>
      <trkpt lat="49.38979" lon="20.52685"></trkpt>
      <trkpt lat="49.39014" lon="20.52593"></trkpt>
      <trkpt lat="49.39068" lon="20.52403"></trkpt>
      <trkpt lat="49.3921" lon="20.52151"></trkpt>
      <trkpt lat="49.39244" lon="20.52055"></trkpt>
      <trkpt lat="49.39264" lon="20.51978"></trkpt>
      <trkpt lat="49.39263" lon="20.51875"></trkpt>
      <trkpt lat="49.39249" lon="20.51754"></trkpt>
      <trkpt lat="49.39255" lon="20.51703"></trkpt>
      <trkpt lat="49.39274" lon="20.5157"></trkpt>
      <trkpt lat="49.39307" lon="20.51487"></trkpt>
      <trkpt lat="49.39333" lon="20.51338"></trkpt>
      <trkpt lat="49.39336" lon="20.51067"></trkpt>
      <trkpt lat="49.39276" lon="20.50927"></trkpt>
      <trkpt lat="49.39259" lon="20.50933"></trkpt>
      <trkpt lat="49.39211" lon="20.51004"></trkpt>
      <trkpt lat="49.39143" lon="20.51044"></trkpt>
      <trkpt lat="49.39124" lon="20.51026"></trkpt>
      <trkpt lat="49.39089" lon="20.50953"></trkpt>
      <trkpt lat="49.39046" lon="20.50901"></trkpt>
      <trkpt lat="49.3898" lon="20.50857"></trkpt>
      <trkpt lat="49.3894" lon="20.50849"></trkpt>
      <trkpt lat="49.38786" lon="20.50732"></trkpt>
      <trkpt lat="49.3875" lon="20.50714"></trkpt>
      <trkpt lat="49.38517" lon="20.50692"></trkpt>
      <trkpt lat="49.38375" lon="20.50639"></trkpt>
      <trkpt lat="49.38346" lon="20.50602"></trkpt>
      <trkpt lat="49.38229" lon="20.50357"></trkpt>
      <trkpt lat="49.38185" lon="20.50255"></trkpt>
      <trkpt lat="49.38167" lon="20.50182"></trkpt>
      <trkpt lat="49.38175" lon="20.49923"></trkpt>
      <trkpt lat="49.38234" lon="20.49796"></trkpt>
      <trkpt lat="49.38281" lon="20.49563"></trkpt>
      <trkpt lat="49.38276" lon="20.49517"></trkpt>
      <trkpt lat="49.38285" lon="20.4944"></trkpt>
      <trkpt lat="49.38276" lon="20.49403"></trkpt>
      <trkpt lat="49.38281" lon="20.49383"></trkpt>
      <trkpt lat="49.38267" lon="20.49362"></trkpt>
      <trkpt lat="49.38281" lon="20.49279"></trkpt>
      <trkpt lat="49.38275" lon="20.49202"></trkpt>
      <trkpt lat="49.38286" lon="20.49103"></trkpt>
      <trkpt lat="49.38308" lon="20.49016"></trkpt>
      <trkpt lat="49.38367" lon="20.48531"></trkpt>
      <trkpt lat="49.3849" lon="20.48123"></trkpt>
      <trkpt lat="49.38511" lon="20.48003"></trkpt>
      <trkpt lat="49.38522" lon="20.47762"></trkpt>
      <trkpt lat="49.38482" lon="20.47543"></trkpt>
      <trkpt lat="49.38434" lon="20.47412"></trkpt>
      <trkpt lat="49.3844" lon="20.47216"></trkpt>
      <trkpt lat="49.38444" lon="20.47201"></trkpt>
      <trkpt lat="49.38497" lon="20.47149"></trkpt>
      <trkpt lat="49.38513" lon="20.4708"></trkpt>
      <trkpt lat="49.38541" lon="20.47017"></trkpt>
      <trkpt lat="49.38626" lon="20.46995"></trkpt>
      <trkpt lat="49.38665" lon="20.46916"></trkpt>
      <trkpt lat="49.38679" lon="20.46865"></trkpt>
      <trkpt lat="49.38671" lon="20.4676"></trkpt>
      <trkpt lat="49.38677" lon="20.46714"></trkpt>
      <trkpt lat="49.38629" lon="20.46428"></trkpt>
      <trkpt lat="49.3863" lon="20.46337"></trkpt>
      <trkpt lat="49.38642" lon="20.46258"></trkpt>
      <trkpt lat="49.38631" lon="20.4622"></trkpt>
      <trkpt lat="49.38621" lon="20.45994"></trkpt>
      <trkpt lat="49.38638" lon="20.45929"></trkpt>
      <trkpt lat="49.38631" lon="20.45741"></trkpt>
      <trkpt lat="49.3866" lon="20.45599"></trkpt>
      <trkpt lat="49.38666" lon="20.45504"></trkpt>
      <trkpt lat="49.38688" lon="20.45392"></trkpt>
      <trkpt lat="49.38725" lon="20.45226"></trkpt>
      <trkpt lat="49.3877" lon="20.45076"></trkpt>
      <trkpt lat="49.38796" lon="20.45078"></trkpt>
      <trkpt lat="49.38849" lon="20.45125"></trkpt>
      <trkpt lat="49.38867" lon="20.45154"></trkpt>
      <trkpt lat="49.38971" lon="20.45159"></trkpt>
      <trkpt lat="49.39064" lon="20.45091"></trkpt>
      <trkpt lat="49.39105" lon="20.45008"></trkpt>
      <trkpt lat="49.39186" lon="20.44909"></trkpt>
      <trkpt lat="49.39112" lon="20.44807"></trkpt>
      <trkpt lat="49.39074" lon="20.44788"></trkpt>
      <trkpt lat="49.39041" lon="20.44789"></trkpt>
      <trkpt lat="49.39017" lon="20.44761"></trkpt>
      <trkpt lat="49.39013" lon="20.44723"></trkpt>
      <trkpt lat="49.3902" lon="20.44631"></trkpt>
      <trkpt lat="49.39001" lon="20.44397"></trkpt>
      <trkpt lat="49.39005" lon="20.44292"></trkpt>
      <trkpt lat="49.38972" lon="20.44099"></trkpt>
      <trkpt lat="49.38938" lon="20.44001"></trkpt>
      <trkpt lat="49.38908" lon="20.4382"></trkpt>
      <trkpt lat="49.38959" lon="20.43761"></trkpt>
      <trkpt lat="49.3902" lon="20.43754"></trkpt>
      <trkpt lat="49.39039" lon="20.43722"></trkpt>
      <trkpt lat="49.39039" lon="20.43668"></trkpt>
      <trkpt lat="49.38971" lon="20.43464"></trkpt>
      <trkpt lat="49.39" lon="20.434"></trkpt>
      <trkpt lat="49.39027" lon="20.4337"></trkpt>
      <trkpt lat="49.39027" lon="20.4335"></trkpt>
      <trkpt lat="49.39004" lon="20.4331"></trkpt>
      <trkpt lat="49.39079" lon="20.43207"></trkpt>
      <trkpt lat="49.39155" lon="20.43143"></trkpt>
      <trkpt lat="49.39169" lon="20.43106"></trkpt>
      <trkpt lat="49.39172" lon="20.42984"></trkpt>
      <trkpt lat="49.39189" lon="20.42844"></trkpt>
      <trkpt lat="49.39181" lon="20.42829"></trkpt>
      <trkpt lat="49.3919" lon="20.42794"></trkpt>
      <trkpt lat="49.39175" lon="20.42779"></trkpt>
      <trkpt lat="49.39198" lon="20.42623"></trkpt>
      <trkpt lat="49.39191" lon="20.42577"></trkpt>
      <trkpt lat="49.39209" lon="20.42523"></trkpt>
      <trkpt lat="49.39222" lon="20.4239"></trkpt>
      <trkpt lat="49.39265" lon="20.42309"></trkpt>
      <trkpt lat="49.39325" lon="20.42267"></trkpt>
      <trkpt lat="49.39445" lon="20.42123"></trkpt>
      <trkpt lat="49.39481" lon="20.42043"></trkpt>
      <trkpt lat="49.39493" lon="20.41991"></trkpt>
      <trkpt lat="49.39562" lon="20.41884"></trkpt>
      <trkpt lat="49.39589" lon="20.41858"></trkpt>
      <trkpt lat="49.39587" lon="20.41844"></trkpt>
      <trkpt lat="49.39759" lon="20.41771"></trkpt>
      <trkpt lat="49.39861" lon="20.4165"></trkpt>
      <trkpt lat="49.39901" lon="20.41579"></trkpt>
      <trkpt lat="49.39984" lon="20.41657"></trkpt>
      <trkpt lat="49.40024" lon="20.41626"></trkpt>
      <trkpt lat="49.40048" lon="20.41626"></trkpt>
      <trkpt lat="49.40092" lon="20.41662"></trkpt>
      <trkpt lat="49.40185" lon="20.41687"></trkpt>
      <trkpt lat="49.40246" lon="20.41685"></trkpt>
      <trkpt lat="49.4034" lon="20.41643"></trkpt>
      <trkpt lat="49.40469" lon="20.41644"></trkpt>
      <trkpt lat="49.4052" lon="20.41672"></trkpt>
      <trkpt lat="49.40533" lon="20.41689"></trkpt>
      <trkpt lat="49.40544" lon="20.4173"></trkpt>
      <trkpt lat="49.4054" lon="20.41909"></trkpt>
      <trkpt lat="49.40526" lon="20.41986"></trkpt>
      <trkpt lat="49.40508" lon="20.42037"></trkpt>
      <trkpt lat="49.4044" lon="20.42151"></trkpt>
      <trkpt lat="49.40311" lon="20.42429"></trkpt>
      <trkpt lat="49.40253" lon="20.42623"></trkpt>
      <trkpt lat="49.4021" lon="20.42727"></trkpt>
      <trkpt lat="49.40186" lon="20.42756"></trkpt>
      <trkpt lat="49.39872" lon="20.42895"></trkpt>
      <trkpt lat="49.398" lon="20.42914"></trkpt>
      <trkpt lat="49.39638" lon="20.42995"></trkpt>
      <trkpt lat="49.39595" lon="20.43035"></trkpt>
      <trkpt lat="49.39561" lon="20.43088"></trkpt>
      <trkpt lat="49.39555" lon="20.43178"></trkpt>
      <trkpt lat="49.39639" lon="20.4337"></trkpt>
      <trkpt lat="49.39676" lon="20.43418"></trkpt>
      <trkpt lat="49.39749" lon="20.43471"></trkpt>
      <trkpt lat="49.39886" lon="20.43555"></trkpt>
      <trkpt lat="49.39932" lon="20.4357"></trkpt>
      <trkpt lat="49.40048" lon="20.43561"></trkpt>
      <trkpt lat="49.40131" lon="20.43516"></trkpt>
      <trkpt lat="49.40215" lon="20.43515"></trkpt>
      <trkpt lat="49.40257" lon="20.43534"></trkpt>
      <trkpt lat="49.40401" lon="20.43651"></trkpt>
      <trkpt lat="49.4054" lon="20.43737"></trkpt>
      <trkpt lat="49.40575" lon="20.43749"></trkpt>
      <trkpt lat="49.40669" lon="20.43747"></trkpt>
      <trkpt lat="49.40718" lon="20.43716"></trkpt>
      <trkpt lat="49.40751" lon="20.43668"></trkpt>
      <trkpt lat="49.40815" lon="20.43517"></trkpt>
      <trkpt lat="49.40839" lon="20.43405"></trkpt>
      <trkpt lat="49.40848" lon="20.43329"></trkpt>
      <trkpt lat="49.40847" lon="20.43188"></trkpt>
      <trkpt lat="49.40806" lon="20.42987"></trkpt>
      <trkpt lat="49.40815" lon="20.42923"></trkpt>
      <trkpt lat="49.40837" lon="20.42918"></trkpt>
      <trkpt lat="49.40939" lon="20.42968"></trkpt>
      <trkpt lat="49.40989" lon="20.4298"></trkpt>
      <trkpt lat="49.41118" lon="20.42984"></trkpt>
      <trkpt lat="49.41215" lon="20.4295"></trkpt>
      <trkpt lat="49.41291" lon="20.42975"></trkpt>
      <trkpt lat="49.41431" lon="20.42995"></trkpt>
      <trkpt lat="49.41606" lon="20.43056"></trkpt>
      <trkpt lat="49.41643" lon="20.43101"></trkpt>
      <trkpt lat="49.41667" lon="20.43147"></trkpt>
      <trkpt lat="49.41705" lon="20.43227"></trkpt>
      <trkpt lat="49.41735" lon="20.43357"></trkpt>
      <trkpt lat="49.41747" lon="20.43458"></trkpt>
      <trkpt lat="49.41745" lon="20.4357"></trkpt>
      <trkpt lat="49.41737" lon="20.43624"></trkpt>
      <trkpt lat="49.41718" lon="20.43652"></trkpt>
      <trkpt lat="49.41552" lon="20.43704"></trkpt>
      <trkpt lat="49.41452" lon="20.43791"></trkpt>
      <trkpt lat="49.41425" lon="20.43875"></trkpt>
      <trkpt lat="49.41415" lon="20.44047"></trkpt>
      <trkpt lat="49.41372" lon="20.44248"></trkpt>
      <trkpt lat="49.41335" lon="20.44312"></trkpt>
      <trkpt lat="49.41231" lon="20.44428"></trkpt>
      <trkpt lat="49.412" lon="20.44496"></trkpt>
      <trkpt lat="49.41164" lon="20.4464"></trkpt>
      <trkpt lat="49.4117" lon="20.44864"></trkpt>
      <trkpt lat="49.41189" lon="20.4498"></trkpt>
      <trkpt lat="49.41185" lon="20.45028"></trkpt>
      <trkpt lat="49.41211" lon="20.45106"></trkpt>
      <trkpt lat="49.41259" lon="20.45162"></trkpt>
      <trkpt lat="49.41304" lon="20.45158"></trkpt>
      <trkpt lat="49.41346" lon="20.45078"></trkpt>
      <trkpt lat="49.41397" lon="20.45011"></trkpt>
      <trkpt lat="49.4145" lon="20.45059"></trkpt>
      <trkpt lat="49.41465" lon="20.45108"></trkpt>
      <trkpt lat="49.41466" lon="20.45153"></trkpt>
      <trkpt lat="49.41398" lon="20.45321"></trkpt>
      <trkpt lat="49.41338" lon="20.45405"></trkpt>
      <trkpt lat="49.41273" lon="20.45611"></trkpt>
      <trkpt lat="49.41277" lon="20.45649"></trkpt>
      <trkpt lat="49.41216" lon="20.45753"></trkpt>
      <trkpt lat="49.4122" lon="20.45762"></trkpt>
      <trkpt lat="49.4115" lon="20.45929"></trkpt>
      <trkpt lat="49.41098" lon="20.46031"></trkpt>
      <trkpt lat="49.41122" lon="20.46038"></trkpt>
      <trkpt lat="49.41128" lon="20.46128"></trkpt>
      <trkpt lat="49.41121" lon="20.46175"></trkpt>
      <trkpt lat="49.41092" lon="20.46265"></trkpt>
      <trkpt lat="49.41085" lon="20.46328"></trkpt>
      <trkpt lat="49.41061" lon="20.46391"></trkpt>
      <trkpt lat="49.41073" lon="20.46443"></trkpt>
      <trkpt lat="49.4108" lon="20.46607"></trkpt>
      <trkpt lat="49.41145" lon="20.46818"></trkpt>
      <trkpt lat="49.41196" lon="20.46908"></trkpt>
      <trkpt lat="49.41236" lon="20.46947"></trkpt>
      <trkpt lat="49.41305" lon="20.46926"></trkpt>
      <trkpt lat="49.41348" lon="20.46942"></trkpt>
      <trkpt lat="49.41353" lon="20.46897"></trkpt>
      <trkpt lat="49.41408" lon="20.46769"></trkpt>
      <trkpt lat="49.41497" lon="20.46609"></trkpt>
      <trkpt lat="49.4156" lon="20.46454"></trkpt>
      <trkpt lat="49.416" lon="20.46425"></trkpt>
      <trkpt lat="49.41607" lon="20.4646"></trkpt>
      <trkpt lat="49.41605" lon="20.46674"></trkpt>
      <trkpt lat="49.4157" lon="20.4689"></trkpt>
      <trkpt lat="49.41531" lon="20.47023"></trkpt>
      <trkpt lat="49.41521" lon="20.4717"></trkpt>
      <trkpt lat="49.41531" lon="20.47237"></trkpt>
      <trkpt lat="49.41495" lon="20.47329"></trkpt>
      <trkpt lat="49.41408" lon="20.47623"></trkpt>
      <trkpt lat="49.41359" lon="20.47674"></trkpt>
      <trkpt lat="49.41393" lon="20.47682"></trkpt>
      <trkpt lat="49.41409" lon="20.47668"></trkpt>
      <trkpt lat="49.41427" lon="20.47688"></trkpt>
      <trkpt lat="49.41638" lon="20.4769"></trkpt>
      <trkpt lat="49.41675" lon="20.47679"></trkpt>
      <trkpt lat="49.41719" lon="20.47631"></trkpt>
      <trkpt lat="49.4182" lon="20.47658"></trkpt>
      <trkpt lat="49.41886" lon="20.47631"></trkpt>
      <trkpt lat="49.41904" lon="20.47652"></trkpt>
      <trkpt lat="49.41903" lon="20.47684"></trkpt>
      <trkpt lat="49.41917" lon="20.47681"></trkpt>
      <trkpt lat="49.41937" lon="20.47708"></trkpt>
      <trkpt lat="49.41978" lon="20.47667"></trkpt>
      <trkpt lat="49.42047" lon="20.47675"></trkpt>
      <trkpt lat="49.4207" lon="20.47701"></trkpt>
      <trkpt lat="49.42127" lon="20.47865"></trkpt>
      <trkpt lat="49.42127" lon="20.47994"></trkpt>
      <trkpt lat="49.42206" lon="20.48038"></trkpt>
      <trkpt lat="49.42232" lon="20.48073"></trkpt>
      <trkpt lat="49.42236" lon="20.48131"></trkpt>
      <trkpt lat="49.42222" lon="20.48203"></trkpt>
      <trkpt lat="49.42232" lon="20.48228"></trkpt>
      <trkpt lat="49.42285" lon="20.48211"></trkpt>
      <trkpt lat="49.42359" lon="20.48146"></trkpt>
      <trkpt lat="49.42354" lon="20.48217"></trkpt>
      <trkpt lat="49.42385" lon="20.48249"></trkpt>
      <trkpt lat="49.42433" lon="20.48021"></trkpt>
      <trkpt lat="49.42503" lon="20.48059"></trkpt>
      <trkpt lat="49.4252" lon="20.48031"></trkpt>
      <trkpt lat="49.42531" lon="20.48032"></trkpt>
    </trkseg>
  </trk>
</gpx>
