<?xml version="1.0" encoding="UTF-8"?>
<gpx version="1.1" creator="szlakipienin.pl" xmlns="http://www.topografix.com/GPX/1/1">
  <metadata>
    <name>Trzy Korony ze Szczawnicy (przez przewóz i Sokolicę)</name>
    <desc>7.8 km, 209 min, 909 m podejść. Opis trasy: https://szlakipienin.pl/szlaki/trzy-korony-ze-szczawnicy-przez-przewoz-i-sokolice</desc>
    <link href="https://szlakipienin.pl/szlaki/trzy-korony-ze-szczawnicy-przez-przewoz-i-sokolice"><text>Trzy Korony ze Szczawnicy (przez przewóz i Sokolicę)</text></link>
  </metadata>
  <trk>
    <name>Trzy Korony ze Szczawnicy (przez przewóz i Sokolicę)</name>
    <trkseg>
      <trkpt lat="49.423" lon="20.45954"></trkpt>
      <trkpt lat="49.4176" lon="20.45254"></trkpt>
      <trkpt lat="49.4176" lon="20.45254"></trkpt>
      <trkpt lat="49.41775" lon="20.45222"></trkpt>
      <trkpt lat="49.41784" lon="20.45207"></trkpt>
      <trkpt lat="49.41775" lon="20.45184"></trkpt>
      <trkpt lat="49.41757" lon="20.45138"></trkpt>
      <trkpt lat="49.41759" lon="20.45133"></trkpt>
      <trkpt lat="49.41759" lon="20.45125"></trkpt>
      <trkpt lat="49.41755" lon="20.45109"></trkpt>
      <trkpt lat="49.41755" lon="20.45092"></trkpt>
      <trkpt lat="49.41759" lon="20.45073"></trkpt>
      <trkpt lat="49.41767" lon="20.45026"></trkpt>
      <trkpt lat="49.41769" lon="20.44997"></trkpt>
      <trkpt lat="49.4177" lon="20.4497"></trkpt>
      <trkpt lat="49.41776" lon="20.44943"></trkpt>
      <trkpt lat="49.41794" lon="20.44918"></trkpt>
      <trkpt lat="49.41808" lon="20.44912"></trkpt>
      <trkpt lat="49.41844" lon="20.44907"></trkpt>
      <trkpt lat="49.41857" lon="20.44895"></trkpt>
      <trkpt lat="49.41865" lon="20.44877"></trkpt>
      <trkpt lat="49.41872" lon="20.44849"></trkpt>
      <trkpt lat="49.41877" lon="20.44816"></trkpt>
      <trkpt lat="49.41893" lon="20.44779"></trkpt>
      <trkpt lat="49.41902" lon="20.4473"></trkpt>
      <trkpt lat="49.41907" lon="20.44703"></trkpt>
      <trkpt lat="49.41911" lon="20.44683"></trkpt>
      <trkpt lat="49.4191" lon="20.44659"></trkpt>
      <trkpt lat="49.41906" lon="20.44635"></trkpt>
      <trkpt lat="49.41909" lon="20.44612"></trkpt>
      <trkpt lat="49.4191" lon="20.44609"></trkpt>
      <trkpt lat="49.41908" lon="20.44594"></trkpt>
      <trkpt lat="49.41909" lon="20.4458"></trkpt>
      <trkpt lat="49.41907" lon="20.44562"></trkpt>
      <trkpt lat="49.41903" lon="20.4454"></trkpt>
      <trkpt lat="49.41901" lon="20.44502"></trkpt>
      <trkpt lat="49.41895" lon="20.4447"></trkpt>
      <trkpt lat="49.41888" lon="20.44439"></trkpt>
      <trkpt lat="49.41886" lon="20.44422"></trkpt>
      <trkpt lat="49.41887" lon="20.44402"></trkpt>
      <trkpt lat="49.41888" lon="20.44383"></trkpt>
      <trkpt lat="49.41884" lon="20.44375"></trkpt>
      <trkpt lat="49.41878" lon="20.44371"></trkpt>
      <trkpt lat="49.41872" lon="20.44365"></trkpt>
      <trkpt lat="49.41867" lon="20.4435"></trkpt>
      <trkpt lat="49.41856" lon="20.44342"></trkpt>
      <trkpt lat="49.41853" lon="20.44333"></trkpt>
      <trkpt lat="49.4185" lon="20.44322"></trkpt>
      <trkpt lat="49.41843" lon="20.44317"></trkpt>
      <trkpt lat="49.41835" lon="20.44314"></trkpt>
      <trkpt lat="49.4183" lon="20.4431"></trkpt>
      <trkpt lat="49.4183" lon="20.44299"></trkpt>
      <trkpt lat="49.41826" lon="20.44294"></trkpt>
      <trkpt lat="49.4182" lon="20.44297"></trkpt>
      <trkpt lat="49.41817" lon="20.44291"></trkpt>
      <trkpt lat="49.41819" lon="20.44278"></trkpt>
      <trkpt lat="49.41815" lon="20.44271"></trkpt>
      <trkpt lat="49.41808" lon="20.44266"></trkpt>
      <trkpt lat="49.41807" lon="20.44252"></trkpt>
      <trkpt lat="49.41801" lon="20.44249"></trkpt>
      <trkpt lat="49.41793" lon="20.44249"></trkpt>
      <trkpt lat="49.41786" lon="20.44243"></trkpt>
      <trkpt lat="49.41788" lon="20.44233"></trkpt>
      <trkpt lat="49.41802" lon="20.44206"></trkpt>
      <trkpt lat="49.41799" lon="20.44191"></trkpt>
      <trkpt lat="49.41793" lon="20.44177"></trkpt>
      <trkpt lat="49.41788" lon="20.44178"></trkpt>
      <trkpt lat="49.41781" lon="20.44173"></trkpt>
      <trkpt lat="49.41782" lon="20.44162"></trkpt>
      <trkpt lat="49.41785" lon="20.44144"></trkpt>
      <trkpt lat="49.41815" lon="20.44058"></trkpt>
      <trkpt lat="49.41809" lon="20.44052"></trkpt>
      <trkpt lat="49.41807" lon="20.44036"></trkpt>
      <trkpt lat="49.41803" lon="20.44035"></trkpt>
      <trkpt lat="49.4179" lon="20.4406"></trkpt>
      <trkpt lat="49.41786" lon="20.44059"></trkpt>
      <trkpt lat="49.41786" lon="20.44049"></trkpt>
      <trkpt lat="49.41788" lon="20.44033"></trkpt>
      <trkpt lat="49.41787" lon="20.44026"></trkpt>
      <trkpt lat="49.41783" lon="20.44024"></trkpt>
      <trkpt lat="49.41779" lon="20.44026"></trkpt>
      <trkpt lat="49.41773" lon="20.44026"></trkpt>
      <trkpt lat="49.41768" lon="20.4404"></trkpt>
      <trkpt lat="49.41773" lon="20.44026"></trkpt>
      <trkpt lat="49.41779" lon="20.44026"></trkpt>
      <trkpt lat="49.41783" lon="20.44024"></trkpt>
      <trkpt lat="49.41787" lon="20.44026"></trkpt>
      <trkpt lat="49.41788" lon="20.44033"></trkpt>
      <trkpt lat="49.41786" lon="20.44049"></trkpt>
      <trkpt lat="49.41786" lon="20.44059"></trkpt>
      <trkpt lat="49.4179" lon="20.4406"></trkpt>
      <trkpt lat="49.41803" lon="20.44035"></trkpt>
      <trkpt lat="49.41807" lon="20.44036"></trkpt>
      <trkpt lat="49.41809" lon="20.44052"></trkpt>
      <trkpt lat="49.41815" lon="20.44058"></trkpt>
      <trkpt lat="49.41827" lon="20.44045"></trkpt>
      <trkpt lat="49.41842" lon="20.44018"></trkpt>
      <trkpt lat="49.41854" lon="20.44002"></trkpt>
      <trkpt lat="49.41868" lon="20.43993"></trkpt>
      <trkpt lat="49.41892" lon="20.43989"></trkpt>
      <trkpt lat="49.4192" lon="20.43952"></trkpt>
      <trkpt lat="49.41937" lon="20.43925"></trkpt>
      <trkpt lat="49.41948" lon="20.43914"></trkpt>
      <trkpt lat="49.41948" lon="20.43914"></trkpt>
      <trkpt lat="49.41948" lon="20.43914"></trkpt>
      <trkpt lat="49.41971" lon="20.43888"></trkpt>
      <trkpt lat="49.41982" lon="20.4388"></trkpt>
      <trkpt lat="49.42012" lon="20.43878"></trkpt>
      <trkpt lat="49.42027" lon="20.43874"></trkpt>
      <trkpt lat="49.42037" lon="20.43866"></trkpt>
      <trkpt lat="49.42043" lon="20.43854"></trkpt>
      <trkpt lat="49.4205" lon="20.43851"></trkpt>
      <trkpt lat="49.42063" lon="20.43856"></trkpt>
      <trkpt lat="49.42068" lon="20.43849"></trkpt>
      <trkpt lat="49.4208" lon="20.43824"></trkpt>
      <trkpt lat="49.42088" lon="20.43816"></trkpt>
      <trkpt lat="49.42095" lon="20.43798"></trkpt>
      <trkpt lat="49.42104" lon="20.4379"></trkpt>
      <trkpt lat="49.42111" lon="20.438"></trkpt>
      <trkpt lat="49.42119" lon="20.43804"></trkpt>
      <trkpt lat="49.42117" lon="20.43787"></trkpt>
      <trkpt lat="49.42118" lon="20.43776"></trkpt>
      <trkpt lat="49.4213" lon="20.43796"></trkpt>
      <trkpt lat="49.42137" lon="20.438"></trkpt>
      <trkpt lat="49.42137" lon="20.43773"></trkpt>
      <trkpt lat="49.42146" lon="20.43794"></trkpt>
      <trkpt lat="49.42147" lon="20.43768"></trkpt>
      <trkpt lat="49.42156" lon="20.4377"></trkpt>
      <trkpt lat="49.42162" lon="20.43775"></trkpt>
      <trkpt lat="49.4217" lon="20.43778"></trkpt>
      <trkpt lat="49.42177" lon="20.43779"></trkpt>
      <trkpt lat="49.42186" lon="20.43779"></trkpt>
      <trkpt lat="49.42191" lon="20.43775"></trkpt>
      <trkpt lat="49.42191" lon="20.43766"></trkpt>
      <trkpt lat="49.42183" lon="20.43753"></trkpt>
      <trkpt lat="49.42176" lon="20.43738"></trkpt>
      <trkpt lat="49.42173" lon="20.43727"></trkpt>
      <trkpt lat="49.42179" lon="20.43721"></trkpt>
      <trkpt lat="49.42193" lon="20.43716"></trkpt>
      <trkpt lat="49.42197" lon="20.43708"></trkpt>
      <trkpt lat="49.42198" lon="20.43696"></trkpt>
      <trkpt lat="49.42195" lon="20.4368"></trkpt>
      <trkpt lat="49.42201" lon="20.43635"></trkpt>
      <trkpt lat="49.42208" lon="20.43595"></trkpt>
      <trkpt lat="49.42213" lon="20.4354"></trkpt>
      <trkpt lat="49.42225" lon="20.43505"></trkpt>
      <trkpt lat="49.4223" lon="20.4347"></trkpt>
      <trkpt lat="49.42229" lon="20.43453"></trkpt>
      <trkpt lat="49.42226" lon="20.43437"></trkpt>
      <trkpt lat="49.42224" lon="20.43425"></trkpt>
      <trkpt lat="49.42233" lon="20.43435"></trkpt>
      <trkpt lat="49.42241" lon="20.43437"></trkpt>
      <trkpt lat="49.42247" lon="20.43435"></trkpt>
      <trkpt lat="49.42257" lon="20.43424"></trkpt>
      <trkpt lat="49.42257" lon="20.43424"></trkpt>
      <trkpt lat="49.42259" lon="20.43414"></trkpt>
      <trkpt lat="49.42265" lon="20.43393"></trkpt>
      <trkpt lat="49.4227" lon="20.43365"></trkpt>
      <trkpt lat="49.42282" lon="20.43344"></trkpt>
      <trkpt lat="49.42287" lon="20.43334"></trkpt>
      <trkpt lat="49.42292" lon="20.43319"></trkpt>
      <trkpt lat="49.42294" lon="20.43292"></trkpt>
      <trkpt lat="49.42298" lon="20.43273"></trkpt>
      <trkpt lat="49.42304" lon="20.43256"></trkpt>
      <trkpt lat="49.42306" lon="20.43243"></trkpt>
      <trkpt lat="49.42309" lon="20.43228"></trkpt>
      <trkpt lat="49.42317" lon="20.43218"></trkpt>
      <trkpt lat="49.42326" lon="20.43215"></trkpt>
      <trkpt lat="49.42331" lon="20.43205"></trkpt>
      <trkpt lat="49.42336" lon="20.43188"></trkpt>
      <trkpt lat="49.42347" lon="20.43164"></trkpt>
      <trkpt lat="49.42354" lon="20.43159"></trkpt>
      <trkpt lat="49.42366" lon="20.43156"></trkpt>
      <trkpt lat="49.42371" lon="20.43146"></trkpt>
      <trkpt lat="49.42381" lon="20.43132"></trkpt>
      <trkpt lat="49.4239" lon="20.43124"></trkpt>
      <trkpt lat="49.42405" lon="20.43119"></trkpt>
      <trkpt lat="49.42419" lon="20.4311"></trkpt>
      <trkpt lat="49.4243" lon="20.43093"></trkpt>
      <trkpt lat="49.42447" lon="20.4306"></trkpt>
      <trkpt lat="49.42482" lon="20.43036"></trkpt>
      <trkpt lat="49.42508" lon="20.43004"></trkpt>
      <trkpt lat="49.42524" lon="20.42944"></trkpt>
      <trkpt lat="49.42527" lon="20.42883"></trkpt>
      <trkpt lat="49.42538" lon="20.42846"></trkpt>
      <trkpt lat="49.42544" lon="20.42819"></trkpt>
      <trkpt lat="49.4255" lon="20.42774"></trkpt>
      <trkpt lat="49.4256" lon="20.42734"></trkpt>
      <trkpt lat="49.42562" lon="20.42709"></trkpt>
      <trkpt lat="49.42568" lon="20.42681"></trkpt>
      <trkpt lat="49.42571" lon="20.42661"></trkpt>
      <trkpt lat="49.42573" lon="20.4263"></trkpt>
      <trkpt lat="49.42579" lon="20.42605"></trkpt>
      <trkpt lat="49.42596" lon="20.42547"></trkpt>
      <trkpt lat="49.42605" lon="20.42522"></trkpt>
      <trkpt lat="49.42614" lon="20.42503"></trkpt>
      <trkpt lat="49.42629" lon="20.42485"></trkpt>
      <trkpt lat="49.42651" lon="20.42461"></trkpt>
      <trkpt lat="49.42666" lon="20.42454"></trkpt>
      <trkpt lat="49.4269" lon="20.42453"></trkpt>
      <trkpt lat="49.42697" lon="20.4245"></trkpt>
      <trkpt lat="49.42702" lon="20.42444"></trkpt>
      <trkpt lat="49.42709" lon="20.42425"></trkpt>
      <trkpt lat="49.42721" lon="20.42405"></trkpt>
      <trkpt lat="49.4273" lon="20.42396"></trkpt>
      <trkpt lat="49.42739" lon="20.42392"></trkpt>
      <trkpt lat="49.42761" lon="20.42399"></trkpt>
      <trkpt lat="49.42801" lon="20.42399"></trkpt>
      <trkpt lat="49.42831" lon="20.42391"></trkpt>
      <trkpt lat="49.4288" lon="20.42317"></trkpt>
      <trkpt lat="49.42946" lon="20.42245"></trkpt>
      <trkpt lat="49.42959" lon="20.42239"></trkpt>
      <trkpt lat="49.42973" lon="20.42237"></trkpt>
      <trkpt lat="49.42989" lon="20.42238"></trkpt>
      <trkpt lat="49.43008" lon="20.42235"></trkpt>
      <trkpt lat="49.43039" lon="20.422"></trkpt>
      <trkpt lat="49.43047" lon="20.42202"></trkpt>
      <trkpt lat="49.43057" lon="20.422"></trkpt>
      <trkpt lat="49.43071" lon="20.42176"></trkpt>
      <trkpt lat="49.43046" lon="20.42154"></trkpt>
      <trkpt lat="49.43" lon="20.4212"></trkpt>
      <trkpt lat="49.42992" lon="20.42111"></trkpt>
      <trkpt lat="49.4298" lon="20.42096"></trkpt>
      <trkpt lat="49.4297" lon="20.42074"></trkpt>
      <trkpt lat="49.42961" lon="20.42038"></trkpt>
      <trkpt lat="49.42935" lon="20.41981"></trkpt>
      <trkpt lat="49.42895" lon="20.41904"></trkpt>
      <trkpt lat="49.42854" lon="20.41802"></trkpt>
      <trkpt lat="49.42834" lon="20.41751"></trkpt>
      <trkpt lat="49.42803" lon="20.41681"></trkpt>
      <trkpt lat="49.42785" lon="20.41645"></trkpt>
      <trkpt lat="49.42752" lon="20.4156"></trkpt>
      <trkpt lat="49.42707" lon="20.41472"></trkpt>
      <trkpt lat="49.42673" lon="20.41413"></trkpt>
      <trkpt lat="49.42647" lon="20.41333"></trkpt>
      <trkpt lat="49.42639" lon="20.41308"></trkpt>
      <trkpt lat="49.42621" lon="20.41275"></trkpt>
      <trkpt lat="49.42607" lon="20.41262"></trkpt>
      <trkpt lat="49.42588" lon="20.41262"></trkpt>
      <trkpt lat="49.42567" lon="20.41259"></trkpt>
      <trkpt lat="49.42553" lon="20.41248"></trkpt>
      <trkpt lat="49.42542" lon="20.41227"></trkpt>
      <trkpt lat="49.42531" lon="20.41172"></trkpt>
      <trkpt lat="49.42501" lon="20.41102"></trkpt>
      <trkpt lat="49.42468" lon="20.41069"></trkpt>
      <trkpt lat="49.4246" lon="20.41057"></trkpt>
      <trkpt lat="49.42455" lon="20.41052"></trkpt>
      <trkpt lat="49.42453" lon="20.41053"></trkpt>
      <trkpt lat="49.42452" lon="20.41053"></trkpt>
      <trkpt lat="49.42446" lon="20.41056"></trkpt>
      <trkpt lat="49.42441" lon="20.41067"></trkpt>
      <trkpt lat="49.42417" lon="20.41136"></trkpt>
      <trkpt lat="49.4241" lon="20.41148"></trkpt>
      <trkpt lat="49.42394" lon="20.41154"></trkpt>
      <trkpt lat="49.42378" lon="20.41149"></trkpt>
      <trkpt lat="49.42351" lon="20.41132"></trkpt>
      <trkpt lat="49.42335" lon="20.41116"></trkpt>
      <trkpt lat="49.42315" lon="20.41082"></trkpt>
      <trkpt lat="49.42296" lon="20.41054"></trkpt>
      <trkpt lat="49.42285" lon="20.41037"></trkpt>
      <trkpt lat="49.42264" lon="20.41043"></trkpt>
      <trkpt lat="49.42252" lon="20.41046"></trkpt>
      <trkpt lat="49.42242" lon="20.41047"></trkpt>
      <trkpt lat="49.42233" lon="20.4105"></trkpt>
      <trkpt lat="49.42187" lon="20.41072"></trkpt>
      <trkpt lat="49.42175" lon="20.41081"></trkpt>
      <trkpt lat="49.42168" lon="20.41089"></trkpt>
      <trkpt lat="49.4216" lon="20.41103"></trkpt>
      <trkpt lat="49.42142" lon="20.41142"></trkpt>
      <trkpt lat="49.42138" lon="20.41149"></trkpt>
      <trkpt lat="49.42134" lon="20.41153"></trkpt>
      <trkpt lat="49.42122" lon="20.41162"></trkpt>
      <trkpt lat="49.42108" lon="20.41175"></trkpt>
      <trkpt lat="49.42094" lon="20.41191"></trkpt>
      <trkpt lat="49.42089" lon="20.41202"></trkpt>
      <trkpt lat="49.42083" lon="20.41222"></trkpt>
      <trkpt lat="49.42077" lon="20.41251"></trkpt>
      <trkpt lat="49.42075" lon="20.41274"></trkpt>
      <trkpt lat="49.42075" lon="20.41295"></trkpt>
      <trkpt lat="49.4208" lon="20.41328"></trkpt>
      <trkpt lat="49.42084" lon="20.41362"></trkpt>
      <trkpt lat="49.42079" lon="20.41386"></trkpt>
      <trkpt lat="49.42066" lon="20.4142"></trkpt>
      <trkpt lat="49.42056" lon="20.41466"></trkpt>
      <trkpt lat="49.42047" lon="20.41483"></trkpt>
      <trkpt lat="49.42025" lon="20.41515"></trkpt>
      <trkpt lat="49.41993" lon="20.41542"></trkpt>
      <trkpt lat="49.41982" lon="20.4155"></trkpt>
      <trkpt lat="49.41961" lon="20.41552"></trkpt>
      <trkpt lat="49.41947" lon="20.41548"></trkpt>
      <trkpt lat="49.41937" lon="20.41543"></trkpt>
      <trkpt lat="49.4193" lon="20.41546"></trkpt>
      <trkpt lat="49.41923" lon="20.41554"></trkpt>
      <trkpt lat="49.4192" lon="20.41569"></trkpt>
      <trkpt lat="49.4192" lon="20.41587"></trkpt>
      <trkpt lat="49.41918" lon="20.416"></trkpt>
      <trkpt lat="49.41911" lon="20.41612"></trkpt>
      <trkpt lat="49.41901" lon="20.4162"></trkpt>
      <trkpt lat="49.41882" lon="20.41628"></trkpt>
      <trkpt lat="49.41867" lon="20.41659"></trkpt>
      <trkpt lat="49.41859" lon="20.41673"></trkpt>
      <trkpt lat="49.41856" lon="20.4169"></trkpt>
      <trkpt lat="49.41861" lon="20.41718"></trkpt>
      <trkpt lat="49.41858" lon="20.41751"></trkpt>
      <trkpt lat="49.41852" lon="20.41778"></trkpt>
      <trkpt lat="49.41842" lon="20.41801"></trkpt>
      <trkpt lat="49.41827" lon="20.41822"></trkpt>
      <trkpt lat="49.41822" lon="20.41831"></trkpt>
      <trkpt lat="49.41823" lon="20.41837"></trkpt>
      <trkpt lat="49.41828" lon="20.41843"></trkpt>
      <trkpt lat="49.41844" lon="20.41854"></trkpt>
      <trkpt lat="49.41862" lon="20.41862"></trkpt>
      <trkpt lat="49.41875" lon="20.41869"></trkpt>
      <trkpt lat="49.41886" lon="20.41882"></trkpt>
      <trkpt lat="49.41894" lon="20.41894"></trkpt>
      <trkpt lat="49.41911" lon="20.4191"></trkpt>
      <trkpt lat="49.41923" lon="20.41917"></trkpt>
      <trkpt lat="49.41933" lon="20.41919"></trkpt>
      <trkpt lat="49.4194" lon="20.41927"></trkpt>
      <trkpt lat="49.41954" lon="20.41956"></trkpt>
      <trkpt lat="49.41967" lon="20.4197"></trkpt>
      <trkpt lat="49.41982" lon="20.41991"></trkpt>
      <trkpt lat="49.41968" lon="20.41999"></trkpt>
      <trkpt lat="49.41957" lon="20.42006"></trkpt>
      <trkpt lat="49.41951" lon="20.42024"></trkpt>
      <trkpt lat="49.41939" lon="20.42029"></trkpt>
      <trkpt lat="49.41929" lon="20.4203"></trkpt>
      <trkpt lat="49.41919" lon="20.42023"></trkpt>
      <trkpt lat="49.41904" lon="20.42008"></trkpt>
      <trkpt lat="49.41892" lon="20.42005"></trkpt>
      <trkpt lat="49.41883" lon="20.4201"></trkpt>
      <trkpt lat="49.41879" lon="20.4202"></trkpt>
      <trkpt lat="49.4188" lon="20.42031"></trkpt>
      <trkpt lat="49.41871" lon="20.42035"></trkpt>
      <trkpt lat="49.41862" lon="20.42031"></trkpt>
      <trkpt lat="49.41851" lon="20.4203"></trkpt>
      <trkpt lat="49.41835" lon="20.42019"></trkpt>
      <trkpt lat="49.41825" lon="20.42014"></trkpt>
      <trkpt lat="49.41812" lon="20.42011"></trkpt>
      <trkpt lat="49.41803" lon="20.42003"></trkpt>
      <trkpt lat="49.41789" lon="20.42006"></trkpt>
      <trkpt lat="49.4177" lon="20.42019"></trkpt>
      <trkpt lat="49.41757" lon="20.42025"></trkpt>
      <trkpt lat="49.41737" lon="20.42028"></trkpt>
      <trkpt lat="49.41707" lon="20.42021"></trkpt>
      <trkpt lat="49.41687" lon="20.41999"></trkpt>
      <trkpt lat="49.41675" lon="20.41993"></trkpt>
      <trkpt lat="49.41663" lon="20.41974"></trkpt>
      <trkpt lat="49.41648" lon="20.41957"></trkpt>
      <trkpt lat="49.41633" lon="20.41932"></trkpt>
      <trkpt lat="49.41616" lon="20.41909"></trkpt>
      <trkpt lat="49.41596" lon="20.41879"></trkpt>
      <trkpt lat="49.41571" lon="20.41864"></trkpt>
      <trkpt lat="49.41562" lon="20.41847"></trkpt>
      <trkpt lat="49.4155" lon="20.4183"></trkpt>
      <trkpt lat="49.41536" lon="20.41815"></trkpt>
      <trkpt lat="49.41508" lon="20.41795"></trkpt>
      <trkpt lat="49.41497" lon="20.4179"></trkpt>
      <trkpt lat="49.41484" lon="20.41787"></trkpt>
      <trkpt lat="49.41477" lon="20.41787"></trkpt>
      <trkpt lat="49.4147" lon="20.41784"></trkpt>
      <trkpt lat="49.41464" lon="20.41772"></trkpt>
      <trkpt lat="49.41463" lon="20.41767"></trkpt>
      <trkpt lat="49.41466" lon="20.41761"></trkpt>
      <trkpt lat="49.41469" lon="20.41757"></trkpt>
      <trkpt lat="49.41482" lon="20.41752"></trkpt>
      <trkpt lat="49.41487" lon="20.41744"></trkpt>
      <trkpt lat="49.41489" lon="20.41731"></trkpt>
      <trkpt lat="49.41488" lon="20.41709"></trkpt>
      <trkpt lat="49.41482" lon="20.41691"></trkpt>
      <trkpt lat="49.41477" lon="20.41682"></trkpt>
      <trkpt lat="49.41476" lon="20.41657"></trkpt>
      <trkpt lat="49.41468" lon="20.41627"></trkpt>
      <trkpt lat="49.41464" lon="20.41611"></trkpt>
      <trkpt lat="49.41448" lon="20.41589"></trkpt>
      <trkpt lat="49.41444" lon="20.41575"></trkpt>
      <trkpt lat="49.41444" lon="20.41561"></trkpt>
      <trkpt lat="49.41447" lon="20.41547"></trkpt>
      <trkpt lat="49.41448" lon="20.41529"></trkpt>
      <trkpt lat="49.41446" lon="20.4152"></trkpt>
      <trkpt lat="49.41443" lon="20.41518"></trkpt>
      <trkpt lat="49.41443" lon="20.41511"></trkpt>
      <trkpt lat="49.41441" lon="20.41503"></trkpt>
      <trkpt lat="49.41436" lon="20.41483"></trkpt>
      <trkpt lat="49.41429" lon="20.41472"></trkpt>
      <trkpt lat="49.41425" lon="20.41465"></trkpt>
      <trkpt lat="49.41423" lon="20.41454"></trkpt>
      <trkpt lat="49.41419" lon="20.41445"></trkpt>
      <trkpt lat="49.41416" lon="20.41441"></trkpt>
      <trkpt lat="49.41404" lon="20.41435"></trkpt>
      <trkpt lat="49.41398" lon="20.41434"></trkpt>
      <trkpt lat="49.41391" lon="20.41431"></trkpt>
      <trkpt lat="49.41383" lon="20.41422"></trkpt>
    </trkseg>
  </trk>
</gpx>
