<?xml version="1.0" encoding="UTF-8"?>
<gpx version="1.1" creator="szlakipienin.pl" xmlns="http://www.topografix.com/GPX/1/1">
  <metadata>
    <name>Trzy Korony ze Sromowiec Niżnych (spod schroniska)</name>
    <desc>2.8 km, 93 min, 500 m podejść. Opis trasy: https://szlakipienin.pl/szlaki/trzy-korony-ze-sromowiec-niznych-spod-schroniska</desc>
    <link href="https://szlakipienin.pl/szlaki/trzy-korony-ze-sromowiec-niznych-spod-schroniska"><text>Trzy Korony ze Sromowiec Niżnych (spod schroniska)</text></link>
  </metadata>
  <trk>
    <name>Trzy Korony ze Sromowiec Niżnych (spod schroniska)</name>
    <trkseg>
      <trkpt lat="49.40519" lon="20.41109"></trkpt>
      <trkpt lat="49.40561" lon="20.41111"></trkpt>
      <trkpt lat="49.40572" lon="20.41108"></trkpt>
      <trkpt lat="49.40639" lon="20.41108"></trkpt>
      <trkpt lat="49.4066" lon="20.41102"></trkpt>
      <trkpt lat="49.4068" lon="20.41091"></trkpt>
      <trkpt lat="49.40704" lon="20.41073"></trkpt>
      <trkpt lat="49.40709" lon="20.41072"></trkpt>
      <trkpt lat="49.40716" lon="20.41063"></trkpt>
      <trkpt lat="49.40725" lon="20.41058"></trkpt>
      <trkpt lat="49.40741" lon="20.41056"></trkpt>
      <trkpt lat="49.40754" lon="20.41053"></trkpt>
      <trkpt lat="49.40766" lon="20.41044"></trkpt>
      <trkpt lat="49.40783" lon="20.41024"></trkpt>
      <trkpt lat="49.40798" lon="20.40999"></trkpt>
      <trkpt lat="49.40859" lon="20.40937"></trkpt>
      <trkpt lat="49.40871" lon="20.40926"></trkpt>
      <trkpt lat="49.40908" lon="20.40891"></trkpt>
      <trkpt lat="49.40935" lon="20.40866"></trkpt>
      <trkpt lat="49.4095" lon="20.40862"></trkpt>
      <trkpt lat="49.40982" lon="20.40862"></trkpt>
      <trkpt lat="49.4104" lon="20.40848"></trkpt>
      <trkpt lat="49.41045" lon="20.40841"></trkpt>
      <trkpt lat="49.41057" lon="20.40809"></trkpt>
      <trkpt lat="49.41063" lon="20.40802"></trkpt>
      <trkpt lat="49.41087" lon="20.40781"></trkpt>
      <trkpt lat="49.41112" lon="20.40762"></trkpt>
      <trkpt lat="49.41131" lon="20.40724"></trkpt>
      <trkpt lat="49.41141" lon="20.40711"></trkpt>
      <trkpt lat="49.41151" lon="20.40703"></trkpt>
      <trkpt lat="49.41168" lon="20.4067"></trkpt>
      <trkpt lat="49.41204" lon="20.40633"></trkpt>
      <trkpt lat="49.41215" lon="20.40615"></trkpt>
      <trkpt lat="49.41225" lon="20.40602"></trkpt>
      <trkpt lat="49.4126" lon="20.40567"></trkpt>
      <trkpt lat="49.41277" lon="20.40537"></trkpt>
      <trkpt lat="49.41286" lon="20.40535"></trkpt>
      <trkpt lat="49.41298" lon="20.40537"></trkpt>
      <trkpt lat="49.41323" lon="20.40536"></trkpt>
      <trkpt lat="49.41334" lon="20.40539"></trkpt>
      <trkpt lat="49.41345" lon="20.40542"></trkpt>
      <trkpt lat="49.41367" lon="20.40555"></trkpt>
      <trkpt lat="49.41381" lon="20.40558"></trkpt>
      <trkpt lat="49.41393" lon="20.40567"></trkpt>
      <trkpt lat="49.4144" lon="20.4063"></trkpt>
      <trkpt lat="49.41466" lon="20.40642"></trkpt>
      <trkpt lat="49.41479" lon="20.40648"></trkpt>
      <trkpt lat="49.41486" lon="20.40651"></trkpt>
      <trkpt lat="49.41501" lon="20.40654"></trkpt>
      <trkpt lat="49.41539" lon="20.40675"></trkpt>
      <trkpt lat="49.41554" lon="20.40681"></trkpt>
      <trkpt lat="49.41562" lon="20.40686"></trkpt>
      <trkpt lat="49.41575" lon="20.40687"></trkpt>
      <trkpt lat="49.41591" lon="20.40689"></trkpt>
      <trkpt lat="49.41608" lon="20.40683"></trkpt>
      <trkpt lat="49.4161" lon="20.40678"></trkpt>
      <trkpt lat="49.41614" lon="20.4066"></trkpt>
      <trkpt lat="49.41609" lon="20.40637"></trkpt>
      <trkpt lat="49.41613" lon="20.40628"></trkpt>
      <trkpt lat="49.41623" lon="20.40617"></trkpt>
      <trkpt lat="49.41628" lon="20.40597"></trkpt>
      <trkpt lat="49.41643" lon="20.40598"></trkpt>
      <trkpt lat="49.41648" lon="20.40585"></trkpt>
      <trkpt lat="49.41661" lon="20.40588"></trkpt>
      <trkpt lat="49.41663" lon="20.40577"></trkpt>
      <trkpt lat="49.41685" lon="20.40572"></trkpt>
      <trkpt lat="49.41691" lon="20.40563"></trkpt>
      <trkpt lat="49.41691" lon="20.40554"></trkpt>
      <trkpt lat="49.41707" lon="20.40539"></trkpt>
      <trkpt lat="49.4171" lon="20.40539"></trkpt>
      <trkpt lat="49.41715" lon="20.40545"></trkpt>
      <trkpt lat="49.41724" lon="20.40549"></trkpt>
      <trkpt lat="49.41735" lon="20.40551"></trkpt>
      <trkpt lat="49.4174" lon="20.4055"></trkpt>
      <trkpt lat="49.41745" lon="20.40553"></trkpt>
      <trkpt lat="49.41753" lon="20.40555"></trkpt>
      <trkpt lat="49.4176" lon="20.40567"></trkpt>
      <trkpt lat="49.41768" lon="20.40579"></trkpt>
      <trkpt lat="49.41785" lon="20.40605"></trkpt>
      <trkpt lat="49.41792" lon="20.40625"></trkpt>
      <trkpt lat="49.41798" lon="20.40647"></trkpt>
      <trkpt lat="49.41812" lon="20.4069"></trkpt>
      <trkpt lat="49.41842" lon="20.40741"></trkpt>
      <trkpt lat="49.419" lon="20.40807"></trkpt>
      <trkpt lat="49.419" lon="20.40807"></trkpt>
      <trkpt lat="49.4189" lon="20.40848"></trkpt>
      <trkpt lat="49.41882" lon="20.40867"></trkpt>
      <trkpt lat="49.41875" lon="20.40887"></trkpt>
      <trkpt lat="49.4187" lon="20.40908"></trkpt>
      <trkpt lat="49.41868" lon="20.4093"></trkpt>
      <trkpt lat="49.41866" lon="20.40944"></trkpt>
      <trkpt lat="49.41865" lon="20.4095"></trkpt>
      <trkpt lat="49.41866" lon="20.40962"></trkpt>
      <trkpt lat="49.41864" lon="20.40978"></trkpt>
      <trkpt lat="49.41861" lon="20.4099"></trkpt>
      <trkpt lat="49.41831" lon="20.41029"></trkpt>
      <trkpt lat="49.4182" lon="20.41052"></trkpt>
      <trkpt lat="49.41806" lon="20.41092"></trkpt>
      <trkpt lat="49.41799" lon="20.41121"></trkpt>
      <trkpt lat="49.41796" lon="20.41141"></trkpt>
      <trkpt lat="49.41784" lon="20.41178"></trkpt>
      <trkpt lat="49.41774" lon="20.41194"></trkpt>
      <trkpt lat="49.41766" lon="20.41211"></trkpt>
      <trkpt lat="49.41761" lon="20.4123"></trkpt>
      <trkpt lat="49.41752" lon="20.41258"></trkpt>
      <trkpt lat="49.4174" lon="20.4128"></trkpt>
      <trkpt lat="49.41733" lon="20.41284"></trkpt>
      <trkpt lat="49.41722" lon="20.41286"></trkpt>
      <trkpt lat="49.41716" lon="20.4129"></trkpt>
      <trkpt lat="49.41713" lon="20.413"></trkpt>
      <trkpt lat="49.41703" lon="20.41338"></trkpt>
      <trkpt lat="49.41697" lon="20.41354"></trkpt>
      <trkpt lat="49.41678" lon="20.41382"></trkpt>
      <trkpt lat="49.41672" lon="20.41385"></trkpt>
      <trkpt lat="49.41652" lon="20.41384"></trkpt>
      <trkpt lat="49.41644" lon="20.4138"></trkpt>
      <trkpt lat="49.41638" lon="20.41375"></trkpt>
      <trkpt lat="49.41634" lon="20.41367"></trkpt>
      <trkpt lat="49.41629" lon="20.41339"></trkpt>
      <trkpt lat="49.41625" lon="20.4133"></trkpt>
      <trkpt lat="49.41615" lon="20.41322"></trkpt>
      <trkpt lat="49.41601" lon="20.41322"></trkpt>
      <trkpt lat="49.41595" lon="20.41325"></trkpt>
      <trkpt lat="49.41583" lon="20.41334"></trkpt>
      <trkpt lat="49.41551" lon="20.4134"></trkpt>
      <trkpt lat="49.41545" lon="20.41345"></trkpt>
      <trkpt lat="49.41537" lon="20.41362"></trkpt>
      <trkpt lat="49.41534" lon="20.41395"></trkpt>
      <trkpt lat="49.41531" lon="20.41404"></trkpt>
      <trkpt lat="49.41525" lon="20.41412"></trkpt>
      <trkpt lat="49.41506" lon="20.4144"></trkpt>
      <trkpt lat="49.41497" lon="20.4145"></trkpt>
      <trkpt lat="49.41486" lon="20.41456"></trkpt>
      <trkpt lat="49.41478" lon="20.41457"></trkpt>
      <trkpt lat="49.41472" lon="20.41457"></trkpt>
      <trkpt lat="49.41466" lon="20.4146"></trkpt>
      <trkpt lat="49.41464" lon="20.41465"></trkpt>
      <trkpt lat="49.41461" lon="20.41481"></trkpt>
      <trkpt lat="49.41455" lon="20.41498"></trkpt>
      <trkpt lat="49.41452" lon="20.41511"></trkpt>
      <trkpt lat="49.41446" lon="20.4152"></trkpt>
      <trkpt lat="49.41443" lon="20.41518"></trkpt>
      <trkpt lat="49.41443" lon="20.41511"></trkpt>
      <trkpt lat="49.41441" lon="20.41503"></trkpt>
      <trkpt lat="49.41436" lon="20.41483"></trkpt>
      <trkpt lat="49.41429" lon="20.41472"></trkpt>
      <trkpt lat="49.41425" lon="20.41465"></trkpt>
      <trkpt lat="49.41423" lon="20.41454"></trkpt>
      <trkpt lat="49.41419" lon="20.41445"></trkpt>
      <trkpt lat="49.41416" lon="20.41441"></trkpt>
      <trkpt lat="49.41404" lon="20.41435"></trkpt>
      <trkpt lat="49.41398" lon="20.41434"></trkpt>
      <trkpt lat="49.41391" lon="20.41431"></trkpt>
      <trkpt lat="49.41383" lon="20.41422"></trkpt>
    </trkseg>
  </trk>
</gpx>
