{"type": "FeatureCollection", "features": [{"type": "Feature", "properties": {"id": "1D", "nazwa": "Wodospad Zaskalnik", "_zrodlo": "OpenStreetMap (routing po sciezkach) + EU-DEM 25 m", "_licencja": "(c) OpenStreetMap contributors, ODbL"}, "geometry": {"type": "LineString", "coordinates": [[20.48259, 49.42514, 478.5], [20.48271, 49.42521, 479.0], [20.48288, 49.4253, 479.5], [20.48303, 49.42538, 480.4], [20.48307, 49.42536, 482.3], [20.48317, 49.42538, 484.1], [20.48355, 49.42558, 486.1], [20.48386, 49.42575, 487.9], [20.484, 49.42581, 489.6], [20.48455, 49.42599, 491.0], [20.48465, 49.42605, 491.8], [20.48471, 49.42602, 492.1], [20.48482, 49.42596, 492.1], [20.48485, 49.42594, 491.7], [20.48502, 49.42589, 491.2], [20.48502, 49.42587, 490.7], [20.485, 49.42584, 490.4], [20.48519, 49.42581, 490.2], [20.48516, 49.42574, 490.1], [20.48531, 49.42572, 490.1], [20.48532, 49.42575, 490.5], [20.48549, 49.42572, 491.1], [20.48556, 49.42574, 492.2], [20.48563, 49.4259, 493.6], [20.48604, 49.42584, 495.1], [20.48614, 49.42598, 497.2], [20.48624, 49.42606, 499.7], [20.48633, 49.42614, 502.0], [20.48669, 49.42637, 504.1], [20.48693, 49.42651, 505.9], [20.48695, 49.4265, 507.1], [20.48712, 49.4263, 508.3], [20.48722, 49.42626, 508.9], [20.48723, 49.42594, 509.2], [20.48746, 49.42588, 509.9], [20.48758, 49.42585, 510.6], [20.48764, 49.42586, 511.3], [20.48806, 49.4257, 512.4], [20.48811, 49.42569, 513.3], [20.48829, 49.42564, 514.1], [20.48833, 49.42562, 515.0], [20.4884, 49.4256, 515.4], [20.48843, 49.42558, 516.1], [20.48854, 49.42555, 517.0], [20.48856, 49.42555, 518.4], [20.48903, 49.42543, 519.7], [20.48975, 49.42524, 521.1], [20.491, 49.42492, 522.4], [20.49104, 49.42492, 523.7], [20.49112, 49.42491, 524.7], [20.49147, 49.42475, 525.4], [20.49184, 49.42455, 526.2], [20.49194, 49.42449, 528.0], [20.49241, 49.4242, 530.2], [20.49267, 49.42429, 532.7], [20.49325, 49.42449, 535.5], [20.49343, 49.42456, 539.2], [20.49364, 49.42468, 543.2], [20.49385, 49.42476, 546.9], [20.49441, 49.42489, 549.6], [20.49483, 49.42504, 552.0], [20.49529, 49.4252, 554.4], [20.49544, 49.42529, 556.9], [20.49557, 49.42544, 559.3], [20.49577, 49.42584, 561.4], [20.49586, 49.42599, 563.5], [20.49619, 49.42639, 566.2], [20.49672, 49.42678, 568.5], [20.49687, 49.42701, 569.8], [20.49691, 49.42742, 569.9], [20.49724, 49.4277, 568.8], [20.49793, 49.42833, 566.1], [20.49831, 49.42855, 562.8], [20.49846, 49.42861, 559.2], [20.49894, 49.42882, 555.8], [20.49906, 49.42894, 553.2], [20.49909, 49.42923, 551.4], [20.49935, 49.42963, 549.8], [20.49963, 49.43006, 549.7], [20.49972, 49.43012, 549.9], [20.50009, 49.4304, 549.4], [20.50014, 49.43041, 549.5], [20.50019, 49.43043, 549.4], [20.5003, 49.43041, 549.1], [20.50044, 49.43071, 548.9], [20.50063, 49.43087, 548.8], [20.50093, 49.43103, 548.9], [20.50115, 49.43118, 549.9], [20.50122, 49.4314, 550.5], [20.50115, 49.43168, 550.8], [20.50106, 49.43231, 551.0], [20.50114, 49.43244, 551.2], [20.50157, 49.43279, 551.5], [20.50244, 49.43349, 553.0], [20.50269, 49.43383, 554.5], [20.50291, 49.4347, 556.7], [20.50293, 49.43544, 559.7], [20.50304, 49.43587, 563.1], [20.50331, 49.43646, 566.9], [20.50333, 49.43673, 570.7], [20.50335, 49.43683, 573.1], [20.50339, 49.43691, 574.7], [20.50345, 49.43698, 575.5], [20.50351, 49.43706, 575.7], [20.50366, 49.43705, 575.6], [20.50369, 49.43704, 575.4], [20.50372, 49.43702, 575.2], [20.50376, 49.43701, 574.8], [20.50379, 49.43699, 574.6]]}}]}