{"type": "FeatureCollection", "features": [{"type": "Feature", "properties": {"id": "2A", "nazwa": "Durbaszka", "_zrodlo": "Slad GPX (durbaszka-2a.gpx) + EU-DEM 25 m"}, "geometry": {"type": "LineString", "coordinates": [[20.48256, 49.42522, 468.7], [20.48121, 49.42575, 467.6], [20.48101, 49.42574, 466.4], [20.48101, 49.42561, 465.4], [20.48045, 49.42565, 464.6], [20.48036, 49.42554, 462.7], [20.48031, 49.42521, 462.3], [20.4806, 49.42501, 462.5], [20.48022, 49.42432, 464.1], [20.48129, 49.42414, 469.5], [20.48191, 49.42362, 475.8], [20.48145, 49.42356, 484.6], [20.4819, 49.42312, 494.5], [20.4823, 49.42227, 505.5], [20.4822, 49.4222, 518.7], [20.48106, 49.42237, 532.7], [20.48071, 49.42231, 547.5], [20.48035, 49.42219, 563.7], [20.48022, 49.4216, 578.1], [20.47989, 49.42126, 593.2], [20.47876, 49.42132, 607.1], [20.47797, 49.42096, 620.8], [20.47716, 49.42079, 635.0], [20.47671, 49.42047, 647.2], [20.47687, 49.42006, 658.3], [20.47671, 49.41986, 668.6], [20.47702, 49.41947, 676.4], [20.47672, 49.41939, 682.8], [20.47687, 49.41929, 687.7], [20.47634, 49.41899, 691.4], [20.47628, 49.41883, 693.7], [20.47653, 49.41872, 693.6], [20.47643, 49.41843, 693.4], [20.47657, 49.41821, 696.8], [20.47585, 49.4178, 698.4], [20.47676, 49.41684, 699.4], [20.4769, 49.4164, 700.4], [20.47674, 49.41359, 700.7], [20.47724, 49.41258, 700.3], [20.47786, 49.41196, 701.0], [20.4809, 49.41024, 704.7], [20.48244, 49.40973, 709.6], [20.48425, 49.40957, 711.1], [20.48583, 49.40893, 714.3], [20.48829, 49.40827, 716.8], [20.48918, 49.40729, 718.3], [20.49006, 49.40687, 719.8], [20.49087, 49.40663, 721.9], [20.49184, 49.40674, 723.9], [20.49309, 49.40657, 723.9], [20.49413, 49.40625, 724.7], [20.49535, 49.40567, 727.0], [20.49688, 49.40553, 729.1], [20.4975, 49.40525, 731.9], [20.50034, 49.40446, 734.5], [20.50337, 49.40405, 738.7], [20.50491, 49.4036, 745.9], [20.50583, 49.40267, 757.2], [20.50748, 49.4017, 768.9], [20.50919, 49.40094, 777.9], [20.51091, 49.39988, 785.9], [20.51252, 49.39651, 794.4], [20.51453, 49.39528, 802.6], [20.51646, 49.39436, 815.2], [20.51721, 49.39368, 828.9], [20.51825, 49.39319, 840.0], [20.52185, 49.39193, 847.6], [20.52392, 49.39073, 854.4], [20.52835, 49.38929, 861.9], [20.5303, 49.3889, 867.7], [20.53325, 49.38862, 869.7], [20.53417, 49.38862, 871.3], [20.53509, 49.3888, 869.0], [20.53553, 49.38912, 860.6], [20.53627, 49.39059, 852.0], [20.53764, 49.39078, 840.8], [20.53799, 49.39094, 828.3], [20.53777, 49.39283, 814.6], [20.53803, 49.39313, 800.6], [20.53956, 49.3941, 788.7], [20.53946, 49.39454, 777.3], [20.53896, 49.39495, 765.5], [20.53898, 49.39526, 753.5], [20.53982, 49.39564, 741.1], [20.54076, 49.39563, 730.6], [20.54161, 49.39616, 720.7], [20.54096, 49.39897, 710.9], [20.54142, 49.39928, 698.3], [20.54221, 49.39944, 686.1], [20.54287, 49.40015, 672.9], [20.54295, 49.40174, 659.6], [20.54494, 49.40386, 649.7], [20.54438, 49.40397, 639.5], [20.54404, 49.40438, 627.5], [20.54348, 49.4046, 614.8], [20.54287, 49.40536, 602.7], [20.54273, 49.40601, 593.8], [20.54119, 49.40608, 585.5], [20.5404, 49.40643, 577.9], [20.54018, 49.40678, 571.1], [20.5405, 49.40726, 566.5], [20.54188, 49.40768, 563.3], [20.54232, 49.40798, 562.5], [20.54285, 49.40793, 562.6], [20.54501, 49.40742, 562.9], [20.54608, 49.40689, 563.6], [20.54675, 49.40617, 565.1], [20.54781, 49.40596, 566.6], [20.55065, 49.40665, 568.9], [20.5526, 49.40668, 570.1], [20.55354, 49.40691, 570.7]]}}]}