{"type": "FeatureCollection", "features": [{"type": "Feature", "properties": {"id": "4D", "nazwa": "Rezerwat Biala Woda", "_zrodlo": "OpenStreetMap (routing po sciezkach) + EU-DEM 25 m", "_licencja": "(c) OpenStreetMap contributors, ODbL"}, "geometry": {"type": "LineString", "coordinates": [[20.55306, 49.4066, 571.8], [20.55341, 49.4066, 571.9], [20.55348, 49.4066, 572.0], [20.55354, 49.40662, 572.1], [20.55364, 49.40666, 572.5], [20.55373, 49.40672, 572.8], [20.55379, 49.40679, 573.2], [20.55395, 49.40687, 573.7], [20.55426, 49.40691, 574.3], [20.55447, 49.40693, 575.0], [20.5547, 49.40698, 575.8], [20.55484, 49.407, 576.9], [20.55526, 49.40699, 578.0], [20.55563, 49.40691, 579.0], [20.55611, 49.40672, 580.4], [20.55609, 49.40646, 581.7], [20.55614, 49.40635, 583.1], [20.55688, 49.40575, 584.6], [20.55714, 49.40554, 585.7], [20.55757, 49.4052, 587.6], [20.55764, 49.40485, 589.9], [20.55767, 49.40472, 592.1], [20.5583, 49.40396, 594.8], [20.55868, 49.40377, 597.7], [20.55895, 49.40366, 600.7], [20.55942, 49.40343, 603.7], [20.55982, 49.4031, 606.1], [20.55997, 49.4029, 608.4], [20.56011, 49.40263, 610.8], [20.56035, 49.40246, 612.6], [20.56061, 49.40228, 614.1], [20.56099, 49.40161, 615.9], [20.56128, 49.40132, 618.3], [20.56177, 49.40095, 620.6], [20.56248, 49.40047, 622.6], [20.56339, 49.39997, 624.4], [20.5636, 49.39979, 626.4], [20.56387, 49.39957, 628.7], [20.5644, 49.39889, 631.1], [20.56455, 49.39873, 633.2], [20.56483, 49.3986, 635.5], [20.56502, 49.39843, 638.7], [20.56527, 49.39837, 642.3], [20.56548, 49.3983, 646.2], [20.56572, 49.39808, 651.3], [20.56596, 49.39789, 657.1], [20.56623, 49.39786, 662.8], [20.56692, 49.39796, 668.5], [20.5675, 49.39824, 673.9], [20.56773, 49.39833, 679.5], [20.568, 49.39833, 687.0], [20.56845, 49.39821, 694.7], [20.56959, 49.39787, 701.8], [20.57132, 49.39752, 709.0], [20.57275, 49.3974, 716.0], [20.57367, 49.39723, 722.7], [20.57424, 49.39697, 728.5], [20.57464, 49.39668, 731.7], [20.57473, 49.39686, 732.8], [20.57493, 49.39704, 732.5], [20.57518, 49.39715, 731.3], [20.57636, 49.39742, 728.8], [20.57669, 49.39753, 726.0], [20.57688, 49.39769, 722.8], [20.57721, 49.39802, 719.1], [20.57732, 49.39817, 714.1], [20.57738, 49.39828, 709.5], [20.57756, 49.39837, 705.2], [20.57864, 49.39856, 701.8], [20.57889, 49.39854, 698.5], [20.57912, 49.39849, 695.3], [20.57932, 49.39838, 692.2], [20.57952, 49.39817, 690.5], [20.57967, 49.3981, 688.5], [20.57979, 49.39808, 686.2], [20.57999, 49.39806, 683.6], [20.58028, 49.39811, 680.7], [20.58054, 49.39822, 677.8], [20.58078, 49.39841, 674.7], [20.58107, 49.39856, 671.7], [20.58133, 49.39865, 669.1], [20.58161, 49.39867, 666.7], [20.58194, 49.39863, 664.8], [20.58223, 49.39863, 663.2], [20.5827, 49.39886, 662.0], [20.58275, 49.39873, 661.1], [20.58284, 49.39859, 660.4], [20.58295, 49.3985, 660.0], [20.58307, 49.39845, 660.1], [20.58327, 49.39847, 660.8], [20.58332, 49.39847, 661.9], [20.58341, 49.39846, 663.2], [20.58372, 49.39834, 664.8], [20.58393, 49.39825, 666.5], [20.58415, 49.39815, 668.3], [20.5845, 49.39789, 670.0], [20.5848, 49.39768, 671.1], [20.58514, 49.39752, 672.0], [20.58527, 49.39746, 672.7], [20.58542, 49.39744, 673.1], [20.58562, 49.39744, 673.5], [20.58579, 49.39744, 673.7], [20.58589, 49.39742, 673.9], [20.58597, 49.39739, 674.1], [20.58618, 49.39725, 674.2], [20.58634, 49.39713, 674.3], [20.5864, 49.3971, 674.3], [20.5865, 49.39705, 674.6], [20.58666, 49.39697, 675.2], [20.58687, 49.39686, 675.8], [20.58719, 49.39679, 676.6], [20.58751, 49.39678, 678.3], [20.5879, 49.39666, 680.7], [20.58838, 49.39652, 683.3], [20.58955, 49.39582, 687.4], [20.58972, 49.39551, 692.4], [20.58986, 49.39544, 698.5], [20.5908, 49.39499, 705.3], [20.59118, 49.39464, 708.4], [20.59144, 49.39431, 711.9], [20.59159, 49.39396, 716.6]]}}]}