{"type": "FeatureCollection", "features": [{"type": "Feature", "properties": {"id": "6D", "nazwa": "Wawoz Szopczanski", "_zrodlo": "OpenStreetMap (routing po sciezkach) + EU-DEM 25 m", "_licencja": "(c) OpenStreetMap contributors, ODbL"}, "geometry": {"type": "LineString", "coordinates": [[20.41109, 49.40519, 479.2], [20.41111, 49.40561, 480.2], [20.41108, 49.40572, 481.2], [20.41109, 49.40593, 482.4], [20.41109, 49.40622, 484.7], [20.41108, 49.40639, 487.1], [20.41102, 49.4066, 489.4], [20.41091, 49.4068, 491.7], [20.41073, 49.40704, 493.8], [20.41072, 49.40709, 495.9], [20.41063, 49.40716, 497.8], [20.41058, 49.40725, 499.6], [20.41056, 49.40741, 501.3], [20.41053, 49.40754, 503.3], [20.41044, 49.40766, 505.6], [20.41024, 49.40783, 508.4], [20.40999, 49.40798, 511.0], [20.40977, 49.40819, 514.0], [20.40937, 49.40859, 517.5], [20.40926, 49.40871, 521.0], [20.40891, 49.40908, 524.9], [20.40875, 49.40925, 530.1], [20.40866, 49.40935, 539.6], [20.40862, 49.4095, 549.7], [20.40862, 49.40982, 561.3], [20.40848, 49.4104, 572.9], [20.40841, 49.41045, 585.5], [20.40809, 49.41057, 598.2], [20.40802, 49.41063, 609.3], [20.40781, 49.41087, 615.5], [20.40762, 49.41112, 620.9], [20.40724, 49.41131, 624.1], [20.40711, 49.41141, 626.6], [20.40703, 49.41151, 627.6], [20.4067, 49.41168, 627.9], [20.40633, 49.41204, 628.0], [20.40615, 49.41215, 627.8], [20.40602, 49.41225, 627.7], [20.40567, 49.4126, 627.6], [20.40537, 49.41277, 627.6]]}}]}