{"type": "FeatureCollection", "features": [{"type": "Feature", "properties": {"id": "7D", "nazwa": "Palenica wyciagiem", "_zrodlo": "OpenStreetMap (routing po sciezkach) + EU-DEM 25 m", "_licencja": "(c) OpenStreetMap contributors, ODbL"}, "geometry": {"type": "LineString", "coordinates": [[20.47655, 49.41884, 698.9], [20.47659, 49.41882, 699.1], [20.47655, 49.41875, 699.0], [20.47645, 49.41871, 698.9], [20.47655, 49.41863, 698.8], [20.47645, 49.41871, 698.8], [20.47641, 49.41848, 698.6], [20.47642, 49.41842, 698.3], [20.47657, 49.41837, 697.4], [20.47658, 49.4183, 696.4], [20.47658, 49.41821, 694.6], [20.47643, 49.41791, 692.7], [20.47641, 49.41777, 690.8], [20.47631, 49.41719, 689.0], [20.47662, 49.41692, 687.5], [20.47679, 49.41675, 686.5], [20.47689, 49.41648, 685.8], [20.4769, 49.41638, 687.2], [20.47689, 49.41633, 688.8], [20.47691, 49.41624, 690.7], [20.4769, 49.41575, 692.5], [20.47691, 49.41567, 694.7], [20.47687, 49.41554, 698.0], [20.47688, 49.41547, 701.6], [20.47691, 49.41531, 704.4], [20.4769, 49.41483, 707.9], [20.47686, 49.41474, 711.3], [20.47685, 49.41463, 714.5], [20.47688, 49.41427, 717.4], [20.47668, 49.41409, 718.9], [20.47664, 49.41409, 719.9], [20.47654, 49.41409, 720.4], [20.47644, 49.41415, 720.4], [20.47634, 49.41422, 720.1], [20.47623, 49.41428, 719.7]]}}]}