{"type": "FeatureCollection", "features": [{"type": "Feature", "properties": {"id": "KP06", "nazwa": "Borsuczyny", "_zrodlo": "OpenStreetMap (route=hiking) + EU-DEM 25 m", "_licencja": "© OpenStreetMap contributors, ODbL"}, "geometry": {"type": "LineString", "coordinates": [[20.48259, 49.42514, 475.7], [20.48233, 49.42528, 475.0], [20.48206, 49.4254, 474.3], [20.48187, 49.42547, 473.2], [20.48166, 49.42555, 471.8], [20.48153, 49.4256, 470.5], [20.48131, 49.42569, 469.4], [20.48107, 49.42578, 468.5], [20.48103, 49.42574, 467.7], [20.48097, 49.42564, 467.2], [20.48099, 49.42562, 466.6], [20.48104, 49.42555, 466.0], [20.48079, 49.42555, 465.4], [20.48074, 49.42557, 464.3], [20.48064, 49.42542, 462.7], [20.48034, 49.4255, 461.7], [20.48031, 49.4252, 460.8], [20.48047, 49.42517, 460.0], [20.48054, 49.42512, 459.5], [20.48058, 49.42508, 459.2], [20.48059, 49.42503, 458.7], [20.48057, 49.42497, 458.3], [20.48038, 49.42468, 457.9], [20.48037, 49.42467, 457.8], [20.48036, 49.42465, 457.9], [20.48025, 49.42441, 458.1], [20.48023, 49.42436, 458.3], [20.48021, 49.42433, 458.5], [20.4804, 49.42429, 458.6], [20.48087, 49.42423, 458.9], [20.48126, 49.42415, 459.2], [20.48145, 49.42411, 459.5], [20.4822, 49.42392, 460.3], [20.48249, 49.42385, 461.2], [20.48231, 49.42361, 462.2], [20.48225, 49.42357, 463.2], [20.48217, 49.42354, 464.3], [20.48205, 49.42354, 465.0], [20.48196, 49.42356, 465.5], [20.48193, 49.42356, 466.2], [20.48176, 49.42362, 466.8], [20.48154, 49.42362, 467.4], [20.48149, 49.42361, 468.2], [20.48146, 49.42359, 469.1], [20.48147, 49.42356, 470.2], [20.48151, 49.4235, 471.8], [20.48165, 49.42339, 474.2], [20.48182, 49.42324, 478.2], [20.48194, 49.42309, 484.3], [20.48211, 49.42285, 490.8], [20.48225, 49.42257, 497.9], [20.48229, 49.42244, 505.2], [20.48228, 49.42231, 511.5], [20.48219, 49.42222, 516.4], [20.48203, 49.42223, 521.1], [20.48182, 49.42227, 525.4], [20.48153, 49.42233, 529.6], [20.48131, 49.42236, 534.7], [20.48103, 49.42238, 540.4], [20.48073, 49.42232, 546.9], [20.48053, 49.42223, 553.6], [20.48038, 49.42206, 560.1], [20.48031, 49.42194, 566.3], [20.48028, 49.42183, 572.3], [20.48019, 49.42161, 578.0], [20.48008, 49.42143, 582.9], [20.47994, 49.42127, 587.4], [20.47987, 49.42125, 591.2], [20.47974, 49.42124, 594.8], [20.47939, 49.42129, 598.2], [20.47889, 49.42132, 603.0], [20.47865, 49.42127, 609.0], [20.47828, 49.42114, 616.0], [20.47805, 49.42101, 622.9], [20.47773, 49.42091, 629.8], [20.4775, 49.42084, 635.9], [20.47724, 49.42079, 641.2], [20.47701, 49.4207, 645.6], [20.47685, 49.42059, 649.9], [20.47675, 49.42047, 653.7], [20.4767, 49.42029, 657.6], [20.47671, 49.42019, 661.7], [20.47669, 49.42002, 665.8], [20.47666, 49.41989, 669.7], [20.47668, 49.41978, 673.6], [20.47679, 49.41968, 677.1], [20.47689, 49.41963, 680.4], [20.47692, 49.41953, 683.5], [20.477, 49.41943, 685.9], [20.47708, 49.41937, 688.2], [20.47707, 49.41935, 689.9], [20.47697, 49.41929, 691.2], [20.47691, 49.41925, 692.2], [20.4769, 49.41919, 693.2], [20.47681, 49.41916, 694.1], [20.47681, 49.41915, 694.9], [20.47687, 49.4191, 695.6], [20.47687, 49.41906, 696.1], [20.47684, 49.41904, 696.3], [20.47673, 49.41903, 696.4], [20.47652, 49.41904, 696.4], [20.4764, 49.41899, 696.4], [20.47635, 49.41893, 696.4], [20.47633, 49.41892, 696.7], [20.47631, 49.41886, 697.3], [20.47633, 49.41881, 697.6], [20.47645, 49.41871, 697.9], [20.47641, 49.41848, 698.2], [20.47642, 49.41842, 698.4], [20.47657, 49.41837, 698.0], [20.47658, 49.4183, 696.7], [20.47658, 49.41821, 695.3], [20.4759, 49.41789, 693.5], [20.47585, 49.41779, 691.2], [20.47586, 49.41768, 688.9], [20.47618, 49.41733, 687.4], [20.47631, 49.41719, 686.3], [20.47662, 49.41692, 685.6], [20.47679, 49.41675, 685.5], [20.47689, 49.41648, 685.7], [20.4769, 49.41638, 686.1], [20.47689, 49.41633, 687.3], [20.47688, 49.41627, 689.2], [20.4768, 49.41597, 691.6], [20.47668, 49.41561, 695.4], [20.4767, 49.4154, 700.5], [20.47674, 49.41504, 705.2], [20.47678, 49.41472, 710.3], [20.47685, 49.41463, 714.9], [20.47688, 49.41427, 718.4], [20.47668, 49.41409, 720.5], [20.47682, 49.41393, 722.2], [20.47682, 49.4138, 722.5], [20.4768, 49.4137, 722.6], [20.47674, 49.41359, 722.5], [20.47664, 49.41367, 722.2], [20.4765, 49.41382, 721.7], [20.47644, 49.41389, 721.2], [20.47635, 49.41398, 720.3], [20.47623, 49.41408, 719.5], [20.4761, 49.41412, 719.3], [20.47623, 49.41408, 719.5], [20.47635, 49.41398, 720.3], [20.47644, 49.41389, 721.2], [20.4765, 49.41382, 721.7], [20.47664, 49.41367, 721.6], [20.47674, 49.41359, 721.0], [20.47681, 49.41343, 719.9], [20.4769, 49.41333, 718.4], [20.47704, 49.41318, 716.6], [20.47707, 49.41299, 714.6], [20.47711, 49.41284, 712.8], [20.47726, 49.41261, 711.0], [20.47733, 49.41251, 709.7], [20.47764, 49.41226, 708.7], [20.47796, 49.412, 708.2], [20.47817, 49.41185, 708.0], [20.47833, 49.41174, 708.2], [20.47843, 49.41166, 708.7], [20.47875, 49.41142, 709.5], [20.47902, 49.41132, 710.1], [20.4793, 49.41126, 710.3], [20.47939, 49.41121, 710.2], [20.47959, 49.411, 709.9], [20.47992, 49.41077, 709.5], [20.48007, 49.41073, 709.1], [20.48023, 49.41073, 709.0], [20.48045, 49.41062, 709.0], [20.48064, 49.41055, 708.9], [20.48083, 49.41052, 708.6], [20.48098, 49.41047, 708.0], [20.48111, 49.41034, 707.3], [20.48144, 49.41012, 706.6], [20.48158, 49.41009, 704.9], [20.48165, 49.41007, 702.9], [20.48241, 49.40978, 700.6], [20.48311, 49.40963, 698.2], [20.48378, 49.40959, 695.9], [20.48418, 49.40958, 694.5], [20.48435, 49.40957, 693.7], [20.48459, 49.40952, 693.5], [20.48475, 49.40946, 693.6], [20.48492, 49.4094, 693.9], [20.48529, 49.40924, 694.7], [20.48563, 49.40906, 696.2], [20.48594, 49.40897, 699.1], [20.48634, 49.40884, 703.0], [20.48688, 49.4087, 707.4], [20.48734, 49.40855, 711.4], [20.48794, 49.40846, 714.7], [20.48862, 49.40841, 717.1], [20.48871, 49.40833, 718.5], [20.48878, 49.40821, 720.7], [20.48879, 49.40819, 723.2], [20.48892, 49.40783, 725.7], [20.48924, 49.40741, 728.0], [20.48939, 49.40733, 730.6], [20.48954, 49.40725, 732.0], [20.48986, 49.40714, 733.7], [20.49001, 49.40698, 735.1], [20.49059, 49.40678, 735.9], [20.49085, 49.40674, 735.8], [20.49121, 49.40678, 734.3], [20.49147, 49.4068, 731.7], [20.49178, 49.40687, 728.7], [20.49195, 49.40688, 725.4], [20.49228, 49.40679, 722.5], [20.49262, 49.4068, 720.1], [20.49293, 49.40676, 718.2], [20.49327, 49.40672, 716.2], [20.49339, 49.40668, 714.6], [20.49361, 49.40661, 713.3], [20.49394, 49.40648, 712.7], [20.4943, 49.40625, 712.0], [20.4948, 49.40588, 711.8], [20.49502, 49.40579, 712.0], [20.49519, 49.40575, 712.2], [20.49548, 49.40567, 712.2], [20.49573, 49.4056, 712.6], [20.49595, 49.40557, 713.2], [20.49656, 49.40554, 713.8], [20.4967, 49.40554, 714.5], [20.49682, 49.40551, 715.3], [20.49707, 49.40546, 716.0], [20.49729, 49.40537, 717.1], [20.49734, 49.40532, 718.9], [20.49761, 49.40524, 720.6], [20.4981, 49.40511, 722.6], [20.4983, 49.40507, 724.8], [20.49856, 49.405, 726.9], [20.49877, 49.40492, 728.4], [20.49895, 49.40485, 729.9], [20.49913, 49.40482, 731.2], [20.49933, 49.40477, 732.4], [20.49954, 49.40469, 733.5], [20.49976, 49.40462, 734.6], [20.50003, 49.40454, 735.6], [20.50022, 49.40451, 736.5], [20.50044, 49.40447, 737.5], [20.50064, 49.40444, 738.3], [20.5008, 49.40438, 739.2], [20.50091, 49.40434, 740.2], [20.50105, 49.40433, 741.7], [20.50131, 49.40432, 743.3], [20.50173, 49.40425, 745.2], [20.50198, 49.40422, 747.1], [20.50221, 49.4042, 748.9], [20.50235, 49.4042, 750.3], [20.50248, 49.40419, 751.9], [20.50261, 49.40417, 753.2], [20.50309, 49.40409, 754.5], [20.50329, 49.40407, 755.6], [20.50352, 49.40401, 756.6], [20.50378, 49.40397, 757.1], [20.50414, 49.40386, 757.4], [20.50427, 49.40379, 757.7], [20.50436, 49.40374, 757.9], [20.50443, 49.40372, 758.0], [20.50453, 49.40372, 757.9], [20.50461, 49.40369, 757.7], [20.50475, 49.40364, 757.5], [20.50485, 49.4036, 757.5], [20.50493, 49.40352, 757.6], [20.50491, 49.40345, 757.6], [20.50494, 49.4034, 757.7], [20.50508, 49.40335, 757.7], [20.5052, 49.40327, 757.2], [20.50529, 49.4032, 756.5], [20.50557, 49.40288, 755.7], [20.50574, 49.40271, 754.5], [20.50604, 49.40255, 753.0], [20.50632, 49.40234, 751.7], [20.5065, 49.40226, 749.9], [20.50671, 49.40212, 748.4], [20.50726, 49.40176, 747.1], [20.50748, 49.40168, 746.7], [20.508, 49.40152, 748.0], [20.5086, 49.40121, 750.6], [20.50941, 49.40081, 756.8], [20.50975, 49.40057, 764.1], [20.51092, 49.39987, 771.8], [20.51116, 49.39964, 779.5], [20.51134, 49.39929, 787.1], [20.5115, 49.39886, 793.1], [20.51162, 49.39863, 799.3], [20.5119, 49.39786, 804.8], [20.51222, 49.39707, 809.3], [20.51236, 49.39677, 814.8], [20.51252, 49.39652, 818.4], [20.51418, 49.39545, 820.6], [20.51467, 49.39518, 822.4], [20.51488, 49.39509, 823.2], [20.51509, 49.39496, 822.0], [20.51578, 49.39474, 820.8], [20.51599, 49.39468, 819.7], [20.51619, 49.3946, 818.7], [20.51631, 49.39452, 818.7], [20.51645, 49.39436, 819.1], [20.51659, 49.39419, 820.3], [20.51672, 49.39409, 822.2], [20.51699, 49.39389, 824.4], [20.51716, 49.39372, 826.3], [20.51729, 49.39364, 828.2], [20.51746, 49.39359, 829.9], [20.51775, 49.39347, 830.3], [20.51833, 49.39317, 830.3], [20.51969, 49.39268, 829.4], [20.51978, 49.39264, 828.3], [20.52055, 49.39244, 827.3], [20.52096, 49.39231, 827.8], [20.52151, 49.3921, 831.3], [20.52219, 49.39175, 837.1], [20.52321, 49.39118, 843.4], [20.52352, 49.39096, 849.8], [20.52379, 49.39079, 855.5], [20.52403, 49.39068, 858.8], [20.52426, 49.39061, 862.1], [20.52459, 49.3905, 865.4], [20.52593, 49.39015, 868.6], [20.52684, 49.3898, 871.5], [20.52807, 49.38945, 874.1], [20.52922, 49.38911, 875.6], [20.53005, 49.38893, 877.0], [20.53069, 49.38886, 878.3], [20.5315, 49.38881, 879.8], [20.53223, 49.38874, 881.5], [20.53266, 49.3887, 883.0], [20.53323, 49.38861, 883.8], [20.53339, 49.3886, 884.4], [20.53356, 49.38861, 884.9], [20.53397, 49.38862, 885.0], [20.53421, 49.38863, 885.3], [20.53446, 49.38867, 885.5], [20.53502, 49.38874, 885.4], [20.5352, 49.38881, 884.8], [20.53534, 49.38891, 883.4], [20.53557, 49.38908, 880.8], [20.53568, 49.38925, 877.3], [20.53578, 49.38945, 873.2], [20.53584, 49.38963, 867.9], [20.53606, 49.38985, 862.7], [20.53611, 49.39029, 859.1], [20.53619, 49.39055, 858.2], [20.53611, 49.39029, 859.1], [20.53606, 49.38985, 862.7], [20.53584, 49.38963, 867.9], [20.53578, 49.38945, 873.2], [20.53568, 49.38925, 877.3], [20.53557, 49.38908, 880.8], [20.53534, 49.38891, 883.4], [20.5352, 49.38881, 884.8], [20.53502, 49.38874, 885.4], [20.53446, 49.38867, 885.5], [20.53421, 49.38863, 885.3], [20.53397, 49.38862, 885.0], [20.53356, 49.38861, 884.9], [20.53339, 49.3886, 884.4], [20.53323, 49.38861, 883.8], [20.53266, 49.3887, 883.0], [20.53223, 49.38874, 881.5], [20.5315, 49.38881, 879.8], [20.53069, 49.38886, 880.9], [20.53005, 49.38893, 884.2], [20.5316, 49.38831, 889.6], [20.53245, 49.38794, 897.6], [20.53322, 49.38757, 906.9], [20.53417, 49.38724, 914.8], [20.53467, 49.38706, 921.3], [20.53527, 49.38694, 926.0], [20.5359, 49.38689, 928.1], [20.53676, 49.38701, 929.1], [20.53735, 49.3871, 928.8], [20.5378, 49.38706, 927.5], [20.53845, 49.38696, 926.1], [20.53892, 49.38686, 924.7], [20.53934, 49.38675, 923.1], [20.53999, 49.38661, 923.0], [20.54045, 49.38651, 923.5], [20.54213, 49.38607, 925.3], [20.54256, 49.38594, 929.0], [20.5434, 49.38576, 933.5], [20.54443, 49.38562, 937.1], [20.54485, 49.38558, 938.8], [20.54538, 49.38558, 938.8], [20.5463, 49.38557, 938.6], [20.54648, 49.38556, 937.3]]}}]}