{"type": "FeatureCollection", "features": [{"type": "Feature", "properties": {"id": "KP11", "nazwa": "Aksamitka", "_zrodlo": "OpenStreetMap (route=hiking) + EU-DEM 25 m", "_licencja": "© OpenStreetMap contributors, ODbL"}, "geometry": {"type": "LineString", "coordinates": [[20.48259, 49.42514, 475.7], [20.48233, 49.42528, 475.0], [20.48206, 49.4254, 474.3], [20.48187, 49.42547, 473.2], [20.48166, 49.42555, 471.8], [20.48153, 49.4256, 470.5], [20.48131, 49.42569, 469.4], [20.48107, 49.42578, 468.5], [20.48103, 49.42574, 467.7], [20.48097, 49.42564, 467.2], [20.48099, 49.42562, 466.6], [20.48104, 49.42555, 466.0], [20.48079, 49.42555, 465.4], [20.48074, 49.42557, 464.3], [20.48064, 49.42542, 462.7], [20.48034, 49.4255, 461.7], [20.48031, 49.4252, 460.8], [20.48047, 49.42517, 460.0], [20.48054, 49.42512, 459.5], [20.48058, 49.42508, 459.2], [20.48059, 49.42503, 458.7], [20.48057, 49.42497, 458.3], [20.48038, 49.42468, 457.9], [20.48037, 49.42467, 457.8], [20.48036, 49.42465, 457.9], [20.48025, 49.42441, 458.1], [20.48023, 49.42436, 458.3], [20.48021, 49.42433, 458.5], [20.4804, 49.42429, 458.6], [20.48087, 49.42423, 458.9], [20.48126, 49.42415, 459.2], [20.48145, 49.42411, 459.5], [20.4822, 49.42392, 460.3], [20.48249, 49.42385, 461.2], [20.48231, 49.42361, 462.2], [20.48225, 49.42357, 463.2], [20.48217, 49.42354, 464.3], [20.48205, 49.42354, 465.0], [20.48196, 49.42356, 465.5], [20.48193, 49.42356, 466.2], [20.48176, 49.42362, 466.8], [20.48154, 49.42362, 467.4], [20.48149, 49.42361, 468.2], [20.48146, 49.42359, 469.1], [20.48147, 49.42356, 470.2], [20.48151, 49.4235, 471.8], [20.48165, 49.42339, 474.2], [20.48182, 49.42324, 478.2], [20.48194, 49.42309, 484.3], [20.48211, 49.42285, 490.8], [20.48225, 49.42257, 497.9], [20.48229, 49.42244, 505.2], [20.48228, 49.42231, 511.5], [20.48219, 49.42222, 516.4], [20.48203, 49.42223, 521.1], [20.48182, 49.42227, 525.4], [20.48153, 49.42233, 529.6], [20.48131, 49.42236, 534.7], [20.48103, 49.42238, 540.4], [20.48073, 49.42232, 546.9], [20.48053, 49.42223, 553.6], [20.48038, 49.42206, 560.1], [20.48031, 49.42194, 566.3], [20.48028, 49.42183, 572.3], [20.48019, 49.42161, 578.0], [20.48008, 49.42143, 582.9], [20.47994, 49.42127, 587.4], [20.47987, 49.42125, 591.2], [20.47974, 49.42124, 594.8], [20.47939, 49.42129, 598.2], [20.47889, 49.42132, 603.0], [20.47865, 49.42127, 609.0], [20.47828, 49.42114, 616.0], [20.47805, 49.42101, 622.9], [20.47773, 49.42091, 629.8], [20.4775, 49.42084, 635.9], [20.47724, 49.42079, 641.2], [20.47701, 49.4207, 645.6], [20.47685, 49.42059, 649.9], [20.47675, 49.42047, 653.7], [20.4767, 49.42029, 657.6], [20.47671, 49.42019, 661.7], [20.47669, 49.42002, 665.8], [20.47666, 49.41989, 669.7], [20.47668, 49.41978, 673.6], [20.47679, 49.41968, 677.1], [20.47689, 49.41963, 680.4], [20.47692, 49.41953, 683.5], [20.477, 49.41943, 685.9], [20.47708, 49.41937, 688.2], [20.47707, 49.41935, 689.9], [20.47697, 49.41929, 691.2], [20.47691, 49.41925, 692.2], [20.4769, 49.41919, 693.2], [20.47681, 49.41916, 694.1], [20.47681, 49.41915, 694.9], [20.47687, 49.4191, 695.6], [20.47687, 49.41906, 696.1], [20.47684, 49.41904, 696.3], [20.47673, 49.41903, 696.4], [20.47652, 49.41904, 696.4], [20.4764, 49.41899, 696.4], [20.47635, 49.41893, 696.4], [20.47633, 49.41892, 696.7], [20.47631, 49.41886, 697.3], [20.47633, 49.41881, 697.6], [20.47645, 49.41871, 697.9], [20.47641, 49.41848, 698.2], [20.47642, 49.41842, 698.4], [20.47657, 49.41837, 698.0], [20.47658, 49.4183, 696.7], [20.47658, 49.41821, 695.3], [20.4759, 49.41789, 693.5], [20.47585, 49.41779, 691.2], [20.47586, 49.41768, 688.9], [20.47618, 49.41733, 687.4], [20.47631, 49.41719, 686.3], [20.47662, 49.41692, 685.6], [20.47679, 49.41675, 685.5], [20.47689, 49.41648, 685.7], [20.4769, 49.41638, 686.1], [20.47689, 49.41633, 687.3], [20.47688, 49.41627, 689.2], [20.4768, 49.41597, 691.6], [20.47668, 49.41561, 695.4], [20.4767, 49.4154, 700.5], [20.47674, 49.41504, 705.2], [20.47678, 49.41472, 710.3], [20.47685, 49.41463, 714.9], [20.47688, 49.41427, 718.4], [20.47668, 49.41409, 720.5], [20.47682, 49.41393, 722.2], [20.47682, 49.4138, 722.5], [20.4768, 49.4137, 722.6], [20.47674, 49.41359, 722.5], [20.47664, 49.41367, 722.2], [20.4765, 49.41382, 721.7], [20.47644, 49.41389, 721.2], [20.47635, 49.41398, 720.3], [20.47623, 49.41408, 719.0], [20.4761, 49.41412, 717.3], [20.47601, 49.41414, 715.6], [20.4758, 49.41417, 714.1], [20.47574, 49.41419, 712.8], [20.47567, 49.41419, 711.5], [20.47566, 49.41423, 710.4], [20.47559, 49.41423, 709.5], [20.47549, 49.41425, 708.5], [20.47547, 49.41429, 707.2], [20.47537, 49.41429, 706.0], [20.47531, 49.41435, 703.5], [20.47525, 49.41436, 700.2], [20.47487, 49.4145, 696.5], [20.47462, 49.41457, 692.0], [20.47438, 49.41462, 687.2], [20.47412, 49.41473, 683.4], [20.47392, 49.41476, 680.1], [20.47375, 49.41483, 677.3], [20.47362, 49.41487, 675.0], [20.47348, 49.4149, 672.6], [20.47329, 49.41495, 670.2], [20.47292, 49.41512, 668.1], [20.47269, 49.41522, 665.9], [20.47259, 49.41526, 664.0], [20.47237, 49.41531, 662.6], [20.47233, 49.4152, 661.3], [20.47217, 49.41493, 660.1], [20.47211, 49.41476, 659.1], [20.4721, 49.41456, 657.9], [20.47208, 49.41452, 657.0], [20.47201, 49.41449, 656.2], [20.47198, 49.41443, 655.6], [20.47195, 49.41436, 655.2], [20.47198, 49.4143, 655.2], [20.47205, 49.41422, 655.4], [20.47215, 49.4141, 655.7], [20.47218, 49.41399, 655.8], [20.47222, 49.41374, 655.6], [20.47227, 49.41365, 655.1], [20.47226, 49.41351, 654.7], [20.47234, 49.41337, 654.5], [20.47238, 49.41332, 654.0], [20.47242, 49.41322, 653.5], [20.47244, 49.41306, 652.1], [20.47242, 49.41293, 650.0], [20.47231, 49.41278, 647.2], [20.47221, 49.41267, 644.5], [20.47218, 49.41251, 641.9], [20.47221, 49.41237, 640.0], [20.47233, 49.4122, 638.6], [20.47235, 49.41213, 636.4], [20.47233, 49.41208, 631.8], [20.47214, 49.4119, 626.0], [20.47142, 49.41147, 620.2], [20.4709, 49.4112, 614.2], [20.47074, 49.41113, 609.2], [20.47055, 49.41109, 606.5], [20.47033, 49.41101, 604.8], [20.47014, 49.41098, 603.1], [20.46999, 49.41097, 601.4], [20.46981, 49.41098, 599.9], [20.46954, 49.41103, 598.2], [20.46938, 49.41105, 596.2], [20.4691, 49.41109, 594.2], [20.46879, 49.41112, 592.0], [20.46866, 49.41113, 589.6], [20.46842, 49.41119, 587.1], [20.46823, 49.41122, 584.6], [20.46795, 49.41125, 582.0], [20.46773, 49.41123, 579.6], [20.46754, 49.41121, 576.6], [20.46731, 49.41114, 573.8], [20.46663, 49.41098, 571.1], [20.4663, 49.41087, 568.2], [20.46606, 49.4108, 564.9], [20.46575, 49.41076, 561.1], [20.46541, 49.41076, 555.9], [20.4649, 49.41076, 550.2], [20.46443, 49.41073, 544.0], [20.46423, 49.4107, 538.0], [20.46404, 49.41065, 531.4], [20.46391, 49.41061, 525.3], [20.46353, 49.41077, 518.1], [20.46328, 49.41085, 510.5], [20.46294, 49.41088, 501.8], [20.46265, 49.41092, 493.8], [20.46224, 49.41105, 486.2], [20.46175, 49.41122, 480.2], [20.46148, 49.41126, 475.1], [20.46128, 49.41128, 471.4], [20.46103, 49.41128, 468.8], [20.46083, 49.41129, 466.9], [20.46064, 49.41128, 465.3], [20.46046, 49.41124, 464.4], [20.46038, 49.41122, 463.7], [20.46035, 49.4112, 463.4], [20.46033, 49.41119, 463.3], [20.46033, 49.41116, 463.3], [20.46033, 49.4111, 463.3], [20.46034, 49.41104, 463.4], [20.46033, 49.41101, 463.4], [20.4603, 49.41098, 463.4], [20.46025, 49.41103, 463.4], [20.46019, 49.41108, 463.3], [20.46012, 49.41113, 463.3], [20.46008, 49.41115, 463.3], [20.46001, 49.41119, 463.1], [20.45995, 49.41122, 461.9], [20.45929, 49.4115, 459.9], [20.45843, 49.41186, 457.5], [20.45792, 49.41207, 455.0], [20.45762, 49.41219, 452.5], [20.4575, 49.41227, 451.1], [20.45739, 49.41233, 451.0], [20.45726, 49.4124, 451.4], [20.45705, 49.41253, 452.2], [20.45693, 49.41259, 453.2], [20.45682, 49.41266, 455.0], [20.45677, 49.41268, 457.1], [20.45656, 49.4128, 459.8], [20.45629, 49.41287, 464.4], [20.45602, 49.41295, 470.1], [20.45524, 49.41313, 475.5], [20.45475, 49.41323, 480.3], [20.45446, 49.4133, 484.6], [20.45434, 49.41333, 487.2], [20.45422, 49.41336, 489.0], [20.45409, 49.41342, 490.5], [20.45397, 49.41348, 492.0], [20.45386, 49.41354, 494.4], [20.45377, 49.4136, 496.6], [20.4535, 49.41384, 498.6], [20.45336, 49.41393, 502.1], [20.45322, 49.414, 506.1], [20.45217, 49.41448, 509.0], [20.45199, 49.41457, 511.7], [20.45195, 49.41458, 514.4], [20.45178, 49.41465, 515.4], [20.45164, 49.41468, 515.6], [20.4515, 49.41469, 514.9], [20.45122, 49.4147, 513.2], [20.45099, 49.41466, 510.7], [20.45077, 49.41461, 507.0], [20.45065, 49.41457, 502.1], [20.45053, 49.4145, 496.6], [20.45042, 49.41443, 490.5], [20.45034, 49.41435, 482.3], [20.45028, 49.41425, 473.7], [20.45016, 49.41406, 466.0], [20.45011, 49.41398, 460.1], [20.45028, 49.4139, 457.1], [20.45011, 49.41398, 460.1], [20.45016, 49.41406, 466.0], [20.45028, 49.41425, 473.7], [20.45034, 49.41435, 482.3], [20.45042, 49.41443, 490.5], [20.45053, 49.4145, 496.6], [20.45065, 49.41457, 502.1], [20.45077, 49.41461, 507.0], [20.45099, 49.41466, 510.7], [20.45122, 49.4147, 513.2], [20.4515, 49.41469, 514.9], [20.45164, 49.41468, 515.6], [20.45178, 49.41465, 515.4], [20.45195, 49.41458, 514.4], [20.45199, 49.41457, 511.7], [20.45217, 49.41448, 509.0], [20.45322, 49.414, 506.1], [20.45336, 49.41393, 502.1], [20.4535, 49.41384, 498.6], [20.45377, 49.4136, 496.6], [20.45386, 49.41354, 494.4], [20.45397, 49.41348, 492.0], [20.45409, 49.41342, 490.5], [20.45422, 49.41336, 489.0], [20.45434, 49.41333, 487.2], [20.45446, 49.4133, 484.6], [20.45475, 49.41323, 480.3], [20.45524, 49.41313, 475.5], [20.45602, 49.41295, 470.1], [20.45629, 49.41287, 464.4], [20.45656, 49.4128, 459.8], [20.45677, 49.41268, 457.1], [20.45682, 49.41266, 455.0], [20.45693, 49.41259, 453.2], [20.45705, 49.41253, 452.2], [20.45726, 49.4124, 451.4], [20.45739, 49.41233, 451.0], [20.4575, 49.41227, 451.1], [20.45762, 49.41219, 452.5], [20.45792, 49.41207, 455.0], [20.45843, 49.41186, 457.5], [20.45929, 49.4115, 459.9], [20.45995, 49.41122, 461.9], [20.46001, 49.41119, 463.1], [20.46008, 49.41115, 463.3], [20.46012, 49.41113, 463.3], [20.46019, 49.41108, 463.3], [20.46025, 49.41103, 463.4], [20.4603, 49.41098, 463.4], [20.46034, 49.41093, 463.4], [20.4604, 49.41085, 463.6], [20.46072, 49.41039, 463.8], [20.46102, 49.40993, 464.3], [20.46112, 49.4098, 465.0], [20.46123, 49.40968, 466.9], [20.46149, 49.40943, 469.2], [20.46244, 49.40854, 471.6], [20.46332, 49.40773, 474.0], [20.46337, 49.40769, 476.3], [20.4638, 49.40727, 477.4], [20.464, 49.40709, 477.9], [20.46413, 49.407, 478.5], [20.46425, 49.40692, 478.9], [20.46444, 49.40681, 479.4], [20.46455, 49.40673, 480.5], [20.46471, 49.40661, 482.2], [20.46504, 49.40624, 483.9], [20.46539, 49.40591, 485.5], [20.4657, 49.40557, 486.9], [20.4658, 49.40546, 487.5], [20.46592, 49.40536, 487.4], [20.46615, 49.40516, 486.9], [20.46628, 49.40506, 486.4], [20.46685, 49.40458, 486.1], [20.46699, 49.4044, 486.3], [20.46708, 49.40427, 486.7], [20.46741, 49.40403, 487.5], [20.46751, 49.40393, 488.3], [20.46758, 49.40383, 489.0], [20.46763, 49.40371, 489.4], [20.46764, 49.40357, 489.6], [20.46762, 49.40343, 489.8], [20.46758, 49.40336, 489.9], [20.46758, 49.40331, 489.9], [20.46759, 49.40329, 490.0], [20.46761, 49.40327, 490.4], [20.46766, 49.40324, 491.1], [20.46784, 49.40315, 492.3], [20.46805, 49.40308, 493.8], [20.46846, 49.40299, 495.6], [20.46879, 49.40291, 497.0], [20.46903, 49.40286, 498.0], [20.46916, 49.40281, 498.5], [20.46927, 49.40277, 498.4], [20.46947, 49.40268, 497.9], [20.46969, 49.40257, 497.4], [20.4698, 49.40249, 497.0], [20.47024, 49.40218, 496.9], [20.47037, 49.40207, 497.3], [20.47074, 49.40179, 498.5], [20.47105, 49.4016, 499.9], [20.47184, 49.40113, 501.5], [20.47237, 49.40066, 502.9], [20.47271, 49.40039, 504.0], [20.47295, 49.40016, 504.5], [20.47286, 49.40001, 505.2], [20.47282, 49.39995, 506.2], [20.47267, 49.39975, 507.6], [20.47251, 49.39961, 509.6], [20.47239, 49.3995, 512.4], [20.4722, 49.39937, 515.5], [20.47192, 49.3992, 518.3], [20.47155, 49.39898, 521.0], [20.4715, 49.39895, 523.3], [20.47123, 49.39883, 525.0], [20.47082, 49.39867, 525.9], [20.47054, 49.39858, 526.7], [20.47043, 49.39851, 527.3], [20.4703, 49.39844, 527.9], [20.47021, 49.3984, 528.3], [20.47012, 49.39837, 529.1], [20.46996, 49.39833, 530.0], [20.46971, 49.39827, 531.2], [20.4695, 49.3982, 532.6], [20.46938, 49.39814, 534.4], [20.46918, 49.39804, 536.1], [20.46889, 49.39787, 537.9], [20.46867, 49.39772, 540.0], [20.46833, 49.39755, 541.9], [20.46796, 49.39744, 543.6], [20.46782, 49.39738, 545.3], [20.46765, 49.39729, 547.3], [20.46742, 49.39712, 549.2], [20.46725, 49.39704, 551.1], [20.46703, 49.39693, 553.0], [20.46693, 49.39687, 554.1], [20.46688, 49.39679, 553.9], [20.46697, 49.39678, 552.6], [20.46729, 49.39676, 550.7], [20.46745, 49.39678, 548.7], [20.46772, 49.39677, 548.0], [20.46797, 49.39674, 549.3], [20.46899, 49.39651, 551.7], [20.4696, 49.39641, 556.3], [20.46985, 49.39632, 561.6], [20.47038, 49.39612, 566.4], [20.47064, 49.39599, 570.3], [20.47086, 49.39587, 574.0], [20.47096, 49.39579, 576.5], [20.47105, 49.39566, 579.1], [20.47112, 49.39552, 582.2], [20.47118, 49.39529, 585.1], [20.47124, 49.39502, 588.8], [20.47123, 49.39499, 593.9], [20.47107, 49.39476, 598.8], [20.47076, 49.39438, 603.1], [20.4706, 49.3942, 607.8], [20.47051, 49.39413, 612.2], [20.47037, 49.39406, 615.4], [20.47007, 49.39393, 618.6], [20.46976, 49.39384, 621.4], [20.46942, 49.39369, 623.7], [20.46924, 49.39355, 625.0], [20.46915, 49.39345, 625.5], [20.46909, 49.3934, 625.4], [20.46905, 49.39334, 625.3], [20.46905, 49.39329, 625.4], [20.46903, 49.39322, 625.8], [20.469, 49.39307, 626.9], [20.46899, 49.39296, 628.3], [20.46888, 49.39265, 631.2], [20.46886, 49.39254, 637.3], [20.46879, 49.39215, 643.7], [20.46879, 49.39144, 649.6], [20.46881, 49.39131, 655.3], [20.4688, 49.39122, 659.8], [20.46874, 49.39112, 661.2], [20.4687, 49.391, 662.7], [20.46871, 49.3909, 664.4], [20.46879, 49.39068, 666.3], [20.46883, 49.39052, 668.5], [20.46882, 49.3904, 671.0], [20.46883, 49.39028, 673.5], [20.46881, 49.39015, 676.2], [20.46882, 49.38999, 678.7], [20.46888, 49.38985, 681.0], [20.46897, 49.3898, 683.0], [20.46899, 49.38974, 684.9], [20.46896, 49.3897, 686.6], [20.4687, 49.38953, 688.4], [20.46862, 49.38945, 690.5], [20.4685, 49.38938, 693.2], [20.46838, 49.38927, 695.6], [20.46834, 49.38917, 698.5], [20.46829, 49.38912, 701.3], [20.46804, 49.38896, 704.5], [20.46784, 49.38888, 707.5], [20.46753, 49.38873, 711.6], [20.46722, 49.38863, 715.9], [20.46663, 49.38851, 720.3], [20.46623, 49.38847, 724.0], [20.46613, 49.38845, 728.1], [20.46602, 49.38845, 731.5], [20.46575, 49.38842, 736.0], [20.46562, 49.38837, 741.4], [20.4653, 49.38819, 748.5], [20.46505, 49.3881, 755.1], [20.46467, 49.3879, 761.4], [20.46458, 49.38785, 765.9], [20.46439, 49.38779, 769.4], [20.46418, 49.38774, 771.6], [20.46402, 49.38771, 773.8], [20.46384, 49.38764, 775.7], [20.46373, 49.38758, 777.5], [20.46364, 49.38755, 779.3], [20.46357, 49.38751, 781.3], [20.46346, 49.38749, 783.3], [20.46302, 49.38746, 785.5], [20.46287, 49.38741, 787.5], [20.46273, 49.38739, 789.6], [20.46268, 49.38738, 791.2], [20.46259, 49.38735, 792.5], [20.46254, 49.38733, 793.6], [20.46249, 49.38732, 794.7], [20.4624, 49.38732, 795.7], [20.46236, 49.38731, 797.0], [20.46232, 49.38728, 799.3], [20.46222, 49.38723, 801.8], [20.46192, 49.38714, 804.7], [20.46185, 49.38708, 807.8], [20.46175, 49.38702, 810.9], [20.46172, 49.38696, 813.5], [20.46156, 49.38691, 816.6], [20.46147, 49.38683, 820.3], [20.46136, 49.38668, 824.2], [20.46127, 49.3865, 828.1], [20.4612, 49.3864, 831.0], [20.4612, 49.38624, 832.5], [20.46154, 49.38626, 832.3], [20.4618, 49.3863, 830.5], [20.4622, 49.38631, 827.9], [20.46258, 49.38642, 825.8], [20.4628, 49.38641, 823.9], [20.46304, 49.38639, 822.1], [20.46337, 49.3863, 821.1], [20.46383, 49.38632, 820.1], [20.46428, 49.38629, 818.4], [20.46443, 49.38632, 814.6], [20.46486, 49.38643, 809.8], [20.46605, 49.38657, 804.6], [20.46661, 49.38668, 799.3], [20.46685, 49.38672, 794.9], [20.46715, 49.38676, 792.9], [20.46739, 49.38675, 792.3], [20.4676, 49.38671, 792.2], [20.4679, 49.38674, 792.6], [20.4682, 49.38678, 793.1], [20.46851, 49.38676, 793.9], [20.46865, 49.38679, 795.4], [20.46894, 49.38673, 797.3], [20.46916, 49.38665, 798.7], [20.46955, 49.38643, 800.1], [20.46994, 49.38626, 801.4], [20.47005, 49.38615, 802.6], [20.47007, 49.38589, 803.5], [20.47009, 49.38566, 804.7], [20.47012, 49.38549, 806.0], [20.47017, 49.38541, 807.0], [20.47036, 49.38535, 808.6], [20.47049, 49.3853, 809.2], [20.4708, 49.38513, 809.9]]}}]}