{"type": "FeatureCollection", "features": [{"type": "Feature", "properties": {"id": "KP24", "nazwa": "Majerz", "_zrodlo": "OpenStreetMap (route=hiking) + EU-DEM 25 m", "_licencja": "© OpenStreetMap contributors, ODbL"}, "geometry": {"type": "LineString", "coordinates": [[20.33141, 49.4381, 653.6], [20.3315, 49.43805, 653.3], [20.33204, 49.43773, 653.1], [20.3325, 49.43757, 652.7], [20.33262, 49.43753, 652.2], [20.33262, 49.43743, 652.1], [20.33268, 49.43732, 652.1], [20.33275, 49.43726, 652.2], [20.33285, 49.43723, 652.9], [20.33296, 49.43725, 653.6], [20.33325, 49.43738, 654.4], [20.33343, 49.43723, 655.1], [20.33351, 49.43718, 655.8], [20.3336, 49.43718, 656.1], [20.33367, 49.4372, 656.4], [20.3337, 49.43723, 656.9], [20.33376, 49.43739, 657.4], [20.33393, 49.43732, 657.9], [20.33409, 49.43723, 658.6], [20.33425, 49.43712, 659.2], [20.33437, 49.43694, 659.8], [20.33447, 49.43666, 660.3], [20.33456, 49.43653, 660.7], [20.3347, 49.4363, 661.1], [20.33477, 49.43624, 661.6], [20.33499, 49.43607, 662.5], [20.33557, 49.43576, 663.9], [20.33606, 49.43554, 666.3], [20.33672, 49.43523, 669.1], [20.33756, 49.43492, 671.9], [20.33794, 49.43476, 674.4], [20.33829, 49.43468, 677.3], [20.33877, 49.43452, 679.3], [20.34039, 49.4339, 680.8], [20.34139, 49.43357, 681.7], [20.34151, 49.43353, 683.0]]}}]}