{"type": "FeatureCollection", "features": [{"type": "Feature", "properties": {"id": "R1", "nazwa": "Rowerem do Czerwonego Klasztoru", "_zrodlo": "OpenStreetMap (drogi przejezdne rowerem) + EU-DEM 25 m", "_licencja": "(c) OpenStreetMap contributors, ODbL"}, "geometry": {"type": "LineString", "coordinates": [[20.45875, 49.42537, 431.0], [20.4588, 49.4254, 430.1], [20.45909, 49.42506, 429.8], [20.45956, 49.42444, 429.3], [20.46001, 49.4239, 428.9], [20.46012, 49.42375, 429.0], [20.46022, 49.42358, 429.6], [20.4602, 49.42349, 429.9], [20.4602, 49.42345, 429.9], [20.46013, 49.42335, 429.7], [20.45995, 49.42316, 429.5], [20.4597, 49.42286, 429.3], [20.45953, 49.42263, 429.3], [20.45929, 49.42232, 432.2], [20.45915, 49.42209, 435.2], [20.45898, 49.42131, 438.8], [20.45892, 49.42115, 443.6], [20.45868, 49.42074, 449.1], [20.45843, 49.42042, 451.9], [20.45812, 49.42008, 454.4], [20.45793, 49.41986, 455.1], [20.45767, 49.41965, 453.5], [20.4571, 49.41924, 450.8], [20.4564, 49.41865, 447.9], [20.45627, 49.41856, 445.3], [20.456, 49.41837, 443.9], [20.45588, 49.41829, 443.6], [20.4554, 49.41806, 443.4], [20.455, 49.4179, 443.2], [20.45459, 49.41777, 442.6], [20.45421, 49.41764, 441.6], [20.45381, 49.41752, 440.2], [20.4537, 49.41748, 438.4], [20.45359, 49.41746, 436.5], [20.45341, 49.41743, 434.8], [20.45293, 49.41734, 433.4], [20.45268, 49.41729, 432.6], [20.45251, 49.41725, 432.3], [20.45235, 49.41719, 432.4], [20.45223, 49.41713, 432.8], [20.45214, 49.41709, 433.3], [20.45203, 49.41703, 433.5], [20.45191, 49.41698, 433.3], [20.45174, 49.41695, 432.7], [20.45155, 49.41695, 432.0], [20.45136, 49.41694, 431.1], [20.4512, 49.41691, 430.5], [20.45093, 49.41685, 430.4], [20.45071, 49.41676, 431.0], [20.45051, 49.41667, 432.2], [20.45027, 49.41658, 434.3], [20.45006, 49.41652, 436.2], [20.44985, 49.4165, 437.7], [20.44969, 49.41649, 438.6], [20.4494, 49.41651, 438.3], [20.44909, 49.41653, 436.9], [20.44885, 49.41656, 435.5], [20.44865, 49.4166, 434.1], [20.44846, 49.41663, 432.9], [20.44822, 49.41664, 432.1], [20.44804, 49.41665, 431.5], [20.44777, 49.41664, 431.0], [20.44752, 49.41663, 430.5], [20.44728, 49.4166, 430.1], [20.44715, 49.41656, 429.9], [20.44701, 49.41652, 429.9], [20.44684, 49.41647, 430.0], [20.44664, 49.4164, 430.4], [20.44653, 49.41633, 430.9], [20.44652, 49.41627, 432.4], [20.44652, 49.41625, 433.9], [20.44662, 49.41604, 436.6], [20.44661, 49.416, 440.7], [20.44668, 49.4159, 445.0], [20.4468, 49.41573, 445.8], [20.44685, 49.41559, 446.5], [20.44796, 49.41472, 446.0], [20.44833, 49.41446, 444.0], [20.44864, 49.41431, 441.6], [20.4488, 49.41423, 441.4], [20.44892, 49.41415, 441.0], [20.44896, 49.41413, 440.1], [20.44905, 49.41406, 438.9], [20.44917, 49.41397, 437.6], [20.44926, 49.41392, 436.4], [20.44938, 49.41387, 436.1], [20.44954, 49.41385, 436.8], [20.4497, 49.41385, 438.4], [20.44981, 49.41386, 442.4], [20.4499, 49.41388, 446.0], [20.45011, 49.41398, 448.5], [20.45028, 49.4139, 450.0], [20.45035, 49.41384, 449.8], [20.45038, 49.41381, 446.6], [20.45043, 49.41373, 442.9], [20.45055, 49.41362, 440.2], [20.45077, 49.41346, 437.9], [20.45145, 49.41316, 436.1], [20.45158, 49.41304, 435.6], [20.45162, 49.41291, 436.2], [20.45164, 49.41273, 436.2], [20.45162, 49.41259, 436.5], [20.45148, 49.41242, 437.5], [20.45128, 49.41224, 439.5], [20.45106, 49.41211, 442.0], [20.45081, 49.41199, 443.3], [20.45056, 49.4119, 443.6], [20.45028, 49.41185, 442.9], [20.45006, 49.41186, 441.5], [20.4498, 49.41188, 440.9], [20.44948, 49.41184, 442.4], [20.449, 49.41175, 444.9], [20.44864, 49.4117, 447.7], [20.44823, 49.41168, 450.5], [20.44791, 49.41167, 453.0], [20.44757, 49.41165, 454.1], [20.44683, 49.41162, 454.0], [20.4464, 49.41164, 454.0], [20.44603, 49.41171, 453.7], [20.44543, 49.41187, 452.2], [20.44496, 49.412, 451.1], [20.44453, 49.41219, 451.1], [20.44429, 49.41231, 449.4], [20.44394, 49.41255, 446.5], [20.44353, 49.41298, 443.2], [20.44312, 49.41335, 440.1], [20.44288, 49.41351, 437.2], [20.44247, 49.41372, 435.9], [20.44181, 49.41389, 435.3], [20.4412, 49.41404, 435.3], [20.44047, 49.41415, 434.7], [20.44008, 49.41419, 435.2], [20.43911, 49.41422, 436.4], [20.43875, 49.41425, 438.3], [20.43855, 49.41429, 440.5], [20.43831, 49.41435, 442.8], [20.43792, 49.41451, 444.6], [20.43776, 49.4147, 444.9], [20.43745, 49.41499, 443.9], [20.43704, 49.41552, 442.8], [20.43691, 49.41593, 441.3], [20.43677, 49.41641, 439.0], [20.43665, 49.41687, 437.3], [20.43652, 49.41718, 437.0], [20.43645, 49.41726, 436.5], [20.43624, 49.41737, 436.8], [20.43603, 49.41743, 437.6], [20.43571, 49.41746, 439.7], [20.43458, 49.41746, 440.6], [20.43358, 49.41735, 441.0], [20.43285, 49.41721, 442.6], [20.43227, 49.41705, 443.8], [20.43147, 49.41667, 444.8], [20.43101, 49.41643, 446.0], [20.43076, 49.41625, 448.9], [20.43056, 49.41606, 451.0], [20.43048, 49.41589, 452.4], [20.43042, 49.41574, 452.9], [20.43024, 49.41524, 452.5], [20.43012, 49.41491, 450.3], [20.42995, 49.41431, 447.3], [20.42989, 49.41395, 444.6], [20.42974, 49.41291, 441.9], [20.42965, 49.4126, 440.4], [20.42953, 49.41232, 439.7], [20.4295, 49.41215, 440.5], [20.42953, 49.41203, 442.1], [20.4298, 49.41139, 445.0], [20.42983, 49.41118, 449.0], [20.42985, 49.41076, 451.7], [20.42984, 49.41046, 451.4], [20.4298, 49.40989, 449.4], [20.42969, 49.40938, 446.3], [20.42929, 49.40858, 442.2], [20.42918, 49.40837, 439.2], [20.42917, 49.40828, 437.8], [20.42923, 49.40815, 437.8], [20.42938, 49.40809, 437.8], [20.42962, 49.40806, 437.8], [20.42988, 49.40805, 437.9], [20.43026, 49.40811, 437.9], [20.43052, 49.40817, 439.2], [20.43083, 49.40828, 439.9], [20.43107, 49.40836, 441.1], [20.43129, 49.4084, 443.1], [20.43188, 49.40847, 446.7], [20.43242, 49.40848, 448.5], [20.43328, 49.40848, 450.4], [20.43358, 49.40845, 451.2], [20.43405, 49.40839, 451.8], [20.43517, 49.40815, 451.3], [20.43581, 49.40792, 451.0], [20.43668, 49.40751, 450.9], [20.43696, 49.40733, 451.1], [20.43716, 49.40718, 450.5], [20.43734, 49.40696, 448.7], [20.43748, 49.40669, 447.5], [20.43752, 49.40635, 446.4], [20.43749, 49.40575, 447.9], [20.43738, 49.40539, 449.4], [20.43651, 49.40402, 450.3], [20.43649, 49.40398, 451.2], [20.43633, 49.40388, 452.1], [20.43615, 49.40366, 451.3], [20.43562, 49.40293, 451.2], [20.43534, 49.40257, 452.4], [20.43521, 49.40235, 453.8], [20.43515, 49.40215, 453.0], [20.43512, 49.40185, 451.7], [20.43516, 49.40131, 450.1], [20.43556, 49.40063, 448.9], [20.43561, 49.40048, 447.5], [20.43569, 49.40008, 448.3], [20.43569, 49.40001, 449.7], [20.43569, 49.39995, 451.2], [20.4357, 49.39932, 450.2], [20.43555, 49.39886, 449.3], [20.43471, 49.39749, 448.4], [20.43438, 49.39704, 447.4], [20.43431, 49.39696, 446.5], [20.43418, 49.39676, 447.4], [20.43391, 49.39654, 447.1], [20.4337, 49.39639, 446.6], [20.43303, 49.39611, 446.3], [20.43248, 49.39586, 445.3], [20.43206, 49.39567, 445.8], [20.43177, 49.39555, 449.9], [20.43162, 49.39553, 454.7], [20.43137, 49.39553, 459.6], [20.43109, 49.39555, 464.3], [20.43088, 49.39561, 466.9], [20.43061, 49.39575, 466.0], [20.43035, 49.39595, 461.8], [20.42995, 49.39638, 457.6], [20.42959, 49.39708, 453.2], [20.42946, 49.39733, 449.2], [20.42914, 49.398, 447.2], [20.42895, 49.39872, 448.2], [20.42757, 49.40186, 449.4], [20.42727, 49.4021, 452.2], [20.42697, 49.40225, 454.1], [20.42623, 49.40253, 455.3], [20.42544, 49.40272, 455.4], [20.42503, 49.40285, 454.7], [20.42429, 49.40311, 453.5], [20.42281, 49.40379, 453.5], [20.42151, 49.40441, 452.8], [20.42124, 49.40457, 452.4], [20.42079, 49.40484, 451.8], [20.42037, 49.40508, 450.9], [20.41986, 49.40526, 450.3], [20.41935, 49.40537, 451.4], [20.4191, 49.40541, 454.1], [20.41873, 49.40539, 456.8], [20.41831, 49.4054, 459.0], [20.41783, 49.4054, 460.1], [20.41738, 49.40531, 458.9], [20.41701, 49.40519, 457.2], [20.41676, 49.40508, 457.4], [20.41663, 49.405, 458.3], [20.41648, 49.40484, 460.3], [20.41644, 49.40469, 464.3], [20.41643, 49.40452, 467.7], [20.41642, 49.40421, 468.7], [20.41641, 49.4037, 469.2], [20.41643, 49.4034, 469.1], [20.41647, 49.40325, 468.2], [20.41656, 49.40309, 467.2], [20.41665, 49.40294, 466.6], [20.41674, 49.40278, 466.1], [20.41685, 49.40247, 466.0], [20.41686, 49.40227, 466.0], [20.41687, 49.40192, 465.7], [20.41687, 49.40185, 465.0], [20.41681, 49.40161, 464.1], [20.41667, 49.40117, 462.9], [20.41662, 49.40092, 461.8], [20.41652, 49.4008, 461.0], [20.41647, 49.40074, 460.7], [20.41639, 49.4007, 460.7], [20.41634, 49.40067, 460.8], [20.41631, 49.40062, 460.9], [20.41627, 49.40048, 461.1], [20.41625, 49.4004, 461.2], [20.41626, 49.40032, 461.2], [20.41626, 49.40024, 461.3], [20.41633, 49.40013, 461.4], [20.41641, 49.40002, 461.6], [20.41648, 49.39992, 461.8], [20.41657, 49.39984, 462.1], [20.41655, 49.39982, 462.8], [20.4164, 49.39965, 463.6], [20.41621, 49.39943, 464.3], [20.41613, 49.39933, 465.2], [20.41604, 49.39924, 466.4], [20.41617, 49.39919, 467.4], [20.41631, 49.39914, 468.5], [20.41644, 49.39905, 469.7], [20.4165, 49.39901, 470.6], [20.41658, 49.39897, 471.4], [20.41662, 49.39896, 471.8], [20.41658, 49.39892, 472.2], [20.41649, 49.39884, 472.7], [20.41666, 49.3987, 473.3], [20.41668, 49.39867, 474.0], [20.41675, 49.39857, 474.6], [20.41679, 49.39852, 474.7], [20.41685, 49.39854, 475.0], [20.4171, 49.39865, 475.0]]}}]}