{"type": "FeatureCollection", "features": [{"type": "Feature", "properties": {"id": "1A", "nazwa": "Słowacki akcent", "_zrodlo": "Slad GPX (slowacki-akcent-1a.gpx) + EU-DEM 25 m"}, "geometry": {"type": "LineString", "coordinates": [[20.46807, 49.42647, 448.0], [20.47038, 49.4258, 449.1], [20.47088, 49.42577, 450.1], [20.47249, 49.42598, 451.5], [20.47336, 49.42592, 452.6], [20.47488, 49.42576, 454.3], [20.47874, 49.42502, 455.8], [20.47953, 49.4259, 456.9], [20.48026, 49.42554, 457.9], [20.48031, 49.42521, 459.5], [20.48056, 49.42513, 461.2], [20.48022, 49.42432, 463.9], [20.48129, 49.42414, 469.7], [20.48191, 49.42362, 476.0], [20.48145, 49.42356, 484.8], [20.4819, 49.42312, 494.5], [20.4823, 49.42227, 505.5], [20.4822, 49.4222, 518.7], [20.48106, 49.42237, 532.7], [20.48071, 49.42231, 547.5], [20.48035, 49.42219, 563.7], [20.48022, 49.4216, 578.1], [20.47989, 49.42126, 593.2], [20.47876, 49.42132, 607.1], [20.47797, 49.42096, 620.8], [20.47716, 49.42079, 635.0], [20.47671, 49.42047, 647.2], [20.47687, 49.42006, 658.3], [20.47671, 49.41986, 668.6], [20.47702, 49.41947, 676.4], [20.47672, 49.41939, 682.8], [20.47687, 49.41929, 687.7], [20.47634, 49.41899, 691.4], [20.47628, 49.41883, 693.7], [20.47653, 49.41872, 693.6], [20.47643, 49.41843, 693.4], [20.47657, 49.41821, 696.8], [20.47585, 49.4178, 699.4], [20.47676, 49.41684, 695.3], [20.4769, 49.4164, 689.7], [20.47674, 49.41359, 683.4], [20.47624, 49.41405, 675.0], [20.47208, 49.41542, 665.9], [20.47084, 49.41571, 657.4], [20.46981, 49.41547, 648.1], [20.46661, 49.41605, 635.5], [20.46426, 49.41603, 621.9], [20.46456, 49.4156, 614.4], [20.46873, 49.41364, 607.6], [20.46944, 49.41348, 600.5], [20.46923, 49.4131, 594.2], [20.46952, 49.4124, 585.1], [20.46885, 49.41176, 575.2], [20.46751, 49.41121, 565.3], [20.46596, 49.41078, 552.0], [20.4639, 49.4106, 539.9], [20.4638, 49.41026, 528.1], [20.46432, 49.40944, 516.1], [20.46466, 49.40778, 505.1], [20.46494, 49.40745, 494.2], [20.465, 49.40713, 487.0], [20.46471, 49.4066, 480.8], [20.46391, 49.40715, 473.8], [20.46129, 49.40962, 470.6], [20.46033, 49.41101, 471.0], [20.45993, 49.41125, 472.7], [20.45755, 49.41222, 476.5], [20.45657, 49.4128, 479.8], [20.45399, 49.41346, 478.2], [20.45351, 49.41385, 475.1], [20.45178, 49.41464, 472.6], [20.45077, 49.41462, 471.2], [20.45005, 49.41395, 468.0], [20.44932, 49.41389, 461.3], [20.44842, 49.41441, 454.3], [20.44648, 49.41589, 446.2], [20.44644, 49.41627, 439.1], [20.44764, 49.41663, 439.8], [20.44998, 49.41652, 441.2], [20.45405, 49.41757, 439.9], [20.45539, 49.41806, 439.1], [20.45795, 49.41985, 439.7], [20.45869, 49.42073, 440.7], [20.45915, 49.42207, 440.8], [20.46021, 49.42343, 441.0], [20.46172, 49.42396, 441.1], [20.46339, 49.42403, 439.3], [20.46328, 49.42442, 438.7], [20.46544, 49.42475, 440.2], [20.46581, 49.42493, 441.4], [20.46631, 49.42602, 442.2], [20.46684, 49.4263, 442.6], [20.46807, 49.42647, 443.3]]}}]}