{"type": "FeatureCollection", "_uwaga": "Generowane: tools/trasy/kolory_odcinkow.py. Nie edytować ręcznie.", "features": [{"type": "Feature", "properties": {"kolor": "niebieski"}, "geometry": {"type": "LineString", "coordinates": [[20.48256, 49.42522, 507.5], [20.48466, 49.42617, 510.8], [20.4863, 49.4277, 512.6], [20.48685, 49.42863, 513.2], [20.48732, 49.42885, 512.6], [20.48785, 49.42873, 518.0], [20.4874, 49.42846, 521.1], [20.48716, 49.42797, 524.4], [20.48723, 49.42596, 526.4], [20.49103, 49.42494, 529.6], [20.49221, 49.42416, 534.1], [20.49346, 49.42455, 539.2], [20.49377, 49.42476, 545.6], [20.49541, 49.4253, 552.3], [20.49606, 49.42628, 555.1], [20.49676, 49.42685, 558.2], [20.49686, 49.42738, 558.9], [20.49806, 49.42846, 559.5], [20.49892, 49.4288, 558.6], [20.49964, 49.43006, 556.6], [20.5003, 49.43044, 554.8], [20.50046, 49.43075, 552.1], [20.50106, 49.43113, 550.0], [20.50118, 49.43133, 551.5], [20.50104, 49.43233, 554.1], [20.50226, 49.4333, 556.5], [20.50272, 49.43395, 558.5], [20.50297, 49.43568, 561.4], [20.50336, 49.43687, 565.4], [20.50397, 49.4377, 569.2], [20.50401, 49.43797, 575.4], [20.50308, 49.43907, 584.5], [20.50213, 49.44101, 591.9]]}}, {"type": "Feature", "properties": {"kolor": "brak"}, "geometry": {"type": "LineString", "coordinates": [[20.50213, 49.44101, 591.9], [20.50243, 49.44242, 598.8], [20.50167, 49.44396, 607.2], [20.50269, 49.44505, 618.5], [20.50302, 49.4457, 628.1], [20.50308, 49.44667, 636.9], [20.5029, 49.44787, 646.1], [20.50432, 49.44937, 654.1], [20.50458, 49.45004, 660.8], [20.50462, 49.45048, 667.7], [20.50426, 49.45105, 676.7], [20.50424, 49.45167, 686.0], [20.50321, 49.45262, 694.8], [20.50304, 49.45294, 706.7], [20.50339, 49.45388, 718.9], [20.50382, 49.45422, 730.6], [20.5061, 49.45502, 742.2], [20.5075, 49.45579, 753.3], [20.50785, 49.45636, 765.0], [20.50857, 49.45676, 777.4], [20.51054, 49.45729, 788.6], [20.51223, 49.45729, 797.3], [20.51283, 49.45743, 803.1], [20.51421, 49.45861, 813.2], [20.51438, 49.45858, 825.5], [20.51446, 49.45806, 835.6], [20.51431, 49.45703, 845.9], [20.51706, 49.4567, 858.5], [20.51873, 49.45584, 868.0], [20.5185, 49.45525, 877.6], [20.51881, 49.45459, 886.6], [20.52011, 49.45458, 896.6], [20.52022, 49.4545, 902.2], [20.52009, 49.45388, 907.2], [20.519, 49.45338, 913.9], [20.51906, 49.45325, 923.0], [20.51941, 49.45319, 929.3]]}}, {"type": "Feature", "properties": {"kolor": "niebieski"}, "geometry": {"type": "LineString", "coordinates": [[20.51941, 49.45319, 929.3], [20.5209, 49.45354, 935.4], [20.52125, 49.45408, 941.5], [20.52402, 49.45629, 950.0], [20.52419, 49.45685, 962.8], [20.52366, 49.4575, 975.2], [20.52376, 49.45765, 986.6], [20.52441, 49.45774, 998.8], [20.5266, 49.45869, 1011.5], [20.52691, 49.45902, 1025.4], [20.52751, 49.45926, 1040.5], [20.52802, 49.45924, 1055.0], [20.52931, 49.45891, 1068.3], [20.53087, 49.45916, 1076.3], [20.53166, 49.45907, 1083.5]]}}, {"type": "Feature", "properties": {"kolor": "zielony"}, "geometry": {"type": "LineString", "coordinates": [[20.53166, 49.45907, 1083.5], [20.53113, 49.45892, 1088.0], [20.53055, 49.45857, 1088.4], [20.52991, 49.45796, 1081.8], [20.53041, 49.4571, 1073.5], [20.53135, 49.4566, 1064.0], [20.532, 49.45573, 1052.4], [20.53216, 49.45428, 1040.2], [20.53165, 49.45361, 1028.8], [20.53082, 49.45284, 1012.0], [20.52976, 49.45217, 997.0], [20.52949, 49.45179, 986.5], [20.53016, 49.4511, 979.5], [20.53086, 49.44928, 974.6], [20.53113, 49.44898, 968.9], [20.53114, 49.44775, 964.8], [20.53047, 49.44763, 959.6], [20.53009, 49.44674, 954.2], [20.52926, 49.44653, 955.1], [20.52865, 49.44604, 955.4], [20.5286, 49.44448, 954.0], [20.52845, 49.44442, 952.4], [20.52823, 49.4438, 945.8], [20.52833, 49.44278, 938.6], [20.52811, 49.44262, 929.3], [20.52808, 49.44204, 920.7], [20.52693, 49.44011, 911.2], [20.52683, 49.43935, 901.4], [20.52493, 49.43901, 890.3], [20.52453, 49.43904, 877.4], [20.52395, 49.43879, 862.7], [20.5232, 49.43814, 850.4], [20.52206, 49.43767, 838.9], [20.5216, 49.43718, 830.0], [20.5214, 49.43672, 822.0], [20.51986, 49.43764, 814.5], [20.5196, 49.43749, 807.3], [20.51969, 49.43712, 802.0], [20.52005, 49.43697, 798.7], [20.52113, 49.43576, 796.0], [20.52116, 49.43543, 792.5], [20.52091, 49.43509, 788.4], [20.52032, 49.43471, 784.2], [20.51946, 49.43458, 779.3], [20.51765, 49.43389, 773.9], [20.51681, 49.43306, 766.0], [20.51586, 49.43298, 756.9], [20.51549, 49.43233, 745.5], [20.51512, 49.43208, 734.5], [20.5127, 49.43137, 723.2], [20.51225, 49.4311, 711.5], [20.51203, 49.43038, 698.9], [20.51124, 49.43009, 686.4], [20.51059, 49.42947, 672.3], [20.50955, 49.42918, 659.1], [20.50997, 49.42859, 646.0], [20.50963, 49.4285, 633.4], [20.50859, 49.42782, 619.7], [20.50823, 49.42701, 603.8], [20.50766, 49.42631, 588.8], [20.50719, 49.42515, 574.9], [20.50597, 49.42432, 559.5], [20.50406, 49.42242, 544.9], [20.50454, 49.42173, 532.1], [20.50449, 49.42159, 520.2], [20.50305, 49.42118, 509.7], [20.50206, 49.42099, 501.4], [20.50089, 49.42096, 495.8], [20.49975, 49.42055, 491.1], [20.49773, 49.42025, 486.5], [20.49546, 49.42063, 483.2], [20.4944, 49.42036, 481.1], [20.49282, 49.42061, 478.6], [20.49166, 49.42055, 476.9], [20.48968, 49.42111, 475.7], [20.48824, 49.42259, 473.9], [20.48627, 49.42341, 473.2], [20.48463, 49.42464, 472.7], [20.48413, 49.4247, 472.1], [20.48325, 49.42451, 472.1], [20.48281, 49.42477, 472.4], [20.48256, 49.42522, 473.7]]}}]}