{"type": "FeatureCollection", "_uwaga": "Generowane: tools/trasy/kolory_odcinkow.py. Nie edytować ręcznie.", "features": [{"type": "Feature", "properties": {"kolor": "brak"}, "geometry": {"type": "LineString", "coordinates": [[20.46807, 49.42647, 448.0], [20.47038, 49.4258, 449.1], [20.47088, 49.42577, 450.2], [20.47249, 49.42598, 451.0], [20.47336, 49.42592, 451.8], [20.47488, 49.42576, 453.5], [20.47992, 49.42481, 454.8], [20.48027, 49.42501, 456.0]]}}, {"type": "Feature", "properties": {"kolor": "zolty"}, "geometry": {"type": "LineString", "coordinates": [[20.48027, 49.42501, 456.0], [20.48031, 49.42521, 457.6], [20.4806, 49.42501, 459.8], [20.48022, 49.42432, 462.6], [20.48129, 49.42414, 468.9], [20.48191, 49.42362, 475.8], [20.48145, 49.42356, 484.6], [20.4819, 49.42312, 494.5], [20.4823, 49.42227, 505.5], [20.4822, 49.4222, 518.7], [20.48106, 49.42237, 532.7], [20.48071, 49.42231, 547.5], [20.48035, 49.42219, 563.7], [20.48022, 49.4216, 578.1], [20.47989, 49.42126, 593.2], [20.47876, 49.42132, 607.1], [20.47797, 49.42096, 620.8], [20.47716, 49.42079, 635.0], [20.47671, 49.42047, 647.2], [20.47687, 49.42006, 658.3], [20.47671, 49.41986, 668.6], [20.47702, 49.41947, 676.4], [20.47672, 49.41939, 682.8], [20.47687, 49.41929, 687.7], [20.47634, 49.41899, 691.4], [20.47628, 49.41883, 693.7], [20.47653, 49.41872, 693.6], [20.47643, 49.41843, 693.4], [20.47657, 49.41821, 696.8], [20.47585, 49.4178, 699.4], [20.47676, 49.41684, 695.3], [20.4769, 49.4164, 689.7], [20.47674, 49.41359, 683.4], [20.47624, 49.41405, 675.0], [20.47208, 49.41542, 665.9], [20.47084, 49.41571, 657.4], [20.46981, 49.41547, 648.1], [20.46661, 49.41605, 635.5], [20.46426, 49.41603, 621.9], [20.46456, 49.4156, 614.4], [20.46873, 49.41364, 607.6], [20.46944, 49.41348, 601.1], [20.46923, 49.4131, 594.9], [20.46952, 49.4124, 585.8], [20.46885, 49.41176, 575.8], [20.46813, 49.41142, 565.9], [20.46596, 49.41078, 552.6], [20.4639, 49.4106, 540.6], [20.4638, 49.41026, 528.8], [20.46432, 49.40944, 516.8], [20.46466, 49.40778, 506.4], [20.46494, 49.40745, 498.0], [20.465, 49.40713, 494.7], [20.46471, 49.4066, 492.9]]}}, {"type": "Feature", "properties": {"kolor": "niebieski"}, "geometry": {"type": "LineString", "coordinates": [[20.46471, 49.4066, 492.9], [20.46752, 49.40392, 491.9], [20.46756, 49.4033, 493.7], [20.4695, 49.40268, 497.0], [20.47191, 49.40108, 501.6], [20.4727, 49.40039, 508.9], [20.47296, 49.40011, 516.0], [20.47201, 49.39926, 523.8], [20.47055, 49.39858, 531.3], [20.46909, 49.3989, 539.4], [20.46857, 49.39872, 547.9], [20.4683, 49.39879, 556.9], [20.46819, 49.399, 565.9], [20.46761, 49.39887, 574.4], [20.46741, 49.39901, 581.1], [20.46744, 49.39926, 589.5], [20.46658, 49.39911, 598.6], [20.46629, 49.39957, 608.8], [20.46515, 49.39995, 621.2], [20.4647, 49.39881, 631.5], [20.46384, 49.39818, 639.8], [20.46205, 49.39777, 645.6], [20.45957, 49.39686, 650.9], [20.45864, 49.39689, 653.7], [20.45748, 49.39659, 653.4], [20.45677, 49.39655, 653.7], [20.45621, 49.39622, 651.4], [20.45371, 49.3966, 645.5], [20.45087, 49.39647, 643.1], [20.4498, 49.39612, 644.4], [20.44944, 49.39637, 643.5], [20.44845, 49.39648, 641.5], [20.44645, 49.39636, 641.0], [20.44259, 49.39535, 639.0], [20.44036, 49.3934, 634.5], [20.43902, 49.3933, 630.4], [20.43796, 49.39305, 626.3], [20.43426, 49.39172, 618.1], [20.43302, 49.39144, 607.5], [20.4315, 49.39148, 599.3], [20.43106, 49.3917, 591.8], [20.42844, 49.39188, 580.2], [20.4283, 49.39181, 569.9], [20.42794, 49.3919, 559.3], [20.42778, 49.39175, 547.1], [20.42623, 49.392, 534.3], [20.42577, 49.3919, 523.2], [20.42533, 49.39206, 512.3], [20.42379, 49.39225, 502.1], [20.42311, 49.39259, 492.4], [20.42266, 49.39324, 486.7], [20.42125, 49.39448, 482.1], [20.42008, 49.39491, 477.0], [20.41875, 49.39571, 474.4], [20.41772, 49.39765, 472.1], [20.41656, 49.3986, 470.7], [20.41579, 49.39901, 469.3]]}}, {"type": "Feature", "properties": {"kolor": "czerwony"}, "geometry": {"type": "LineString", "coordinates": [[20.41579, 49.39901, 469.3], [20.41699, 49.40032, 468.4], [20.41662, 49.40091, 467.0], [20.41687, 49.40185, 464.6], [20.41684, 49.40249, 463.3], [20.41643, 49.4034, 461.8], [20.41644, 49.40468, 460.0], [20.41675, 49.40508, 459.5], [20.41755, 49.40536, 458.1], [20.41956, 49.40532, 456.6], [20.42048, 49.40505, 454.4], [20.42144, 49.4044, 452.7], [20.42423, 49.4031, 453.7], [20.42727, 49.40209, 454.5], [20.42756, 49.40186, 456.6], [20.42908, 49.39799, 456.1], [20.4299, 49.3964, 455.2], [20.43086, 49.39563, 454.5], [20.43126, 49.3955, 453.9], [20.43177, 49.39555, 454.2], [20.4336, 49.39634, 453.9], [20.4341, 49.39671, 453.4], [20.43481, 49.39761, 451.5], [20.43568, 49.39928, 449.9], [20.43564, 49.40029, 449.9], [20.43501, 49.40187, 449.8], [20.43513, 49.4023, 450.5], [20.43724, 49.40507, 451.0], [20.43749, 49.40585, 450.4], [20.43745, 49.40677, 449.8], [20.43687, 49.40741, 448.7], [20.43608, 49.40779, 447.1], [20.43528, 49.4081, 445.3], [20.43382, 49.40845, 444.5], [20.432, 49.40848, 444.9], [20.42995, 49.40807, 444.1], [20.42923, 49.40815, 442.6], [20.42915, 49.40838, 442.2], [20.42979, 49.40987, 442.9], [20.4298, 49.41134, 443.5], [20.42946, 49.41212, 444.5], [20.42973, 49.41281, 444.6], [20.43009, 49.41492, 445.4], [20.43049, 49.41595, 443.6], [20.43098, 49.41642, 442.5], [20.43218, 49.41699, 442.3], [20.43357, 49.41735, 441.6], [20.43548, 49.41754, 441.3], [20.43601, 49.41749, 440.5], [20.43638, 49.41735, 440.2], [20.43663, 49.41706, 440.3], [20.43712, 49.41533, 439.2], [20.43791, 49.41455, 439.2], [20.43825, 49.41439, 439.2], [20.43869, 49.41425, 440.9], [20.4403, 49.41416, 442.4], [20.44247, 49.41372, 443.0], [20.44322, 49.41337, 445.3], [20.44388, 49.41259, 446.3], [20.44427, 49.41233, 445.9], [20.44596, 49.41169, 447.2], [20.4468, 49.41158, 447.8], [20.44866, 49.4117, 448.4], [20.44973, 49.41189, 446.7], [20.45039, 49.41186, 445.0], [20.45111, 49.41206, 443.4], [20.45149, 49.41233, 442.4], [20.4516, 49.41262, 440.5], [20.45138, 49.41319, 441.1], [20.45054, 49.4136, 440.2], [20.45025, 49.41395, 439.0], [20.44932, 49.41389, 437.9], [20.44842, 49.41441, 438.1], [20.44648, 49.41589, 438.9], [20.44644, 49.41627, 439.6], [20.44764, 49.41663, 439.8], [20.44998, 49.41652, 441.2], [20.45405, 49.41757, 439.9], [20.45539, 49.41806, 439.1], [20.45795, 49.41985, 439.7], [20.45869, 49.42073, 441.1], [20.45915, 49.42207, 442.0]]}}, {"type": "Feature", "properties": {"kolor": "zielony"}, "geometry": {"type": "LineString", "coordinates": [[20.45915, 49.42207, 442.0], [20.46021, 49.42343, 441.9], [20.46172, 49.42396, 441.8], [20.46397, 49.42404, 440.2]]}}, {"type": "Feature", "properties": {"kolor": "brak"}, "geometry": {"type": "LineString", "coordinates": [[20.46397, 49.42404, 440.2], [20.46601, 49.42453, 439.8], [20.46672, 49.42579, 441.0], [20.46728, 49.42603, 442.5], [20.46789, 49.42604, 443.6], [20.46807, 49.42647, 443.7]]}}]}