{"type": "FeatureCollection", "features": [{"type": "Feature", "properties": {"id": "2B", "nazwa": "Z wizytą u św. Kingi", "_licencja": "© OpenStreetMap contributors, ODbL"}, "geometry": {"type": "LineString", "coordinates": [[20.48749, 49.4288, 526.4], [20.48747, 49.42881, 526.5], [20.48743, 49.42883, 526.7], [20.48737, 49.42884, 527.0], [20.48728, 49.42883, 527.4], [20.48719, 49.4288, 527.5], [20.48699, 49.42871, 527.2], [20.48689, 49.42861, 526.2], [20.48681, 49.42849, 524.8], [20.48673, 49.42831, 522.7], [20.48668, 49.42823, 519.3], [20.48661, 49.42809, 515.2], [20.48624, 49.42764, 511.0], [20.48591, 49.42729, 506.8], [20.48553, 49.42688, 502.8], [20.48519, 49.4266, 500.3], [20.48497, 49.42647, 498.4], [20.48484, 49.42639, 497.0], [20.48474, 49.42622, 495.8], [20.48461, 49.42611, 494.6], [20.48446, 49.42604, 493.2], [20.4841, 49.42591, 491.9], [20.48391, 49.42584, 490.2], [20.48378, 49.42579, 487.9], [20.48343, 49.42561, 485.7], [20.48312, 49.42544, 483.5], [20.48303, 49.42538, 481.1], [20.48288, 49.4253, 479.2], [20.48271, 49.42521, 478.0], [20.48259, 49.42514, 476.7], [20.48233, 49.42528, 475.5], [20.48206, 49.4254, 474.3], [20.48187, 49.42547, 473.2], [20.48166, 49.42555, 471.8], [20.48153, 49.4256, 470.5], [20.48131, 49.42569, 469.4], [20.48107, 49.42578, 468.5], [20.48103, 49.42574, 467.7], [20.48097, 49.42564, 467.2], [20.48099, 49.42562, 466.6], [20.48104, 49.42555, 466.0], [20.48079, 49.42555, 465.4], [20.48074, 49.42557, 464.3], [20.48064, 49.42542, 462.7], [20.48034, 49.4255, 461.7], [20.48031, 49.4252, 460.8], [20.48047, 49.42517, 460.0], [20.48054, 49.42512, 459.5], [20.48058, 49.42508, 459.2], [20.48059, 49.42503, 458.7], [20.48057, 49.42497, 458.3], [20.48038, 49.42468, 457.9], [20.48037, 49.42467, 457.8], [20.48036, 49.42465, 457.9], [20.48025, 49.42441, 458.1], [20.48023, 49.42436, 458.3], [20.48021, 49.42433, 458.5], [20.4804, 49.42429, 458.6], [20.48087, 49.42423, 458.9], [20.48126, 49.42415, 459.2], [20.48145, 49.42411, 459.5], [20.4822, 49.42392, 460.3], [20.48249, 49.42385, 461.2], [20.48231, 49.42361, 462.2], [20.48225, 49.42357, 463.2], [20.48217, 49.42354, 464.3], [20.48205, 49.42354, 465.0], [20.48196, 49.42356, 465.5], [20.48193, 49.42356, 466.2], [20.48176, 49.42362, 466.8], [20.48154, 49.42362, 467.4], [20.48149, 49.42361, 468.2], [20.48146, 49.42359, 469.1], [20.48147, 49.42356, 470.2], [20.48151, 49.4235, 471.8], [20.48165, 49.42339, 474.2], [20.48182, 49.42324, 478.2], [20.48194, 49.42309, 484.3], [20.48211, 49.42285, 490.8], [20.48225, 49.42257, 497.9], [20.48229, 49.42244, 505.2], [20.48228, 49.42231, 511.5], [20.48219, 49.42222, 516.4], [20.48203, 49.42223, 521.1], [20.48182, 49.42227, 525.4], [20.48153, 49.42233, 529.6], [20.48131, 49.42236, 534.7], [20.48103, 49.42238, 540.4], [20.48073, 49.42232, 546.9], [20.48053, 49.42223, 553.6], [20.48038, 49.42206, 560.1], [20.48031, 49.42194, 566.3], [20.48028, 49.42183, 572.3], [20.48019, 49.42161, 578.0], [20.48008, 49.42143, 582.9], [20.47994, 49.42127, 587.4], [20.47987, 49.42125, 591.2], [20.47974, 49.42124, 594.8], [20.47939, 49.42129, 598.2], [20.47889, 49.42132, 603.0], [20.47865, 49.42127, 609.0], [20.47828, 49.42114, 616.0], [20.47805, 49.42101, 622.9], [20.47773, 49.42091, 629.8], [20.4775, 49.42084, 635.9], [20.47724, 49.42079, 641.2], [20.47701, 49.4207, 645.6], [20.47685, 49.42059, 649.9], [20.47675, 49.42047, 653.7], [20.4767, 49.42029, 657.6], [20.47671, 49.42019, 661.7], [20.47669, 49.42002, 665.8], [20.47666, 49.41989, 669.7], [20.47668, 49.41978, 673.6], [20.47679, 49.41968, 677.1], [20.47689, 49.41963, 680.4], [20.47692, 49.41953, 683.5], [20.477, 49.41943, 685.9], [20.47708, 49.41937, 688.2], [20.47707, 49.41935, 689.9], [20.47697, 49.41929, 691.2], [20.47691, 49.41925, 692.2], [20.4769, 49.41919, 693.2], [20.47681, 49.41916, 694.1], [20.47681, 49.41915, 694.9], [20.47687, 49.4191, 695.6], [20.47687, 49.41906, 696.1], [20.47684, 49.41904, 696.3], [20.47673, 49.41903, 696.4], [20.47652, 49.41904, 696.4], [20.4764, 49.41899, 696.4], [20.47635, 49.41893, 696.4], [20.47633, 49.41892, 696.7], [20.47631, 49.41886, 697.3], [20.47633, 49.41881, 697.6], [20.47645, 49.41871, 697.9], [20.47641, 49.41848, 698.2], [20.47642, 49.41842, 698.4], [20.47657, 49.41837, 698.0], [20.47658, 49.4183, 696.7], [20.47658, 49.41821, 695.3], [20.4759, 49.41789, 693.5], [20.47585, 49.41779, 691.2], [20.47586, 49.41768, 688.9], [20.47618, 49.41733, 687.4], [20.47631, 49.41719, 686.3], [20.47662, 49.41692, 685.6], [20.47679, 49.41675, 685.5], [20.47689, 49.41648, 685.7], [20.4769, 49.41638, 686.1], [20.47689, 49.41633, 687.3], [20.47688, 49.41627, 689.2], [20.4768, 49.41597, 691.6], [20.47668, 49.41561, 695.4], [20.4767, 49.4154, 700.5], [20.47674, 49.41504, 705.2], [20.47678, 49.41472, 710.3], [20.47685, 49.41463, 714.9], [20.47688, 49.41427, 718.4], [20.47668, 49.41409, 720.5], [20.47682, 49.41393, 722.2], [20.47682, 49.4138, 722.5], [20.4768, 49.4137, 722.6], [20.47674, 49.41359, 722.5], [20.47664, 49.41367, 722.2], [20.4765, 49.41382, 721.7], [20.47644, 49.41389, 721.2], [20.47635, 49.41398, 720.3], [20.47623, 49.41408, 719.0], [20.4761, 49.41412, 717.3], [20.47601, 49.41414, 715.6], [20.4758, 49.41417, 714.1], [20.47574, 49.41419, 712.8], [20.47567, 49.41419, 711.5], [20.47566, 49.41423, 710.4], [20.47559, 49.41423, 709.5], [20.47549, 49.41425, 708.5], [20.47547, 49.41429, 707.2], [20.47537, 49.41429, 706.0], [20.47531, 49.41435, 703.5], [20.47525, 49.41436, 700.2], [20.47487, 49.4145, 696.5], [20.47462, 49.41457, 692.0], [20.47438, 49.41462, 687.2], [20.47412, 49.41473, 683.4], [20.47392, 49.41476, 680.1], [20.47375, 49.41483, 677.3], [20.47362, 49.41487, 675.0], [20.47348, 49.4149, 672.6], [20.47329, 49.41495, 670.2], [20.47292, 49.41512, 668.1], [20.47269, 49.41522, 665.9], [20.47259, 49.41526, 664.0], [20.47237, 49.41531, 662.7], [20.47231, 49.41532, 661.8], [20.47221, 49.41535, 660.8], [20.47211, 49.41541, 659.7], [20.47197, 49.41545, 658.3], [20.47166, 49.41548, 657.0], [20.4714, 49.41554, 655.5], [20.47128, 49.41558, 653.8], [20.47115, 49.41565, 652.1], [20.47096, 49.41573, 650.6], [20.47076, 49.41577, 648.9], [20.47059, 49.41573, 647.2], [20.47039, 49.41564, 645.7], [20.47021, 49.41554, 644.0], [20.47003, 49.41549, 642.5], [20.46972, 49.41547, 640.8], [20.46965, 49.41549, 638.7], [20.46932, 49.41559, 636.6], [20.4689, 49.41569, 634.7], [20.46867, 49.41573, 632.6], [20.46819, 49.41579, 630.9], [20.46789, 49.41582, 629.5], [20.46775, 49.41585, 628.1], [20.46759, 49.4159, 626.6], [20.46734, 49.41595, 625.1], [20.46699, 49.41602, 623.6], [20.46673, 49.41606, 622.1], [20.46654, 49.41607, 620.4], [20.46629, 49.41608, 618.8], [20.46574, 49.41609, 617.1], [20.46529, 49.4161, 615.1], [20.46492, 49.41608, 613.4], [20.4646, 49.41607, 612.0], [20.4645, 49.41604, 610.9], [20.46441, 49.41603, 610.1], [20.46431, 49.41602, 609.5], [20.46425, 49.416, 608.6], [20.46408, 49.416, 607.8], [20.46392, 49.41597, 606.9], [20.46382, 49.41595, 606.0], [20.46367, 49.4159, 605.2], [20.46361, 49.41587, 604.6], [20.46353, 49.41582, 603.9], [20.46347, 49.41577, 603.3], [20.46336, 49.41572, 602.6], [20.46328, 49.4157, 601.8], [20.46319, 49.41571, 600.8], [20.46301, 49.41568, 599.9], [20.46289, 49.41569, 598.7], [20.46278, 49.41572, 597.5], [20.46266, 49.41578, 596.2], [20.46257, 49.41586, 594.9], [20.46248, 49.41594, 593.5], [20.46239, 49.41596, 592.0], [20.46227, 49.41602, 590.6], [20.4622, 49.41605, 589.1], [20.46211, 49.41607, 587.6], [20.46197, 49.41606, 585.8], [20.46187, 49.4161, 583.5], [20.46167, 49.41619, 581.1], [20.4615, 49.4163, 578.7], [20.4615, 49.41637, 576.3], [20.46154, 49.41648, 573.9], [20.46152, 49.41655, 571.5], [20.46143, 49.41662, 568.6], [20.46127, 49.41669, 565.5], [20.46108, 49.4167, 562.1], [20.46086, 49.41668, 558.3], [20.46073, 49.41671, 552.8], [20.4606, 49.41679, 546.8], [20.46038, 49.417, 538.4], [20.46027, 49.41708, 529.5], [20.45988, 49.41729, 521.1], [20.45959, 49.41736, 515.0], [20.45946, 49.4174, 509.2], [20.45934, 49.41744, 505.3], [20.45916, 49.41756, 501.7], [20.45901, 49.41767, 498.1], [20.4588, 49.41777, 494.5], [20.45856, 49.41783, 491.5], [20.45844, 49.41784, 489.0], [20.45834, 49.41786, 486.5], [20.45826, 49.4179, 484.1], [20.45813, 49.41796, 481.5], [20.45797, 49.41799, 478.9], [20.45784, 49.41801, 476.2], [20.45776, 49.41805, 474.0], [20.4577, 49.41809, 472.1], [20.45769, 49.41813, 469.4], [20.45776, 49.41822, 466.4], [20.45763, 49.4184, 463.6], [20.45755, 49.41851, 460.6], [20.45753, 49.4186, 457.8], [20.4576, 49.41879, 455.9], [20.45751, 49.41878, 454.3], [20.45736, 49.41879, 452.9], [20.45727, 49.41884, 451.9], [20.45724, 49.41891, 451.4], [20.45726, 49.41895, 451.4], [20.45748, 49.41911, 451.7], [20.45754, 49.41918, 452.4], [20.45756, 49.41923, 453.2], [20.45758, 49.41941, 454.2], [20.45762, 49.41945, 455.3], [20.45783, 49.41961, 456.2], [20.45794, 49.41972, 456.8], [20.45793, 49.41986, 456.0], [20.45767, 49.41965, 453.6], [20.4571, 49.41924, 450.8], [20.4564, 49.41865, 447.9], [20.45627, 49.41856, 445.3], [20.456, 49.41837, 443.9], [20.45588, 49.41829, 443.6], [20.4554, 49.41806, 443.4], [20.455, 49.4179, 443.2], [20.45459, 49.41777, 442.6], [20.45421, 49.41764, 441.6], [20.45381, 49.41752, 440.2], [20.4537, 49.41748, 438.4], [20.45359, 49.41746, 436.5], [20.45341, 49.41743, 434.3], [20.45293, 49.41734, 432.1], [20.45286, 49.41745, 431.0], [20.45222, 49.41775, 430.6], [20.45213, 49.4178, 430.5], [20.45207, 49.41784, 430.2], [20.45184, 49.41775, 430.7], [20.45153, 49.41763, 431.0], [20.45138, 49.41757, 431.2], [20.45133, 49.41759, 431.5], [20.45125, 49.41759, 433.4], [20.45109, 49.41755, 436.1], [20.45092, 49.41755, 440.7], [20.45073, 49.41759, 446.0], [20.45026, 49.41767, 451.8], [20.44997, 49.41769, 458.1], [20.4497, 49.4177, 465.4], [20.44943, 49.41776, 472.0], [20.44918, 49.41794, 479.3], [20.44912, 49.41808, 487.3], [20.4491, 49.41826, 495.0], [20.44907, 49.41844, 501.3], [20.44895, 49.41857, 507.0], [20.44877, 49.41865, 512.3], [20.44849, 49.41872, 517.2], [20.44816, 49.41877, 522.4], [20.44797, 49.41885, 528.2], [20.44779, 49.41893, 534.3], [20.44755, 49.41897, 540.7], [20.4473, 49.41902, 546.8], [20.44703, 49.41907, 552.2], [20.44683, 49.41911, 557.0], [20.44659, 49.4191, 561.0], [20.44635, 49.41906, 563.6], [20.44612, 49.41909, 565.7], [20.44609, 49.4191, 567.4], [20.44594, 49.41908, 568.9], [20.4458, 49.41909, 570.3], [20.44562, 49.41907, 572.2], [20.4454, 49.41903, 574.4], [20.44521, 49.41902, 577.4], [20.44502, 49.41901, 581.6], [20.4447, 49.41895, 586.1], [20.44439, 49.41888, 590.9], [20.44422, 49.41886, 596.0], [20.44402, 49.41887, 600.6], [20.44383, 49.41888, 604.4], [20.44375, 49.41884, 608.1], [20.44371, 49.41878, 612.2], [20.44365, 49.41872, 616.7], [20.4435, 49.41867, 621.4], [20.44342, 49.41856, 626.4], [20.44333, 49.41853, 631.5], [20.44322, 49.4185, 636.2], [20.44317, 49.41843, 640.3], [20.44314, 49.41835, 644.2], [20.4431, 49.4183, 647.9], [20.44299, 49.4183, 651.1], [20.44294, 49.41826, 653.9], [20.44297, 49.4182, 656.9], [20.44291, 49.41817, 659.9], [20.44278, 49.41819, 663.0], [20.44271, 49.41815, 666.7], [20.44266, 49.41808, 670.2], [20.44252, 49.41807, 673.5], [20.44249, 49.41801, 676.5], [20.44249, 49.41793, 679.2], [20.44243, 49.41786, 681.3], [20.44233, 49.41788, 683.2], [20.44218, 49.41796, 685.5], [20.44206, 49.41802, 687.6], [20.44191, 49.41799, 689.4], [20.44177, 49.41793, 690.8], [20.44178, 49.41788, 691.8], [20.44173, 49.41781, 692.2], [20.44162, 49.41782, 692.6], [20.44144, 49.41785, 692.9], [20.44112, 49.41796, 693.0], [20.44077, 49.41808, 693.2], [20.44058, 49.41815, 692.9], [20.44045, 49.41827, 691.5], [20.44018, 49.41842, 689.7], [20.44002, 49.41854, 687.4], [20.43993, 49.41868, 682.7], [20.43989, 49.41892, 677.4], [20.43952, 49.4192, 672.2], [20.43925, 49.41937, 667.1], [20.43914, 49.41948, 662.5], [20.43903, 49.41957, 660.3], [20.43888, 49.41971, 660.2], [20.4388, 49.41982, 661.3], [20.43878, 49.42012, 663.4], [20.43874, 49.42027, 666.2], [20.43866, 49.42037, 669.5], [20.43854, 49.42043, 672.7], [20.43851, 49.4205, 675.7], [20.43856, 49.42063, 679.6], [20.43849, 49.42068, 683.8], [20.43824, 49.4208, 688.5], [20.43816, 49.42088, 693.4], [20.43798, 49.42095, 698.3], [20.4379, 49.42104, 702.3], [20.438, 49.42111, 705.7], [20.43804, 49.42119, 708.5], [20.43787, 49.42117, 710.8], [20.43776, 49.42118, 712.9], [20.43796, 49.4213, 715.3], [20.438, 49.42137, 717.5], [20.43773, 49.42137, 720.4], [20.43794, 49.42146, 723.3], [20.43768, 49.42147, 726.1], [20.4377, 49.42156, 728.5], [20.43775, 49.42162, 730.8], [20.43778, 49.4217, 732.3], [20.43779, 49.42177, 733.4], [20.43779, 49.42186, 734.6], [20.43775, 49.42191, 735.8], [20.43766, 49.42191, 737.3], [20.43753, 49.42183, 738.9], [20.43738, 49.42176, 740.7], [20.43727, 49.42173, 742.7], [20.43721, 49.42179, 744.7], [20.43716, 49.42193, 746.6], [20.43708, 49.42197, 748.6], [20.43696, 49.42198, 750.9], [20.4368, 49.42195, 753.2], [20.43654, 49.42198, 755.4], [20.43635, 49.42201, 757.6], [20.43614, 49.42205, 759.5], [20.43595, 49.42208, 760.8], [20.43567, 49.42211, 760.8], [20.4354, 49.42213, 759.9], [20.43505, 49.42225, 758.3], [20.4347, 49.4223, 756.1], [20.43453, 49.42229, 753.6], [20.43437, 49.42226, 752.2], [20.43425, 49.42224, 751.7], [20.43435, 49.42233, 751.5], [20.43437, 49.42241, 751.5], [20.43435, 49.42247, 751.6], [20.43424, 49.42257, 750.9], [20.43414, 49.42259, 749.7], [20.43393, 49.42265, 748.1], [20.43365, 49.4227, 746.6], [20.43344, 49.42282, 745.2], [20.43334, 49.42287, 744.1], [20.43319, 49.42292, 743.3], [20.43304, 49.42293, 742.9], [20.43292, 49.42294, 742.7], [20.43273, 49.42298, 742.6], [20.43256, 49.42304, 742.4], [20.43228, 49.42309, 741.9], [20.43218, 49.42317, 741.4], [20.43215, 49.42326, 740.8], [20.43205, 49.42331, 739.6], [20.43188, 49.42336, 738.3], [20.43164, 49.42347, 736.8], [20.43159, 49.42354, 735.3], [20.43156, 49.42366, 733.4], [20.43146, 49.42371, 731.8], [20.43132, 49.42381, 730.2], [20.43124, 49.4239, 728.7], [20.43119, 49.42405, 727.4], [20.4311, 49.42419, 726.9], [20.43093, 49.4243, 727.0], [20.4306, 49.42447, 727.7], [20.43009, 49.42461, 728.8], [20.42991, 49.42467, 730.1], [20.42979, 49.42466, 731.2], [20.42964, 49.42462, 731.9], [20.42953, 49.42454, 732.3], [20.42933, 49.42452, 732.2], [20.42907, 49.4245, 731.2], [20.42873, 49.4245, 729.4], [20.42839, 49.42444, 727.0], [20.42798, 49.42449, 724.0], [20.4277, 49.4245, 721.1], [20.42733, 49.42459, 718.5], [20.42718, 49.42462, 716.3], [20.42694, 49.42465, 714.4], [20.4267, 49.42464, 712.8], [20.42642, 49.42464, 711.1], [20.42611, 49.42466, 709.4], [20.42581, 49.42473, 707.8], [20.4256, 49.42477, 706.1], [20.42533, 49.42482, 704.6], [20.42514, 49.42482, 703.0], [20.42495, 49.42483, 701.6], [20.42474, 49.42486, 700.7], [20.42458, 49.4249, 700.4], [20.4245, 49.42501, 700.4], [20.42446, 49.42513, 700.6], [20.4244, 49.42526, 700.8], [20.42433, 49.42535, 700.7], [20.42421, 49.42543, 700.6], [20.42407, 49.42547, 700.7], [20.42387, 49.4255, 701.3], [20.42371, 49.42551, 702.2], [20.4236, 49.42557, 703.2], [20.42345, 49.42562, 704.2], [20.42338, 49.42562, 705.0], [20.4233, 49.42559, 705.9], [20.42322, 49.42551, 706.9], [20.42304, 49.42542, 708.2], [20.42284, 49.42537, 709.6], [20.42257, 49.42536, 711.1], [20.42225, 49.42533, 712.7], [20.42205, 49.42534, 714.3], [20.42182, 49.42536, 716.0], [20.42172, 49.4254, 717.9], [20.42159, 49.42554, 720.1], [20.42146, 49.42566, 722.5], [20.42132, 49.42574, 725.1], [20.42121, 49.42585, 727.5], [20.42112, 49.42606, 729.8], [20.42107, 49.42611, 732.7], [20.42092, 49.42613, 735.3], [20.42044, 49.42616, 737.1], [20.42012, 49.42612, 738.4], [20.41974, 49.42601, 738.9], [20.41937, 49.426, 738.0], [20.41907, 49.42602, 736.7], [20.4188, 49.42605, 735.3], [20.41861, 49.42605, 734.0], [20.41835, 49.42603, 732.8], [20.4182, 49.42606, 731.7], [20.41801, 49.4261, 730.5], [20.41781, 49.42608, 729.1], [20.41764, 49.42604, 727.3], [20.41734, 49.42596, 725.5], [20.41698, 49.42587, 723.5], [20.41674, 49.42578, 721.3], [20.41642, 49.42561, 719.6], [20.41621, 49.42552, 718.5], [20.41604, 49.42552, 717.9], [20.41587, 49.42555, 718.0], [20.41573, 49.42564, 718.1], [20.41565, 49.42579, 718.1], [20.41559, 49.42593, 717.8], [20.41558, 49.42603, 717.0], [20.41548, 49.4261, 715.5], [20.41526, 49.42616, 713.8], [20.41501, 49.42619, 711.4], [20.41472, 49.4262, 708.0], [20.41443, 49.42625, 704.0], [20.4141, 49.42635, 699.4], [20.41377, 49.42641, 695.3], [20.41342, 49.42646, 692.0], [20.41333, 49.42647, 690.2], [20.41308, 49.42639, 690.0], [20.41275, 49.42621, 691.2], [20.41262, 49.42607, 692.8], [20.41262, 49.42588, 694.4], [20.41259, 49.42567, 695.3], [20.41248, 49.42553, 695.6], [20.41227, 49.42542, 695.5], [20.41172, 49.42531, 694.8], [20.41102, 49.42501, 694.2], [20.41069, 49.42468, 694.0], [20.41057, 49.4246, 693.9], [20.41052, 49.42455, 693.7], [20.41053, 49.42453, 693.8], [20.41053, 49.42452, 693.8], [20.41054, 49.42449, 693.7], [20.41056, 49.42446, 693.6], [20.41067, 49.42441, 693.6], [20.41136, 49.42417, 694.1], [20.41148, 49.4241, 695.4], [20.41154, 49.42394, 698.1], [20.41149, 49.42378, 701.5], [20.41132, 49.42351, 705.6], [20.41116, 49.42335, 709.4], [20.41097, 49.42324, 713.0], [20.41082, 49.42315, 715.4], [20.41054, 49.42296, 717.4], [20.41037, 49.42285, 719.0], [20.41004, 49.42264, 720.4], [20.41, 49.42254, 721.7], [20.40998, 49.42237, 723.4], [20.40992, 49.42221, 725.3], [20.40979, 49.42198, 727.6], [20.40965, 49.42187, 730.1], [20.40943, 49.4217, 732.8], [20.40931, 49.42161, 735.2], [20.40926, 49.42148, 737.6], [20.40928, 49.42139, 739.5], [20.40936, 49.42129, 741.7], [20.40937, 49.42121, 743.9], [20.40931, 49.42111, 746.2], [20.40923, 49.42097, 749.6], [20.4092, 49.42086, 752.9], [20.40903, 49.42042, 757.2], [20.40901, 49.42037, 761.5], [20.40866, 49.41994, 767.6], [20.40858, 49.41981, 773.0], [20.40835, 49.41935, 778.6], [20.40819, 49.41918, 782.3], [20.40807, 49.419, 784.6], [20.40819, 49.41918, 782.3], [20.40835, 49.41935, 778.6], [20.40858, 49.41981, 773.0], [20.40866, 49.41994, 767.6], [20.40901, 49.42037, 761.5], [20.40903, 49.42042, 757.2], [20.4092, 49.42086, 752.9], [20.40923, 49.42097, 749.6], [20.40931, 49.42111, 746.2], [20.40937, 49.42121, 743.9], [20.40936, 49.42129, 741.7], [20.40928, 49.42139, 739.5], [20.40926, 49.42148, 737.6], [20.40931, 49.42161, 735.2], [20.40943, 49.4217, 732.8], [20.40965, 49.42187, 730.1], [20.40979, 49.42198, 727.6], [20.40992, 49.42221, 725.3], [20.40998, 49.42237, 723.4], [20.41, 49.42254, 721.7], [20.41004, 49.42264, 720.9], [20.41037, 49.42285, 720.4], [20.41043, 49.42264, 720.2], [20.41046, 49.42252, 720.3], [20.41047, 49.42242, 721.3], [20.4105, 49.42233, 722.3], [20.41072, 49.42187, 723.3], [20.41081, 49.42175, 724.3], [20.41089, 49.42168, 725.3], [20.41103, 49.4216, 725.7], [20.41134, 49.42146, 726.0], [20.41142, 49.42142, 726.4], [20.41149, 49.42138, 727.2], [20.41153, 49.42134, 728.7], [20.41162, 49.42122, 731.0], [20.41175, 49.42108, 733.6], [20.41191, 49.42094, 736.4], [20.41202, 49.42089, 739.4], [20.41222, 49.42083, 742.0], [20.41251, 49.42077, 743.9], [20.41274, 49.42075, 745.3], [20.41295, 49.42075, 746.4], [20.41328, 49.4208, 747.3], [20.41362, 49.42084, 749.0], [20.41386, 49.42079, 750.8], [20.4142, 49.42066, 752.7], [20.41446, 49.4206, 754.5], [20.41466, 49.42056, 756.3], [20.41483, 49.42047, 757.6], [20.41515, 49.42025, 758.8], [20.41542, 49.41993, 760.6], [20.4155, 49.41982, 762.7], [20.41552, 49.41961, 764.9], [20.41548, 49.41947, 766.7], [20.41543, 49.41937, 768.4], [20.41546, 49.4193, 769.3], [20.41554, 49.41923, 769.2], [20.41569, 49.4192, 768.2], [20.41587, 49.4192, 767.1], [20.416, 49.41918, 766.3], [20.41612, 49.41911, 766.2], [20.4162, 49.41901, 767.3], [20.41624, 49.41891, 768.8], [20.41628, 49.41882, 770.3], [20.41644, 49.41874, 771.8], [20.41659, 49.41867, 772.4], [20.41673, 49.41859, 771.1], [20.4169, 49.41856, 769.1], [20.41718, 49.41861, 767.2], [20.41751, 49.41858, 765.9], [20.41778, 49.41852, 766.3], [20.41801, 49.41842, 768.6], [20.41822, 49.41827, 771.5], [20.41831, 49.41822, 773.9], [20.41837, 49.41823, 774.6], [20.41843, 49.41828, 772.9], [20.41854, 49.41844, 770.0], [20.41862, 49.41862, 766.8], [20.41869, 49.41875, 763.5], [20.41882, 49.41886, 760.6], [20.41894, 49.41894, 758.3], [20.4191, 49.41911, 756.1], [20.41917, 49.41923, 754.0], [20.41919, 49.41933, 752.3], [20.41927, 49.4194, 751.4], [20.41935, 49.41944, 750.9], [20.41956, 49.41954, 751.0], [20.4197, 49.41967, 751.2], [20.41991, 49.41982, 751.3]]}}]}