{"type": "FeatureCollection", "features": [{"type": "Feature", "properties": {"id": "2C", "nazwa": "Spacer Harnasia", "_zrodlo": "Slad GPX (spacer-harnasia-2c.gpx) + EU-DEM 25 m"}, "geometry": {"type": "LineString", "coordinates": [[20.55354, 49.40691, 571.8], [20.5526, 49.40668, 573.4], [20.55065, 49.40665, 575.1], [20.54759, 49.40598, 579.3], [20.54722, 49.40569, 583.2], [20.54785, 49.40514, 588.9], [20.54797, 49.40487, 595.7], [20.54789, 49.40396, 603.6], [20.54815, 49.40359, 611.8], [20.54802, 49.40333, 618.8], [20.54817, 49.40301, 625.6], [20.54902, 49.40239, 632.4], [20.54912, 49.40174, 636.7], [20.5495, 49.40157, 643.2], [20.55037, 49.40079, 649.1], [20.55065, 49.39882, 654.9], [20.55111, 49.39849, 660.0], [20.5523, 49.39816, 666.1], [20.55276, 49.39734, 673.2], [20.55323, 49.39701, 679.9], [20.55327, 49.39676, 687.3], [20.55398, 49.3968, 695.1], [20.55502, 49.39547, 699.9], [20.55504, 49.39505, 704.1], [20.55534, 49.39442, 708.6], [20.55536, 49.39348, 712.5], [20.55512, 49.39286, 714.9], [20.5548, 49.39262, 718.2], [20.555, 49.39208, 723.5], [20.55469, 49.39161, 729.9], [20.55547, 49.38936, 740.8], [20.55511, 49.38889, 754.0], [20.55502, 49.38829, 773.5], [20.55596, 49.38744, 795.3], [20.55652, 49.38579, 820.8], [20.55708, 49.38488, 844.1], [20.55606, 49.38323, 865.3], [20.55476, 49.38289, 887.4], [20.55418, 49.3825, 908.8], [20.55525, 49.38232, 924.2], [20.55627, 49.38194, 936.9], [20.55747, 49.38033, 942.3], [20.55749, 49.37976, 943.6], [20.55853, 49.37903, 942.0], [20.55926, 49.37888, 943.3], [20.56214, 49.37917, 946.4], [20.56302, 49.37947, 948.4], [20.56609, 49.37901, 949.6], [20.56723, 49.37897, 952.6], [20.56873, 49.37857, 956.1], [20.56984, 49.37795, 960.4], [20.57241, 49.37743, 963.8], [20.57302, 49.37706, 963.7], [20.57429, 49.37684, 961.7], [20.57534, 49.37695, 961.6], [20.57631, 49.37744, 960.2], [20.57702, 49.37895, 957.1], [20.57965, 49.38191, 954.1], [20.58005, 49.38307, 950.7], [20.58057, 49.38324, 946.6], [20.58175, 49.38402, 945.0], [20.5851, 49.38546, 947.0], [20.58649, 49.3857, 946.1], [20.59062, 49.38454, 939.0], [20.59184, 49.38408, 929.8], [20.59345, 49.38398, 919.9], [20.59515, 49.38514, 905.0], [20.59732, 49.38626, 889.5], [20.59779, 49.38662, 873.9], [20.59803, 49.38722, 858.4], [20.60022, 49.38846, 845.4], [20.60078, 49.38911, 838.0], [20.6014, 49.39026, 836.1], [20.60171, 49.39159, 836.1], [20.60091, 49.39401, 838.5], [20.60093, 49.3946, 846.0], [20.60221, 49.39601, 855.9], [20.60257, 49.39702, 867.6], [20.60334, 49.39777, 879.4], [20.6047, 49.3985, 888.5], [20.6054, 49.39951, 895.8], [20.60588, 49.3999, 900.8], [20.60598, 49.4006, 905.6], [20.60576, 49.40121, 910.3], [20.60584, 49.40138, 914.9], [20.60791, 49.40195, 918.5], [20.60882, 49.40238, 921.4], [20.60983, 49.40254, 923.2], [20.61063, 49.40243, 923.4], [20.61173, 49.40259, 924.1], [20.61296, 49.40257, 926.3], [20.61318, 49.40272, 928.8], [20.61315, 49.40407, 930.0], [20.61225, 49.40537, 930.5], [20.61201, 49.40659, 930.9], [20.61156, 49.40745, 931.4], [20.61162, 49.40899, 932.3], [20.6119, 49.4093, 934.3], [20.61214, 49.41003, 936.0], [20.61178, 49.41085, 936.6], [20.6117, 49.41153, 936.6], [20.61122, 49.4122, 936.9], [20.61119, 49.41326, 937.0], [20.61162, 49.41437, 935.5], [20.61287, 49.41619, 934.5], [20.61351, 49.4166, 933.6], [20.61442, 49.41752, 933.1], [20.61509, 49.41902, 932.5], [20.61571, 49.41948, 932.5], [20.61634, 49.41972, 932.4], [20.61687, 49.42032, 932.8], [20.6163, 49.42053, 936.3], [20.61401, 49.42208, 942.1], [20.61311, 49.42248, 947.6], [20.60982, 49.42503, 954.4], [20.60768, 49.42585, 961.3], [20.60536, 49.42625, 968.9], [20.60414, 49.4269, 975.3], [20.60306, 49.42805, 981.6], [20.60133, 49.42837, 987.2], [20.59884, 49.42791, 987.3], [20.59755, 49.42801, 986.0], [20.59684, 49.42792, 983.1], [20.59619, 49.4276, 978.2], [20.59536, 49.42658, 972.6], [20.59571, 49.42518, 965.6], [20.59567, 49.42413, 958.1], [20.5964, 49.42317, 950.6], [20.59614, 49.4226, 943.5], [20.5956, 49.42216, 939.3], [20.59507, 49.42137, 935.1], [20.59504, 49.42078, 931.6], [20.59462, 49.42045, 928.4], [20.59466, 49.42014, 925.3], [20.59492, 49.4199, 922.9], [20.59489, 49.41949, 919.9], [20.5945, 49.41891, 916.7], [20.59478, 49.41843, 912.3], [20.59433, 49.4177, 907.9], [20.59273, 49.41643, 903.7], [20.59263, 49.41622, 899.1], [20.59254, 49.41419, 895.3], [20.59226, 49.41327, 891.7], [20.59248, 49.41275, 887.5], [20.59263, 49.41095, 881.4], [20.5915, 49.40979, 875.2], [20.59125, 49.40867, 870.3], [20.59085, 49.40807, 864.6], [20.58906, 49.40639, 855.6], [20.58908, 49.40615, 844.5], [20.58878, 49.4061, 828.1], [20.5885, 49.40584, 810.0], [20.58582, 49.40542, 790.9], [20.58446, 49.40532, 773.0], [20.57983, 49.40582, 752.7], [20.57852, 49.40589, 732.7], [20.57714, 49.40575, 713.6], [20.57502, 49.40608, 696.5], [20.57259, 49.40603, 680.9], [20.57266, 49.40577, 668.7], [20.57413, 49.4052, 657.9], [20.5743, 49.40494, 648.9], [20.57314, 49.40445, 642.0], [20.57269, 49.40403, 637.1], [20.57196, 49.4039, 631.9], [20.57207, 49.40351, 625.5], [20.57018, 49.40331, 620.0], [20.56826, 49.40405, 616.2], [20.56781, 49.40434, 613.1], [20.56664, 49.4055, 610.2], [20.56636, 49.40632, 606.5], [20.56528, 49.40732, 602.7], [20.56431, 49.40787, 599.1], [20.56368, 49.40847, 595.5], [20.5621, 49.40936, 592.5], [20.55839, 49.40878, 589.6], [20.55726, 49.40804, 586.4], [20.55665, 49.40702, 584.6], [20.55616, 49.40675, 582.9], [20.55507, 49.40702, 581.4], [20.55354, 49.40691, 579.6]]}}]}