{"type": "FeatureCollection", "features": [{"type": "Feature", "properties": {"id": "2D", "nazwa": "Deptak nad Grajcarkiem", "_zrodlo": "OpenStreetMap (routing po sciezkach) + EU-DEM 25 m", "_licencja": "(c) OpenStreetMap contributors, ODbL"}, "geometry": {"type": "LineString", "coordinates": [[20.48057, 49.42497, 457.6], [20.48038, 49.42468, 457.8], [20.48037, 49.42467, 457.9], [20.48036, 49.42465, 458.0], [20.48025, 49.42441, 458.3], [20.48023, 49.42436, 458.8], [20.48021, 49.42433, 459.4], [20.4798, 49.42439, 460.0], [20.4778, 49.42479, 460.2], [20.47559, 49.42523, 460.4], [20.47522, 49.4253, 460.4], [20.4747, 49.42539, 460.0], [20.47449, 49.42542, 459.3], [20.47432, 49.42544, 458.3], [20.47362, 49.42548, 457.1], [20.47292, 49.42551, 455.9], [20.47265, 49.42552, 454.7], [20.47125, 49.42546, 453.6], [20.47071, 49.42543, 452.5], [20.47051, 49.42542, 450.9], [20.47033, 49.42543, 449.4], [20.47013, 49.42546, 448.0], [20.46929, 49.42567, 446.9], [20.46877, 49.42581, 445.7], [20.46809, 49.42599, 444.6], [20.46787, 49.42603, 443.7], [20.46768, 49.42605, 443.3], [20.4675, 49.42605, 443.0], [20.46735, 49.42604, 442.7], [20.46718, 49.42601, 442.5], [20.46705, 49.42597, 442.3], [20.46691, 49.42591, 442.2], [20.4668, 49.42585, 442.2], [20.46671, 49.42577, 442.4], [20.46665, 49.4257, 442.7], [20.46659, 49.42562, 443.2], [20.46651, 49.42544, 444.0], [20.46639, 49.42513, 444.8], [20.46625, 49.42482, 445.5], [20.46616, 49.42466, 445.7], [20.46608, 49.42458, 446.1], [20.46602, 49.42454, 446.0], [20.4659, 49.42449, 445.9], [20.46571, 49.42444, 445.4], [20.46519, 49.42433, 444.8], [20.46473, 49.42422, 444.1], [20.46417, 49.42409, 443.7], [20.46402, 49.42406, 442.7], [20.46373, 49.42402, 442.0], [20.46364, 49.42402, 441.2], [20.46338, 49.42402, 440.4], [20.46316, 49.42403, 439.6], [20.46305, 49.42402, 438.9], [20.46288, 49.42401, 438.2], [20.46258, 49.42398, 437.7], [20.46225, 49.42396, 436.9], [20.46181, 49.42396, 436.0], [20.4617, 49.42395, 435.1], [20.4608, 49.42367, 434.1], [20.4605, 49.42352, 433.1], [20.46042, 49.42347, 432.3], [20.46033, 49.42347, 431.4], [20.4602, 49.42349, 430.8], [20.4602, 49.42345, 430.3], [20.46013, 49.42335, 429.9], [20.45995, 49.42316, 429.6], [20.4597, 49.42286, 429.5], [20.45953, 49.42263, 429.3]]}}]}