{"type": "FeatureCollection", "_uwaga": "Generowane: tools/trasy/kolory_odcinkow.py. Nie edytować ręcznie.", "features": [{"type": "Feature", "properties": {"kolor": "niebieski"}, "geometry": {"type": "LineString", "coordinates": [[20.48732, 49.42885, 520.6], [20.48785, 49.42873, 521.4], [20.4874, 49.42846, 521.7], [20.48716, 49.42797, 526.0], [20.48723, 49.42596, 530.6], [20.49103, 49.42494, 535.2], [20.49221, 49.42416, 540.6], [20.4953, 49.42521, 545.5], [20.49606, 49.42628, 549.2], [20.49676, 49.42685, 554.0], [20.49686, 49.42738, 556.5], [20.49806, 49.42846, 559.5], [20.49892, 49.4288, 558.6], [20.49964, 49.43006, 556.6], [20.5003, 49.43044, 554.8], [20.50046, 49.43075, 552.1], [20.50106, 49.43113, 550.0], [20.50118, 49.43133, 551.5], [20.50104, 49.43233, 554.1], [20.50226, 49.4333, 556.5], [20.50272, 49.43395, 558.5], [20.50297, 49.43568, 561.4], [20.50336, 49.43687, 565.4], [20.50397, 49.4377, 569.2], [20.50401, 49.43797, 575.5], [20.50308, 49.43907, 582.2], [20.50213, 49.44101, 588.2]]}}, {"type": "Feature", "properties": {"kolor": "brak"}, "geometry": {"type": "LineString", "coordinates": [[20.50213, 49.44101, 588.2], [20.50243, 49.44242, 593.8], [20.50143, 49.44433, 602.8], [20.50167, 49.44558, 611.1], [20.50111, 49.4469, 618.1], [20.50166, 49.4481, 623.9], [20.49976, 49.45184, 630.1], [20.50032, 49.45415, 634.4], [20.50033, 49.45465, 638.7], [20.49994, 49.45537, 646.6], [20.50034, 49.45628, 654.3], [20.50044, 49.45694, 660.3], [20.50011, 49.45945, 667.1], [20.50034, 49.461, 674.6], [20.5003, 49.46193, 683.0], [20.50051, 49.46262, 692.1], [20.50024, 49.46322, 700.9], [20.50024, 49.46436, 710.0], [20.49992, 49.46446, 716.8], [20.49873, 49.4633, 723.0], [20.49867, 49.46306, 727.1], [20.49779, 49.46238, 731.2], [20.49729, 49.46288, 736.1], [20.49709, 49.46282, 740.8], [20.49704, 49.46232, 745.7], [20.49688, 49.46225, 752.3], [20.49607, 49.46251, 758.4], [20.49584, 49.46275, 764.5], [20.49601, 49.46329, 771.2], [20.49647, 49.46359, 780.1], [20.49588, 49.46377, 789.8], [20.49552, 49.46492, 798.6], [20.495, 49.46579, 807.0], [20.49445, 49.46634, 814.4], [20.49272, 49.46699, 821.2]]}}, {"type": "Feature", "properties": {"kolor": "niebieski"}, "geometry": {"type": "LineString", "coordinates": [[20.49272, 49.46699, 821.2], [20.49253, 49.46715, 832.3], [20.49261, 49.46725, 844.3], [20.49065, 49.46711, 858.8], [20.48976, 49.4669, 873.2], [20.48767, 49.46667, 887.5], [20.48687, 49.46545, 902.8], [20.48599, 49.46579, 919.2], [20.485, 49.46598, 935.6], [20.48351, 49.4658, 951.2], [20.48298, 49.46533, 960.3], [20.48218, 49.46521, 963.4], [20.48158, 49.46458, 963.4], [20.48181, 49.46447, 962.1], [20.48213, 49.46362, 959.7], [20.48313, 49.46205, 955.0], [20.48318, 49.46097, 948.2], [20.48363, 49.46023, 939.9], [20.48438, 49.45953, 931.5], [20.48515, 49.45913, 924.8], [20.48552, 49.45876, 917.9], [20.48563, 49.4584, 909.5], [20.48533, 49.45812, 899.7], [20.48542, 49.45789, 887.8], [20.48807, 49.45633, 876.6], [20.48928, 49.4559, 866.2], [20.48972, 49.45522, 857.0], [20.49143, 49.45449, 846.3], [20.49168, 49.45419, 835.4], [20.4917, 49.45388, 825.7], [20.4912, 49.45226, 817.8], [20.49118, 49.45162, 812.0], [20.49061, 49.45124, 809.7], [20.49034, 49.45017, 808.2], [20.49033, 49.44859, 806.3], [20.49106, 49.44738, 803.3], [20.49103, 49.44689, 801.6], [20.49128, 49.44644, 800.4], [20.49122, 49.44535, 802.0], [20.49096, 49.44498, 804.0], [20.49096, 49.44442, 804.9], [20.49045, 49.44374, 803.8], [20.49067, 49.4429, 800.6], [20.49, 49.44236, 796.5], [20.48767, 49.4414, 791.7], [20.48692, 49.44052, 786.8], [20.48578, 49.44021, 782.4], [20.48569, 49.43959, 776.4], [20.48632, 49.43924, 769.3], [20.48626, 49.43913, 762.0], [20.48519, 49.43907, 755.3], [20.48448, 49.43881, 748.2], [20.48273, 49.43858, 741.0], [20.48224, 49.43836, 733.6], [20.4811, 49.43755, 726.0], [20.48, 49.43604, 716.9], [20.47924, 49.43574, 707.8], [20.47877, 49.43532, 698.5], [20.47916, 49.43488, 687.9], [20.47879, 49.43458, 677.7], [20.4788, 49.43433, 667.4], [20.4791, 49.43399, 658.0], [20.47923, 49.4327, 646.7], [20.47965, 49.43142, 636.1], [20.48265, 49.43037, 625.7], [20.48303, 49.4304, 614.1], [20.48452, 49.43086, 601.9], [20.48486, 49.43218, 590.2], [20.48512, 49.43227, 577.3], [20.48564, 49.43211, 566.8], [20.48599, 49.43176, 556.6], [20.48682, 49.43133, 547.8], [20.48819, 49.42942, 537.2], [20.48809, 49.42915, 525.5], [20.48685, 49.42863, 520.6], [20.4863, 49.4277, 515.8], [20.48466, 49.42617, 511.3], [20.48256, 49.42522, 507.9]]}}]}