{"type": "FeatureCollection", "_uwaga": "Generowane: tools/trasy/kolory_odcinkow.py. Nie edytować ręcznie.", "features": [{"type": "Feature", "properties": {"kolor": "zolty"}, "geometry": {"type": "LineString", "coordinates": [[20.52661, 49.41068, 525.8], [20.52641, 49.40968, 527.7], [20.52592, 49.40935, 530.0], [20.52482, 49.40952, 532.6], [20.52373, 49.40933, 535.2], [20.52105, 49.40994, 539.5], [20.52067, 49.40971, 546.5], [20.52067, 49.4094, 554.6], [20.52046, 49.40915, 561.1], [20.51848, 49.40905, 567.8], [20.51842, 49.40842, 577.2], [20.51819, 49.4082, 588.0], [20.51931, 49.40819, 598.2], [20.51931, 49.40783, 607.6], [20.51881, 49.40738, 616.2], [20.51697, 49.40653, 623.0], [20.51601, 49.40572, 629.3], [20.51563, 49.40574, 641.6], [20.51548, 49.40559, 653.6], [20.51584, 49.40498, 663.3], [20.51569, 49.40462, 671.4], [20.51647, 49.40334, 681.7], [20.51629, 49.40283, 692.7], [20.51466, 49.40224, 704.5], [20.51332, 49.40202, 719.0], [20.5094, 49.40188, 737.3], [20.50905, 49.40177, 751.9], [20.50863, 49.40131, 764.4], [20.51091, 49.39988, 777.7], [20.51252, 49.39651, 790.5], [20.51453, 49.39528, 803.4], [20.51646, 49.39436, 817.8], [20.51721, 49.39368, 832.4], [20.51983, 49.39263, 843.6], [20.51751, 49.3925, 847.4], [20.51563, 49.39281, 848.1], [20.51487, 49.39307, 849.3], [20.51267, 49.39337, 849.2], [20.51061, 49.39335, 847.8], [20.50921, 49.39278, 842.0], [20.50926, 49.39254, 831.0], [20.51039, 49.39198, 814.6], [20.51062, 49.39167, 794.4], [20.51012, 49.39117, 778.9], [20.50898, 49.39045, 767.7], [20.50747, 49.38739, 757.0], [20.50723, 49.38599, 746.9], [20.50652, 49.3837, 737.6], [20.50295, 49.38201, 729.6], [20.5018, 49.38168, 723.0], [20.49968, 49.38167, 720.5], [20.49898, 49.38179, 721.5], [20.49799, 49.38233, 720.9], [20.49559, 49.38283, 718.6], [20.49512, 49.38277, 716.2], [20.49419, 49.38286, 713.5], [20.49383, 49.38262, 711.2]]}}, {"type": "Feature", "properties": {"kolor": "czerwony"}, "geometry": {"type": "LineString", "coordinates": [[20.49383, 49.38262, 711.2], [20.49279, 49.38283, 712.0], [20.49213, 49.38275, 715.2], [20.49085, 49.38287, 719.8], [20.49015, 49.3831, 726.8], [20.48546, 49.38365, 735.4], [20.48127, 49.38491, 744.7], [20.48, 49.38511, 755.8], [20.47746, 49.38523, 767.3], [20.47544, 49.38482, 778.2], [20.4742, 49.38433, 786.1], [20.47218, 49.38438, 793.1], [20.47187, 49.38451, 798.3], [20.47154, 49.38496, 800.8], [20.47007, 49.38544, 804.3], [20.47005, 49.38616, 807.2], [20.46874, 49.38678, 808.6], [20.4672, 49.38677, 810.9], [20.46476, 49.38641, 811.4], [20.46432, 49.38625, 810.3], [20.46262, 49.38642, 806.4], [20.46115, 49.38625, 799.9]]}}, {"type": "Feature", "properties": {"kolor": "zielony"}, "geometry": {"type": "LineString", "coordinates": [[20.46115, 49.38625, 799.9], [20.46158, 49.38693, 791.4], [20.4623, 49.38731, 779.5], [20.46471, 49.38786, 765.1], [20.46564, 49.38839, 749.5], [20.46727, 49.38863, 732.3], [20.46791, 49.38885, 716.1], [20.46858, 49.38952, 701.1], [20.46906, 49.38978, 686.8], [20.46882, 49.38993, 674.4], [20.46889, 49.39047, 664.6], [20.4687, 49.39102, 654.6], [20.46874, 49.39229, 645.7], [20.46904, 49.39324, 635.2], [20.4694, 49.39371, 623.8], [20.47014, 49.3939, 612.9], [20.47069, 49.39423, 601.0], [20.47125, 49.39505, 590.8], [20.47103, 49.39569, 583.1], [20.47072, 49.39598, 574.2], [20.46953, 49.39644, 565.7], [20.46781, 49.39679, 557.2], [20.46688, 49.39678, 550.4], [20.46773, 49.39735, 544.3], [20.46833, 49.39754, 536.8], [20.46957, 49.39824, 531.0], [20.47021, 49.39839, 525.8]]}}, {"type": "Feature", "properties": {"kolor": "niebieski"}, "geometry": {"type": "LineString", "coordinates": [[20.47021, 49.39839, 525.8], [20.47158, 49.399, 518.4], [20.47296, 49.40011, 512.0], [20.47191, 49.40108, 503.7], [20.4695, 49.40268, 496.0], [20.46756, 49.4033, 487.5], [20.46752, 49.40392, 480.4], [20.46129, 49.40962, 478.9], [20.46033, 49.41101, 478.8], [20.45755, 49.41222, 480.7], [20.45657, 49.4128, 482.6], [20.45399, 49.41346, 478.5], [20.45351, 49.41385, 475.1], [20.45178, 49.41464, 472.6], [20.45077, 49.41462, 471.2], [20.45005, 49.41395, 468.0]]}}, {"type": "Feature", "properties": {"kolor": "czerwony"}, "geometry": {"type": "LineString", "coordinates": [[20.45005, 49.41395, 468.0], [20.44932, 49.41389, 461.3], [20.44842, 49.41441, 454.3], [20.44648, 49.41589, 446.2], [20.44644, 49.41627, 439.1], [20.44764, 49.41663, 439.8], [20.44998, 49.41652, 441.2], [20.45405, 49.41757, 439.9], [20.45539, 49.41806, 439.1], [20.45795, 49.41985, 439.7]]}}, {"type": "Feature", "properties": {"kolor": "zielony"}, "geometry": {"type": "LineString", "coordinates": [[20.45795, 49.41985, 439.7], [20.45869, 49.42073, 441.1], [20.45915, 49.42207, 442.0], [20.46021, 49.42343, 441.9], [20.46172, 49.42396, 441.8], [20.46397, 49.42404, 440.2]]}}, {"type": "Feature", "properties": {"kolor": "brak"}, "geometry": {"type": "LineString", "coordinates": [[20.46397, 49.42404, 440.2], [20.46601, 49.42453, 440.6], [20.46672, 49.42579, 443.4], [20.46728, 49.42603, 446.6], [20.46789, 49.42604, 449.1], [20.47032, 49.42543, 450.8], [20.47281, 49.42552, 452.2], [20.47449, 49.42542, 454.6], [20.48022, 49.42432, 457.3]]}}, {"type": "Feature", "properties": {"kolor": "zolty"}, "geometry": {"type": "LineString", "coordinates": [[20.48022, 49.42432, 457.3], [20.4806, 49.42501, 459.9], [20.48031, 49.42521, 461.9], [20.48045, 49.42565, 464.3], [20.48101, 49.42561, 465.0], [20.48101, 49.42574, 465.9], [20.48121, 49.42575, 467.1], [20.48256, 49.42522, 468.7]]}}]}