{"type": "FeatureCollection", "features": [{"type": "Feature", "properties": {"id": "3C", "nazwa": "Śladem św Kingi", "_zrodlo": "Slad GPX (sladem-sw-kingi-3c.gpx) + EU-DEM 25 m"}, "geometry": {"type": "LineString", "coordinates": [[20.48256, 49.42522, 507.5], [20.48466, 49.42617, 510.8], [20.4863, 49.4277, 512.6], [20.48685, 49.42863, 513.2], [20.48732, 49.42885, 512.6], [20.48785, 49.42873, 518.0], [20.4874, 49.42846, 521.1], [20.48716, 49.42797, 524.4], [20.48723, 49.42596, 526.4], [20.49103, 49.42494, 529.6], [20.49221, 49.42416, 534.1], [20.49346, 49.42455, 539.2], [20.49377, 49.42476, 545.6], [20.49541, 49.4253, 552.3], [20.49606, 49.42628, 555.1], [20.49676, 49.42685, 558.2], [20.49686, 49.42738, 558.9], [20.49806, 49.42846, 559.5], [20.49892, 49.4288, 558.6], [20.49964, 49.43006, 556.6], [20.5003, 49.43044, 554.8], [20.50046, 49.43075, 552.1], [20.50106, 49.43113, 550.0], [20.50118, 49.43133, 551.5], [20.50104, 49.43233, 554.1], [20.50226, 49.4333, 556.5], [20.50272, 49.43395, 558.5], [20.50297, 49.43568, 561.4], [20.50336, 49.43687, 565.4], [20.50397, 49.4377, 569.2], [20.50401, 49.43797, 575.4], [20.50308, 49.43907, 584.5], [20.50213, 49.44101, 591.9], [20.50243, 49.44242, 598.8], [20.50167, 49.44396, 607.2], [20.50269, 49.44505, 618.5], [20.50302, 49.4457, 628.1], [20.50308, 49.44667, 636.9], [20.5029, 49.44787, 646.1], [20.50432, 49.44937, 654.1], [20.50458, 49.45004, 660.8], [20.50462, 49.45048, 667.7], [20.50426, 49.45105, 676.7], [20.50424, 49.45167, 686.0], [20.50321, 49.45262, 694.8], [20.50304, 49.45294, 706.7], [20.50339, 49.45388, 718.9], [20.50382, 49.45422, 730.6], [20.5061, 49.45502, 742.2], [20.5075, 49.45579, 753.3], [20.50785, 49.45636, 765.0], [20.50857, 49.45676, 777.4], [20.51054, 49.45729, 788.6], [20.51223, 49.45729, 797.3], [20.51283, 49.45743, 803.1], [20.51421, 49.45861, 813.2], [20.51438, 49.45858, 825.5], [20.51446, 49.45806, 835.6], [20.51431, 49.45703, 845.9], [20.51706, 49.4567, 858.5], [20.51873, 49.45584, 868.0], [20.5185, 49.45525, 877.6], [20.51881, 49.45459, 887.4], [20.52011, 49.45458, 897.1], [20.52022, 49.4545, 901.8], [20.52009, 49.45388, 904.5], [20.51984, 49.45369, 909.1], [20.51925, 49.45354, 914.2], [20.519, 49.45338, 916.5], [20.51906, 49.45325, 918.7], [20.51941, 49.45319, 924.1], [20.52075, 49.45347, 930.0], [20.52106, 49.45369, 937.0], [20.52125, 49.45408, 945.2], [20.52402, 49.45629, 958.0], [20.52419, 49.45664, 970.6], [20.52405, 49.45712, 982.2], [20.52428, 49.45768, 994.5], [20.5266, 49.45869, 1010.5], [20.52712, 49.45914, 1024.9], [20.52751, 49.45926, 1040.3], [20.52802, 49.45924, 1055.7], [20.52931, 49.45891, 1071.7], [20.53087, 49.45916, 1083.0], [20.53166, 49.45907, 1094.1], [20.5322, 49.45924, 1104.5], [20.53332, 49.45931, 1113.2], [20.53382, 49.45946, 1118.0], [20.5357, 49.46094, 1121.3], [20.53622, 49.46113, 1123.3], [20.53733, 49.46133, 1124.7], [20.53841, 49.46131, 1123.9], [20.53906, 49.46153, 1120.6], [20.54069, 49.46174, 1118.2], [20.54201, 49.4618, 1116.8], [20.54321, 49.46249, 1118.9], [20.5446, 49.46303, 1121.0], [20.54629, 49.46325, 1119.9], [20.54859, 49.46404, 1118.7], [20.55371, 49.46683, 1117.5], [20.55182, 49.46832, 1116.4], [20.55072, 49.47039, 1116.4], [20.55041, 49.47068, 1112.9], [20.54998, 49.47087, 1106.7], [20.54839, 49.47085, 1096.4], [20.54762, 49.47102, 1085.6], [20.54631, 49.472, 1078.4], [20.54369, 49.47336, 1073.0], [20.54347, 49.47383, 1069.6], [20.54353, 49.47408, 1067.9], [20.54318, 49.47401, 1067.8], [20.54223, 49.47415, 1070.5], [20.54115, 49.47449, 1075.8], [20.54056, 49.47473, 1081.7], [20.54018, 49.47517, 1085.9], [20.53991, 49.47528, 1086.6], [20.5388, 49.47493, 1085.4], [20.53777, 49.47477, 1080.6], [20.53583, 49.47474, 1074.2], [20.53318, 49.47492, 1067.7], [20.53233, 49.47468, 1060.3], [20.53141, 49.47497, 1054.0], [20.53016, 49.4749, 1048.6], [20.52893, 49.47447, 1041.4], [20.52795, 49.47455, 1036.3], [20.52657, 49.47423, 1030.5], [20.52553, 49.47415, 1021.6], [20.52337, 49.47433, 1012.5], [20.52262, 49.47427, 1002.3], [20.52168, 49.47401, 990.5], [20.52008, 49.47415, 973.3], [20.51869, 49.47383, 953.5], [20.51792, 49.47388, 937.0], [20.51644, 49.47425, 920.7], [20.51391, 49.47438, 906.1], [20.51276, 49.47475, 896.5], [20.51201, 49.47483, 885.9], [20.51129, 49.47468, 873.6], [20.51106, 49.47424, 862.5], [20.51058, 49.47381, 855.7], [20.50817, 49.47307, 854.3], [20.50624, 49.47186, 853.9], [20.50576, 49.47196, 854.7], [20.50472, 49.47181, 855.1], [20.50059, 49.47279, 855.9], [20.50013, 49.47279, 857.1], [20.49981, 49.47261, 859.8], [20.49976, 49.47222, 863.2], [20.49926, 49.47137, 867.0], [20.49844, 49.47071, 868.0], [20.49833, 49.47024, 868.5], [20.49785, 49.46977, 866.6], [20.49733, 49.4693, 862.5], [20.49556, 49.46853, 858.7], [20.49528, 49.46782, 860.7], [20.49459, 49.46735, 866.6], [20.49065, 49.46711, 875.7], [20.48976, 49.4669, 884.9], [20.48767, 49.46667, 894.4], [20.48687, 49.46545, 905.4], [20.48599, 49.46579, 919.2], [20.485, 49.46598, 935.6], [20.48351, 49.4658, 951.2], [20.48298, 49.46533, 960.3], [20.48218, 49.46521, 963.4], [20.48158, 49.46458, 963.4], [20.48181, 49.46447, 962.1], [20.48213, 49.46362, 959.7], [20.48313, 49.46205, 955.0], [20.48318, 49.46097, 948.2], [20.48363, 49.46023, 939.9], [20.48438, 49.45953, 931.5], [20.48515, 49.45913, 924.8], [20.48552, 49.45876, 917.9], [20.48563, 49.4584, 909.5], [20.48533, 49.45812, 899.7], [20.48542, 49.45789, 887.8], [20.48807, 49.45633, 876.6], [20.48928, 49.4559, 865.1], [20.48972, 49.45522, 853.7], [20.49143, 49.45449, 840.5], [20.49168, 49.45419, 828.0], [20.49118, 49.45162, 819.4], [20.49061, 49.45124, 812.8], [20.49034, 49.45017, 808.1], [20.49033, 49.44859, 805.8], [20.49106, 49.44738, 803.3], [20.49103, 49.44689, 801.6], [20.49128, 49.44644, 800.4], [20.49122, 49.44535, 802.0], [20.49096, 49.44498, 804.0], [20.49096, 49.44442, 804.9], [20.49045, 49.44374, 803.8], [20.49067, 49.4429, 800.6], [20.49, 49.44236, 796.5], [20.48767, 49.4414, 791.7], [20.48692, 49.44052, 786.8], [20.48578, 49.44021, 782.4], [20.48569, 49.43959, 776.4], [20.48632, 49.43924, 769.3], [20.48626, 49.43913, 762.0], [20.48519, 49.43907, 755.3], [20.48448, 49.43881, 748.2], [20.48273, 49.43858, 741.0], [20.48224, 49.43836, 733.6], [20.4811, 49.43755, 726.0], [20.48, 49.43604, 716.9], [20.47924, 49.43574, 707.8], [20.47877, 49.43532, 698.5], [20.47916, 49.43488, 687.9], [20.47879, 49.43458, 677.9], [20.4788, 49.43433, 669.9], [20.4791, 49.43399, 660.9], [20.47923, 49.4327, 652.8], [20.47966, 49.4316, 642.2], [20.47956, 49.43148, 632.7], [20.48265, 49.43037, 623.0], [20.48303, 49.4304, 612.0], [20.48452, 49.43086, 601.6], [20.48486, 49.43218, 590.1], [20.48512, 49.43227, 577.3], [20.48564, 49.43211, 566.8], [20.48599, 49.43176, 556.5], [20.48682, 49.43133, 552.3], [20.48819, 49.42942, 546.9], [20.48809, 49.42915, 541.1], [20.48732, 49.42885, 536.3]]}}]}