{"type": "FeatureCollection", "_uwaga": "Generowane: tools/trasy/kolory_odcinkow.py. Nie edytować ręcznie.", "features": [{"type": "Feature", "properties": {"kolor": "zolty"}, "geometry": {"type": "LineString", "coordinates": [[20.48256, 49.42522, 468.7], [20.48121, 49.42575, 467.1], [20.48101, 49.42574, 465.9], [20.48101, 49.42561, 465.0], [20.48045, 49.42565, 464.3], [20.48031, 49.42521, 461.9], [20.4806, 49.42501, 459.9], [20.48022, 49.42432, 457.3]]}}, {"type": "Feature", "properties": {"kolor": "brak"}, "geometry": {"type": "LineString", "coordinates": [[20.48022, 49.42432, 457.3], [20.47449, 49.42542, 454.6], [20.47281, 49.42552, 452.2], [20.47032, 49.42543, 450.8], [20.46789, 49.42604, 449.1], [20.46728, 49.42603, 446.6], [20.46689, 49.4259, 443.4], [20.46601, 49.42453, 440.9], [20.46397, 49.42404, 440.7]]}}, {"type": "Feature", "properties": {"kolor": "zielony"}, "geometry": {"type": "LineString", "coordinates": [[20.46397, 49.42404, 440.7], [20.46172, 49.42396, 441.7], [20.46021, 49.42343, 444.7], [20.46047, 49.4234, 449.3]]}}, {"type": "Feature", "properties": {"kolor": "brak"}, "geometry": {"type": "LineString", "coordinates": [[20.46047, 49.4234, 449.3], [20.46098, 49.42259, 455.3], [20.46045, 49.42219, 464.1], [20.46161, 49.42193, 475.4], [20.46238, 49.42133, 487.9], [20.46216, 49.42038, 500.3], [20.46273, 49.41951, 512.0], [20.46289, 49.41884, 525.3], [20.46271, 49.41871, 538.4], [20.4619, 49.41875, 552.4], [20.46201, 49.41796, 565.8], [20.46258, 49.41732, 579.0], [20.46348, 49.41693, 591.4], [20.46426, 49.41603, 604.4]]}}, {"type": "Feature", "properties": {"kolor": "niebieski"}, "geometry": {"type": "LineString", "coordinates": [[20.46426, 49.41603, 604.4], [20.46661, 49.41605, 623.7], [20.46981, 49.41547, 642.4], [20.47084, 49.41571, 657.7], [20.47208, 49.41542, 670.9], [20.47624, 49.41405, 681.9], [20.47674, 49.41359, 690.7], [20.47724, 49.41258, 696.6], [20.47786, 49.41196, 701.9], [20.4809, 49.41024, 708.4], [20.48244, 49.40973, 709.6], [20.48425, 49.40957, 711.4], [20.48583, 49.40893, 713.6], [20.48829, 49.40827, 715.3], [20.48918, 49.40729, 715.9], [20.49087, 49.40663, 717.2], [20.49184, 49.40674, 719.6], [20.49309, 49.40657, 722.0], [20.49413, 49.40625, 724.0], [20.49535, 49.40567, 727.0], [20.49688, 49.40553, 729.1], [20.4975, 49.40525, 731.9], [20.50034, 49.40446, 734.5], [20.50337, 49.40405, 738.2], [20.50491, 49.4036, 741.2], [20.50583, 49.40267, 743.6], [20.50748, 49.4017, 743.0], [20.50867, 49.40122, 739.9]]}}, {"type": "Feature", "properties": {"kolor": "zolty"}, "geometry": {"type": "LineString", "coordinates": [[20.50867, 49.40122, 739.9], [20.50905, 49.40177, 734.2], [20.5094, 49.40188, 727.2], [20.51332, 49.40202, 715.7], [20.51466, 49.40224, 704.7], [20.51629, 49.40283, 692.7], [20.51647, 49.40334, 681.7], [20.51569, 49.40462, 671.4], [20.51584, 49.40498, 663.3], [20.51548, 49.40559, 653.6], [20.51563, 49.40574, 641.6], [20.51601, 49.40572, 629.3], [20.51697, 49.40653, 623.0], [20.51881, 49.40738, 616.2], [20.51931, 49.40783, 607.6], [20.51931, 49.40819, 598.2], [20.51819, 49.4082, 588.0], [20.51842, 49.40842, 577.2], [20.51848, 49.40905, 567.8], [20.52046, 49.40915, 561.1], [20.52067, 49.4094, 554.6], [20.52067, 49.40971, 546.5], [20.52105, 49.40994, 539.5], [20.52373, 49.40933, 535.2], [20.52482, 49.40952, 532.6], [20.52592, 49.40935, 530.0], [20.52641, 49.40968, 527.7], [20.52661, 49.41068, 525.8]]}}]}