{"type": "FeatureCollection", "_uwaga": "Generowane: tools/trasy/kolory_odcinkow.py. Nie edytować ręcznie.", "features": [{"type": "Feature", "properties": {"kolor": "czerwony"}, "geometry": {"type": "LineString", "coordinates": [[20.55354, 49.40691, 579.6], [20.55507, 49.40702, 581.4], [20.55616, 49.40675, 582.9], [20.55665, 49.40702, 584.6], [20.55726, 49.40804, 586.4], [20.55839, 49.40878, 589.6], [20.5621, 49.40936, 592.5], [20.56368, 49.40847, 595.5], [20.56431, 49.40787, 599.1], [20.56528, 49.40732, 602.7], [20.56636, 49.40632, 606.5], [20.56664, 49.4055, 610.2], [20.56781, 49.40434, 613.1], [20.56826, 49.40405, 616.2], [20.57018, 49.40331, 620.0], [20.57207, 49.40351, 625.5], [20.57196, 49.4039, 631.9], [20.57269, 49.40403, 637.1], [20.57314, 49.40445, 642.0], [20.5743, 49.40494, 648.9], [20.57413, 49.4052, 657.9], [20.57266, 49.40577, 668.7], [20.57259, 49.40603, 680.9], [20.57502, 49.40608, 696.5], [20.57714, 49.40575, 713.6], [20.57852, 49.40589, 732.7], [20.57983, 49.40582, 752.7], [20.58446, 49.40532, 773.0], [20.58582, 49.40542, 790.9], [20.5885, 49.40584, 810.0], [20.58878, 49.4061, 828.1], [20.58908, 49.40615, 844.5], [20.58906, 49.40639, 855.6], [20.59085, 49.40807, 864.6], [20.59125, 49.40867, 870.3], [20.5915, 49.40979, 875.2], [20.59263, 49.41095, 881.4], [20.59248, 49.41275, 887.5], [20.59226, 49.41327, 891.7], [20.59254, 49.41419, 895.3], [20.59263, 49.41622, 899.1], [20.59273, 49.41643, 903.7], [20.59433, 49.4177, 907.9], [20.59478, 49.41843, 912.3], [20.5945, 49.41891, 916.7], [20.59489, 49.41949, 919.9], [20.59492, 49.4199, 922.9], [20.59466, 49.42014, 925.3], [20.59462, 49.42045, 928.4], [20.59504, 49.42078, 931.6], [20.59507, 49.42137, 935.1], [20.5956, 49.42216, 939.3], [20.59614, 49.4226, 943.5], [20.5964, 49.42317, 950.6], [20.59567, 49.42413, 958.1], [20.59571, 49.42518, 965.6], [20.59536, 49.42658, 972.6], [20.59619, 49.4276, 978.2], [20.59684, 49.42792, 983.1], [20.59755, 49.42801, 986.0], [20.59884, 49.42791, 987.3], [20.60133, 49.42837, 987.2], [20.60306, 49.42805, 981.6], [20.60414, 49.4269, 975.3], [20.60536, 49.42625, 968.9], [20.60768, 49.42585, 961.3], [20.60982, 49.42503, 954.4], [20.61311, 49.42248, 947.6], [20.61401, 49.42208, 942.1], [20.6163, 49.42053, 936.3], [20.61687, 49.42032, 932.8]]}}, {"type": "Feature", "properties": {"kolor": "niebieski"}, "geometry": {"type": "LineString", "coordinates": [[20.61687, 49.42032, 932.8], [20.61634, 49.41972, 932.4], [20.61571, 49.41948, 932.5], [20.61509, 49.41902, 932.5], [20.61442, 49.41752, 933.1], [20.61351, 49.4166, 933.6], [20.61287, 49.41619, 934.5], [20.61162, 49.41437, 935.5], [20.61119, 49.41326, 937.0], [20.61122, 49.4122, 936.9], [20.6117, 49.41153, 936.6], [20.61178, 49.41085, 936.6], [20.61214, 49.41003, 936.0], [20.6119, 49.4093, 934.3], [20.61162, 49.40899, 932.3], [20.61156, 49.40745, 931.4], [20.61201, 49.40659, 930.9], [20.61225, 49.40537, 930.5], [20.61315, 49.40407, 930.0], [20.61318, 49.40272, 928.6], [20.61296, 49.40257, 925.9], [20.61173, 49.40259, 924.0], [20.61063, 49.40243, 923.3], [20.60955, 49.40252, 923.0], [20.60849, 49.40228, 921.2], [20.60763, 49.40186, 918.3], [20.60597, 49.40146, 914.7], [20.60576, 49.40121, 910.2], [20.60598, 49.4006, 905.6], [20.60588, 49.3999, 901.0], [20.6054, 49.39951, 895.8], [20.6047, 49.3985, 889.6], [20.60334, 49.39777, 881.5], [20.60257, 49.39702, 872.6], [20.60221, 49.39601, 863.4], [20.6011, 49.39493, 850.7], [20.60088, 49.39437, 836.7]]}}, {"type": "Feature", "properties": {"kolor": "zolty"}, "geometry": {"type": "LineString", "coordinates": [[20.60088, 49.39437, 836.7], [20.59969, 49.39458, 818.5], [20.59862, 49.39498, 797.4], [20.59606, 49.3962, 775.8], [20.59422, 49.39632, 755.1], [20.59138, 49.39704, 736.5], [20.58879, 49.39705, 718.7], [20.58699, 49.39683, 701.5], [20.58669, 49.39696, 687.5], [20.58663, 49.39725, 676.3], [20.58524, 49.39746, 670.2], [20.58401, 49.39823, 667.6], [20.5834, 49.39848, 665.8], [20.58291, 49.39851, 663.2], [20.58272, 49.39883, 659.9], [20.58274, 49.39932, 656.8], [20.5824, 49.39948, 654.3], [20.58133, 49.40088, 652.5], [20.57999, 49.40124, 650.7], [20.57889, 49.40171, 648.6], [20.57843, 49.40255, 646.1], [20.57711, 49.40338, 643.4], [20.57652, 49.40344, 641.2], [20.5761, 49.40371, 638.8], [20.57487, 49.4038, 638.1], [20.57449, 49.40401, 637.0], [20.57302, 49.40354, 635.8], [20.57207, 49.40351, 634.2]]}}]}