{"type": "FeatureCollection", "features": [{"type": "Feature", "properties": {"id": "5A", "nazwa": "Od Pitoniakówki do Stefana", "_zrodlo": "Slad GPX (od-pitoniakowki-do-stefana-5a.gpx) + EU-DEM 25 m", "_uwaga": "Ślad odwrócony względem pliku źródłowego — autor nagrał pętlę w przeciwną stronę niż opisuje ją przewodnik PTTK."}, "geometry": {"type": "LineString", "coordinates": [[20.46807, 49.42647, 450.6], [20.46789, 49.42604, 451.9], [20.47032, 49.42543, 452.9], [20.47281, 49.42552, 453.6], [20.47449, 49.42542, 454.7], [20.48022, 49.42432, 457.3], [20.4806, 49.42501, 459.9], [20.48031, 49.42521, 461.9], [20.48045, 49.42565, 464.3], [20.48101, 49.42561, 468.3], [20.48101, 49.42574, 474.1], [20.48121, 49.42575, 481.8], [20.48256, 49.42522, 489.6], [20.48466, 49.42617, 496.8], [20.4863, 49.4277, 505.2], [20.48685, 49.42863, 514.8], [20.48809, 49.42915, 525.5], [20.48819, 49.42942, 537.2], [20.48682, 49.43133, 547.8], [20.48599, 49.43176, 556.6], [20.48564, 49.43211, 566.8], [20.48512, 49.43227, 577.3], [20.48486, 49.43218, 590.2], [20.48452, 49.43086, 601.9], [20.48303, 49.4304, 614.1], [20.48265, 49.43037, 625.7], [20.47965, 49.43142, 636.1], [20.47923, 49.4327, 646.7], [20.4791, 49.43399, 658.1], [20.4788, 49.43433, 661.3], [20.47879, 49.43458, 662.1], [20.47916, 49.43488, 660.4], [20.47879, 49.43535, 658.5], [20.47625, 49.43485, 653.5], [20.47447, 49.43423, 647.8], [20.47438, 49.43437, 640.1], [20.47458, 49.43469, 630.5], [20.47368, 49.43488, 619.1], [20.47342, 49.43479, 613.0], [20.47231, 49.43489, 608.0], [20.47174, 49.43474, 601.3], [20.47134, 49.43442, 593.9], [20.47139, 49.43471, 584.9], [20.47097, 49.43539, 575.7], [20.47076, 49.43642, 565.7], [20.47053, 49.43653, 555.4], [20.46916, 49.43648, 546.8], [20.46896, 49.43644, 536.8], [20.46836, 49.43553, 527.1], [20.46797, 49.43545, 518.2], [20.46742, 49.43574, 508.9], [20.46736, 49.43527, 502.0], [20.46754, 49.43474, 494.9], [20.46731, 49.43357, 489.8], [20.46761, 49.43264, 484.3], [20.46738, 49.43206, 477.4], [20.46794, 49.43068, 471.3], [20.46789, 49.42989, 465.7], [20.46906, 49.42864, 460.6], [20.46927, 49.42742, 458.2], [20.46823, 49.42729, 455.6], [20.46802, 49.42697, 453.1], [20.46807, 49.42647, 449.7]]}}]}