{"type": "FeatureCollection", "features": [{"type": "Feature", "properties": {"id": "5B", "nazwa": "Nie mam roweru", "_zrodlo": "Slad GPX (nie-mam-roweru-5b.gpx) + EU-DEM 25 m"}, "geometry": {"type": "LineString", "coordinates": [[20.48256, 49.42522, 507.5], [20.48466, 49.42617, 510.8], [20.4863, 49.4277, 512.6], [20.48685, 49.42863, 513.2], [20.48732, 49.42885, 512.6], [20.48785, 49.42873, 518.0], [20.4874, 49.42846, 521.1], [20.48716, 49.42797, 524.4], [20.48723, 49.42596, 526.4], [20.49103, 49.42494, 529.6], [20.49221, 49.42416, 534.1], [20.49346, 49.42455, 539.2], [20.49377, 49.42476, 545.6], [20.49541, 49.4253, 552.3], [20.49606, 49.42628, 555.1], [20.49676, 49.42685, 558.2], [20.49686, 49.42738, 558.9], [20.49806, 49.42846, 559.5], [20.49892, 49.4288, 558.6], [20.49964, 49.43006, 556.6], [20.5003, 49.43044, 554.8], [20.50046, 49.43075, 552.1], [20.50106, 49.43113, 550.0], [20.50118, 49.43133, 551.5], [20.50104, 49.43233, 554.1], [20.50226, 49.4333, 556.5], [20.50272, 49.43395, 558.5], [20.50297, 49.43568, 561.4], [20.50336, 49.43687, 565.4], [20.50397, 49.4377, 569.2], [20.50401, 49.43797, 575.4], [20.50308, 49.43907, 584.5], [20.50213, 49.44101, 591.9], [20.50243, 49.44242, 598.8], [20.50167, 49.44396, 607.2], [20.50269, 49.44505, 618.5], [20.50302, 49.4457, 628.1], [20.50308, 49.44667, 636.9], [20.5029, 49.44787, 646.1], [20.50432, 49.44937, 654.1], [20.50458, 49.45004, 660.8], [20.50462, 49.45048, 667.7], [20.50426, 49.45105, 676.7], [20.50424, 49.45167, 686.0], [20.50321, 49.45262, 694.8], [20.50304, 49.45294, 706.7], [20.50339, 49.45388, 718.9], [20.50382, 49.45422, 730.6], [20.5061, 49.45502, 742.2], [20.5075, 49.45579, 753.3], [20.50785, 49.45636, 765.0], [20.50857, 49.45676, 777.4], [20.51054, 49.45729, 788.6], [20.51223, 49.45729, 797.3], [20.51283, 49.45743, 803.1], [20.51421, 49.45861, 813.2], [20.51438, 49.45858, 825.5], [20.51446, 49.45806, 835.6], [20.51431, 49.45703, 845.9], [20.51706, 49.4567, 858.5], [20.51873, 49.45584, 868.0], [20.5185, 49.45525, 877.6], [20.51881, 49.45459, 887.4], [20.52011, 49.45458, 897.1], [20.52022, 49.4545, 901.8], [20.52009, 49.45388, 904.5], [20.51984, 49.45369, 909.1], [20.51925, 49.45354, 914.2], [20.519, 49.45338, 916.5], [20.51906, 49.45325, 918.7], [20.51941, 49.45319, 924.1], [20.52075, 49.45347, 930.2], [20.52106, 49.45369, 937.0], [20.52125, 49.45408, 944.1], [20.52402, 49.45629, 955.0], [20.52419, 49.45685, 965.0], [20.52366, 49.4575, 973.4], [20.52376, 49.45765, 985.3], [20.52604, 49.45882, 997.1], [20.52615, 49.45927, 1004.0], [20.52667, 49.45973, 1011.9], [20.52885, 49.46005, 1019.5], [20.52888, 49.46016, 1027.2], [20.52759, 49.46115, 1030.8], [20.52606, 49.46262, 1033.7], [20.52608, 49.46279, 1036.7], [20.52872, 49.46331, 1034.1], [20.53046, 49.46339, 1029.5], [20.5324, 49.46336, 1027.3], [20.53293, 49.46325, 1021.8], [20.53339, 49.46357, 1018.4], [20.53512, 49.46402, 1014.0], [20.53625, 49.46401, 1009.2], [20.53735, 49.46447, 1005.7], [20.53881, 49.46444, 1000.2], [20.54045, 49.46501, 995.6], [20.54189, 49.46518, 992.5], [20.54194, 49.46537, 985.8], [20.53972, 49.46576, 978.9], [20.53893, 49.46567, 967.3], [20.53812, 49.46585, 955.6], [20.5344, 49.4658, 943.2], [20.53239, 49.46551, 928.0], [20.52833, 49.46592, 914.8], [20.52658, 49.46565, 902.9], [20.52356, 49.4658, 890.8], [20.5201, 49.46571, 878.7], [20.51823, 49.46589, 867.7], [20.5179, 49.46601, 858.3], [20.51725, 49.46673, 848.9], [20.51639, 49.46807, 840.7], [20.51535, 49.46908, 834.7], [20.51366, 49.4698, 828.3], [20.51292, 49.47044, 820.6], [20.51259, 49.47052, 813.1], [20.51228, 49.47047, 806.8], [20.51165, 49.46977, 801.3], [20.51061, 49.4693, 795.1], [20.50992, 49.46922, 788.3], [20.50801, 49.46864, 782.2], [20.50718, 49.46858, 775.7], [20.50593, 49.46891, 766.6], [20.50374, 49.4684, 756.3], [20.50312, 49.46785, 746.1], [20.50219, 49.46607, 737.5], [20.50119, 49.46542, 728.1], [20.50024, 49.46436, 719.8], [20.50024, 49.46322, 708.4], [20.50051, 49.46262, 696.0], [20.5003, 49.46193, 684.3], [20.50034, 49.461, 674.6], [20.50011, 49.45945, 667.1], [20.50044, 49.45694, 660.3], [20.50034, 49.45628, 654.3], [20.49994, 49.45537, 646.7], [20.50033, 49.45465, 639.8], [20.50032, 49.45415, 636.3], [20.49974, 49.45212, 632.3], [20.50067, 49.44985, 628.1], [20.50166, 49.4481, 624.7], [20.50111, 49.4469, 623.0], [20.50167, 49.44558, 620.1], [20.50143, 49.44433, 615.1], [20.50167, 49.44396, 613.0]]}}]}