{"type": "FeatureCollection", "_uwaga": "Generowane: tools/trasy/kolory_odcinkow.py. Nie edytować ręcznie.", "features": [{"type": "Feature", "properties": {"kolor": "zielony"}, "geometry": {"type": "LineString", "coordinates": [[20.547616, 49.405978, 570.2], [20.547457, 49.405985, 571.5], [20.547227, 49.405675, 578.9], [20.547233, 49.405652, 579.2], [20.54724, 49.405622, 579.7], [20.547254, 49.405567, 580.5], [20.547494, 49.405417, 580.7], [20.547647, 49.405323, 580.6], [20.547781, 49.405176, 581.7], [20.548039, 49.40476, 586.7], [20.548049, 49.40454, 591.5], [20.54798, 49.404369, 597.0], [20.547915, 49.404247, 601.5], [20.547985, 49.404149, 602.8], [20.548055, 49.404025, 604.8], [20.547949, 49.403937, 608.8], [20.547957, 49.403856, 610.7], [20.548016, 49.40376, 612.1], [20.548156, 49.403612, 613.7], [20.548173, 49.403413, 619.1], [20.548092, 49.403238, 624.9], [20.548047, 49.403121, 629.2], [20.548114, 49.40307, 630.0], [20.54855, 49.402729, 635.1], [20.548747, 49.402585, 636.7], [20.548953, 49.402484, 636.9], [20.549001, 49.40238, 638.3], [20.54898, 49.402353, 638.9], [20.54898, 49.40235, 639.8], [20.54896, 49.40233, 640.7], [20.54894, 49.4023, 641.5], [20.54892, 49.40227, 642.2], [20.54891, 49.40208, 643.2], [20.54895, 49.40195, 643.9], [20.549, 49.40181, 644.1], [20.54906, 49.40169, 644.1], [20.54925, 49.4015, 643.5], [20.54951, 49.40139, 642.9], [20.54966, 49.4013, 642.4], [20.54979, 49.40122, 642.0], [20.55016, 49.40075, 642.1], [20.5503, 49.40067, 643.1], [20.55031, 49.40053, 644.7], [20.55039, 49.40034, 646.1], [20.55045, 49.4001, 647.0], [20.55056, 49.39953, 647.7], [20.55054, 49.39939, 648.3], [20.55054, 49.39925, 648.4], [20.55058, 49.39915, 648.2], [20.5506, 49.39908, 647.5], [20.55066, 49.39884, 648.0], [20.55073, 49.39878, 649.4], [20.55098, 49.39859, 651.6], [20.55152, 49.3983, 654.4], [20.55174, 49.39818, 657.9], [20.55193, 49.39818, 661.7], [20.55207, 49.39811, 665.5], [20.55224, 49.39808, 668.6], [20.55233, 49.39798, 671.2], [20.55238, 49.39785, 674.0], [20.55252, 49.39759, 676.3], [20.55275, 49.39732, 678.1], [20.55314, 49.39708, 680.6], [20.55318, 49.39682, 683.3], [20.55327, 49.39677, 686.6], [20.55354, 49.39676, 689.9], [20.55367, 49.39676, 693.0], [20.55392, 49.39685, 696.6], [20.55398, 49.39687, 700.6], [20.55423, 49.39696, 704.0], [20.55436, 49.39696, 707.1]]}}, {"type": "Feature", "properties": {"kolor": "brak"}, "geometry": {"type": "LineString", "coordinates": [[20.55436, 49.39696, 707.1], [20.55468, 49.39714, 709.5], [20.55487, 49.39719, 712.1], [20.55492, 49.39728, 714.1], [20.55506, 49.39736, 715.7], [20.55556, 49.39739, 716.4], [20.55597, 49.39743, 716.9], [20.55611, 49.39754, 717.3], [20.55608, 49.39766, 717.6], [20.55597, 49.39776, 717.4], [20.55593, 49.39778, 716.7], [20.5562, 49.39788, 716.5], [20.55626, 49.39794, 716.3], [20.55637, 49.39826, 716.0]]}}]}