{"type": "FeatureCollection", "features": [{"type": "Feature", "properties": {"id": "6A", "nazwa": "Mało znany Średniak", "_zrodlo": "Slad GPX (malo-znany-sredniak-6a.gpx) + EU-DEM 25 m"}, "geometry": {"type": "LineString", "coordinates": [[20.46807, 49.42647, 449.7], [20.46802, 49.42697, 453.1], [20.46823, 49.42729, 455.6], [20.46927, 49.42742, 458.2], [20.46906, 49.42864, 460.6], [20.46789, 49.42989, 465.9], [20.46794, 49.43068, 471.5], [20.46738, 49.43206, 477.6], [20.46761, 49.43264, 487.1], [20.4673, 49.43374, 495.1], [20.46754, 49.43474, 502.1], [20.46736, 49.43527, 510.2], [20.46753, 49.43702, 517.7], [20.46886, 49.43799, 526.4], [20.46886, 49.43866, 538.8], [20.46826, 49.43953, 553.3], [20.46946, 49.43905, 568.1], [20.47019, 49.43922, 579.5], [20.47272, 49.44084, 592.1], [20.47311, 49.44165, 607.8], [20.47276, 49.44176, 623.6], [20.47152, 49.44123, 646.1], [20.47113, 49.44157, 667.8], [20.47238, 49.44313, 685.8], [20.47238, 49.44405, 701.5], [20.47302, 49.44639, 717.6], [20.47364, 49.44678, 732.6], [20.47525, 49.44853, 746.8], [20.47588, 49.44886, 758.0], [20.47751, 49.45026, 768.6], [20.47721, 49.45089, 775.0], [20.4775, 49.45119, 779.5], [20.47749, 49.45178, 782.3], [20.47825, 49.45212, 783.8], [20.47899, 49.45324, 784.3], [20.47973, 49.45347, 786.9], [20.48044, 49.45388, 790.6], [20.48145, 49.45398, 794.6], [20.48184, 49.45416, 797.8], [20.48202, 49.45521, 797.9], [20.48251, 49.45539, 796.5], [20.48286, 49.45539, 795.0], [20.48435, 49.45445, 792.7], [20.4853, 49.45409, 792.1], [20.48623, 49.45323, 792.1], [20.48615, 49.45302, 791.5], [20.48751, 49.45172, 789.8], [20.48822, 49.45155, 787.7], [20.48915, 49.45111, 786.5], [20.48982, 49.45099, 788.6], [20.49001, 49.4508, 792.0], [20.49034, 49.45017, 797.1], [20.49033, 49.44859, 799.8], [20.49106, 49.44738, 800.5], [20.49103, 49.44689, 800.4], [20.49128, 49.44644, 800.4], [20.49122, 49.44535, 801.9], [20.49096, 49.44498, 803.3], [20.49096, 49.44442, 804.6], [20.49045, 49.44374, 804.8], [20.49069, 49.44301, 803.3], [20.49054, 49.44274, 800.6], [20.49, 49.44236, 797.0], [20.48767, 49.4414, 792.5], [20.48692, 49.44052, 787.8], [20.48578, 49.44021, 782.6], [20.48569, 49.43959, 776.4], [20.48632, 49.43924, 769.3], [20.48626, 49.43913, 761.5], [20.48519, 49.43907, 754.8], [20.48448, 49.43881, 747.6], [20.48273, 49.43858, 740.4], [20.48156, 49.43792, 733.2], [20.4811, 49.43755, 725.6], [20.48, 49.43604, 716.4], [20.47924, 49.43574, 707.4], [20.47879, 49.43535, 698.1], [20.47916, 49.43488, 688.0], [20.47879, 49.43458, 677.8], [20.4788, 49.43433, 667.5], [20.4791, 49.43399, 658.1], [20.47923, 49.4327, 646.7], [20.47965, 49.43142, 636.1], [20.48265, 49.43037, 625.7], [20.48303, 49.4304, 614.1], [20.48452, 49.43086, 601.9], [20.48486, 49.43218, 590.2], [20.48512, 49.43227, 577.7], [20.48564, 49.43211, 567.1], [20.48599, 49.43176, 557.0], [20.48682, 49.43133, 550.1], [20.48727, 49.43085, 541.3], [20.48819, 49.42942, 531.6], [20.48809, 49.42915, 522.1], [20.48685, 49.42863, 513.5], [20.4863, 49.4277, 506.1], [20.48466, 49.42617, 499.1], [20.48284, 49.4253, 492.3], [20.48256, 49.42522, 485.3], [20.48225, 49.4253, 478.3], [20.48121, 49.42575, 472.5], [20.48101, 49.42574, 468.4], [20.48101, 49.42561, 466.1], [20.48045, 49.42565, 464.2], [20.48031, 49.42521, 461.9], [20.4806, 49.42501, 459.9], [20.48022, 49.42432, 457.3], [20.47449, 49.42542, 454.7], [20.47281, 49.42552, 453.6], [20.47032, 49.42543, 452.9], [20.46789, 49.42604, 451.9], [20.46807, 49.42647, 450.6]]}}]}