{"type": "FeatureCollection", "features": [{"type": "Feature", "properties": {"id": "8D", "nazwa": "Lawendowe Wzgórza", "_zrodlo": "Slad GPX (route-c99efa82.gpx) + EU-DEM 25 m"}, "geometry": {"type": "LineString", "coordinates": [[20.48259, 49.42514, 491.7], [20.48378, 49.42579, 494.8], [20.48461, 49.42611, 499.5], [20.48484, 49.42639, 503.0], [20.48553, 49.42688, 505.6], [20.48624, 49.42764, 511.1], [20.48699, 49.42871, 515.3], [20.48728, 49.42883, 518.6], [20.48752, 49.42875, 520.8], [20.48774, 49.42882, 521.9], [20.48785, 49.42872, 523.0], [20.4874, 49.42846, 522.5], [20.48717, 49.42796, 524.7], [20.48719, 49.42746, 527.8], [20.48792, 49.42742, 534.3], [20.48819, 49.4277, 541.1], [20.49062, 49.42762, 550.0], [20.49109, 49.42767, 559.8], [20.49156, 49.42924, 570.0], [20.49175, 49.42933, 579.1], [20.49287, 49.42944, 587.7], [20.49374, 49.42975, 594.5], [20.49432, 49.42999, 602.7], [20.49523, 49.43074, 610.0], [20.49532, 49.43089, 617.1], [20.49528, 49.43207, 618.7], [20.49538, 49.43296, 620.6], [20.49562, 49.43363, 623.5], [20.49543, 49.4337, 627.9]]}}]}