{"type": "FeatureCollection", "_uwaga": "Generowane: tools/trasy/kolory_odcinkow.py. Nie edytować ręcznie.", "features": [{"type": "Feature", "properties": {"kolor": "zolty"}, "geometry": {"type": "LineString", "coordinates": [[20.552783, 49.406615, 566.0], [20.553484, 49.406605, 568.0], [20.553947, 49.406866, 568.0], [20.554836, 49.407001, 571.0], [20.555264, 49.406991, 574.0], [20.556111, 49.406723, 579.0], [20.55665, 49.40702, 581.0], [20.557174, 49.407957, 579.0], [20.558342, 49.408784, 583.0], [20.562133, 49.409347, 589.0], [20.562795, 49.408862, 589.0], [20.563602, 49.408537, 593.0], [20.564381, 49.407856, 597.0], [20.565305, 49.407312, 595.0], [20.565904, 49.406601, 598.0], [20.566281, 49.406399, 601.0], [20.566442, 49.406196, 601.0], [20.566599, 49.405549, 601.0], [20.566864, 49.4052, 604.0], [20.568065, 49.404162, 606.0], [20.569808, 49.403401, 614.0], [20.570167, 49.403309, 617.0], [20.571079, 49.403358, 618.0], [20.571555, 49.403506, 615.0], [20.572903, 49.403522, 622.0], [20.573575, 49.403782, 623.0], [20.574749, 49.404056, 621.0], [20.574868, 49.403785, 625.0], [20.57575, 49.403785, 627.0], [20.576194, 49.403673, 631.0], [20.576499, 49.403441, 637.0], [20.577009, 49.403451, 638.0], [20.578349, 49.402653, 633.0], [20.578596, 49.402319, 634.0], [20.578616, 49.402001, 634.0], [20.578938, 49.401653, 634.0], [20.580137, 49.401196, 643.0], [20.58143, 49.400827, 643.0], [20.582095, 49.399851, 652.0], [20.582404, 49.399489, 656.0], [20.582732, 49.399298, 654.0], [20.582704, 49.39886, 653.0], [20.582948, 49.398501, 653.0], [20.583413, 49.398459, 653.0], [20.58393, 49.398255, 657.0], [20.585272, 49.397465, 668.0], [20.585889, 49.397425, 667.0], [20.586177, 49.397248, 664.0], [20.58663, 49.397247, 667.0], [20.586663, 49.396967, 665.0], [20.587188, 49.396785, 669.0], [20.588245, 49.396811, 673.0], [20.588827, 49.396945, 676.0], [20.591174, 49.396967, 717.0], [20.592944, 49.396694, 742.0], [20.594132, 49.396385, 759.0], [20.596147, 49.396209, 788.0], [20.599338, 49.394664, 831.0], [20.599639, 49.394589, 833.0], [20.600038, 49.394626, 839.0], [20.600854, 49.394403, 862.0]]}}, {"type": "Feature", "properties": {"kolor": "niebieski"}, "geometry": {"type": "LineString", "coordinates": [[20.600854, 49.394403, 862.0], [20.601726, 49.391471, 807.0], [20.601454, 49.390841, 799.0], [20.601436, 49.390307, 798.0], [20.600906, 49.389227, 801.0], [20.600065, 49.388334, 812.0], [20.598054, 49.387251, 860.0], [20.597817, 49.386656, 878.0], [20.597608, 49.38646, 885.0], [20.59613, 49.385517, 910.0], [20.595522, 49.385289, 918.0], [20.593379, 49.383939, 940.0], [20.591946, 49.384062, 945.0], [20.588821, 49.384929, 942.0], [20.587931, 49.385273, 939.0], [20.586673, 49.385606, 948.0], [20.586389, 49.38561, 949.0], [20.585198, 49.385416, 954.0], [20.584782, 49.385158, 952.0], [20.583674, 49.384798, 945.0], [20.581561, 49.383932, 943.0], [20.580372, 49.383097, 949.0], [20.579978, 49.382921, 947.0], [20.57964, 49.381795, 926.0], [20.578195, 49.38051, 906.0], [20.576934, 49.378955, 920.0], [20.57666, 49.378061, 946.0], [20.576317, 49.377421, 971.0], [20.575834, 49.377115, 975.0], [20.575144, 49.376877, 978.0], [20.574206, 49.376839, 986.0], [20.573176, 49.377017, 990.0], [20.572433, 49.377427, 982.0], [20.571768, 49.377597, 977.0], [20.570923, 49.37766, 979.0], [20.569724, 49.377993, 974.0], [20.568748, 49.378575, 963.0], [20.56731, 49.378976, 942.0], [20.566076, 49.37902, 941.0], [20.563131, 49.379448, 940.0], [20.56244, 49.379369, 940.0], [20.56204, 49.379176, 942.0], [20.561715, 49.37913, 943.0], [20.561067, 49.379145, 942.0], [20.560328, 49.379013, 941.0], [20.558876, 49.378935, 940.0], [20.558157, 49.379185, 939.0], [20.5575, 49.37974, 963.0], [20.557238, 49.380937, 951.0], [20.556922, 49.38136, 945.0], [20.556018, 49.382125, 938.0], [20.555119, 49.382411, 938.0], [20.554245, 49.382551, 947.0], [20.553542, 49.382046, 973.0], [20.552781, 49.381992, 970.0], [20.552398, 49.381866, 964.0], [20.551595, 49.38232, 960.0], [20.551295, 49.382706, 960.0], [20.551249, 49.382938, 956.0], [20.550705, 49.383145, 937.0], [20.549237, 49.383979, 929.0], [20.548092, 49.384346, 920.0], [20.547517, 49.384636, 919.0], [20.546482, 49.385559, 943.0], [20.544852, 49.385584, 939.0], [20.543401, 49.38576, 932.0], [20.540453, 49.386507, 932.0], [20.537803, 49.387056, 927.0], [20.537347, 49.387101, 927.0], [20.535899, 49.386892, 929.0], [20.534665, 49.387056, 923.0], [20.533222, 49.387569, 907.0], [20.530052, 49.38893, 880.0], [20.529215, 49.389105, 877.0], [20.52403, 49.390685, 863.0], [20.521511, 49.392098, 831.0], [20.51978, 49.392636, 823.0], [20.517292, 49.393641, 831.0], [20.51619, 49.3946, 825.0], [20.514669, 49.395184, 819.0], [20.512518, 49.396523, 813.0], [20.511338, 49.399294, 791.0], [20.510919, 49.399866, 780.0], [20.508651, 49.401229, 748.0], [20.507261, 49.401755, 751.0], [20.505743, 49.402709, 761.0], [20.505288, 49.403197, 768.0], [20.504938, 49.403399, 770.0], [20.504855, 49.403605, 768.0], [20.503294, 49.40407, 760.0], [20.500909, 49.404338, 745.0], [20.49761, 49.405236, 718.0], [20.497075, 49.405459, 713.0], [20.495735, 49.405598, 709.0], [20.495025, 49.405785, 710.0], [20.493936, 49.406476, 708.0], [20.493268, 49.40672, 710.0], [20.49195, 49.40688, 723.0], [20.490846, 49.406736, 742.0], [20.490014, 49.406983, 738.0], [20.489861, 49.407138, 735.0], [20.489238, 49.407412, 729.0], [20.488621, 49.408409, 730.0], [20.487339, 49.408547, 719.0], [20.485631, 49.409064, 701.0], [20.484593, 49.409521, 703.0], [20.483113, 49.409628, 706.0], [20.482413, 49.409783, 711.0], [20.481441, 49.410117, 708.0], [20.480981, 49.410472, 704.0], [20.479921, 49.410774, 710.0], [20.479389, 49.411214, 719.0], [20.478747, 49.41142, 724.0], [20.477325, 49.412512, 715.0], [20.477035, 49.413184, 718.0], [20.476233, 49.414076, 730.0], [20.473286, 49.414947, 679.0], [20.471969, 49.415453, 657.0], [20.471397, 49.415537, 658.0], [20.470759, 49.415767, 652.0], [20.470032, 49.415486, 646.0], [20.469722, 49.415474, 644.0], [20.468903, 49.415695, 641.0], [20.466292, 49.416083, 620.0], [20.464603, 49.416067, 616.0], [20.463822, 49.415945, 606.0], [20.463281, 49.4157, 606.0], [20.462779, 49.415724, 601.0], [20.462484, 49.415937, 589.0], [20.461969, 49.416061, 580.0], [20.461497, 49.4163, 575.0], [20.461521, 49.416547, 570.0], [20.461265, 49.416694, 563.0], [20.460733, 49.416711, 554.0], [20.45988, 49.41729, 523.0], [20.458796, 49.417775, 501.0], [20.457713, 49.418081, 487.0], [20.457762, 49.418223, 483.0], [20.457526, 49.418603, 465.0], [20.457604, 49.418789, 462.0], [20.457363, 49.418786, 458.0], [20.457235, 49.418912, 453.0], [20.457938, 49.419721, 449.0], [20.457927, 49.419859, 445.0], [20.455885, 49.418291, 441.0], [20.454601, 49.417782, 446.0], [20.452922, 49.41735, 454.0], [20.452112, 49.417808, 431.0], [20.451428, 49.417533, 431.0], [20.449427, 49.417763, 474.0], [20.449179, 49.417937, 478.0], [20.448947, 49.418574, 505.0], [20.447788, 49.418929, 532.0], [20.446828, 49.419112, 551.0], [20.445795, 49.419087, 560.0], [20.444218, 49.418855, 602.0], [20.443829, 49.418883, 614.0], [20.443218, 49.418501, 673.0], [20.442966, 49.418203, 704.0], [20.442515, 49.418074, 729.0], [20.442434, 49.417861, 735.0], [20.442059, 49.418016, 741.0], [20.441622, 49.417821, 754.0], [20.440581, 49.418145, 774.0], [20.44035, 49.418033, 759.0], [20.440595, 49.417864, 756.0], [20.440243, 49.417828, 737.0], [20.440259, 49.417726, 734.0], [20.440483, 49.417657, 747.0], [20.440259, 49.417726, 734.0], [20.440243, 49.417828, 737.0], [20.440595, 49.417864, 756.0], [20.44035, 49.418033, 759.0], [20.440581, 49.418145, 774.0], [20.440021, 49.418538, 764.0], [20.43989, 49.418921, 692.0], [20.438878, 49.419707, 655.0], [20.438739, 49.420267, 667.0], [20.43851, 49.420495, 678.0], [20.438556, 49.420625, 682.0], [20.437904, 49.421035, 695.0], [20.438045, 49.421195, 700.0], [20.437761, 49.421184, 703.0], [20.438002, 49.421365, 708.0], [20.437734, 49.421367, 715.0], [20.437944, 49.421458, 714.0], [20.437679, 49.421471, 723.0], [20.437749, 49.421912, 733.0], [20.437269, 49.421728, 746.0], [20.437075, 49.421968, 753.0], [20.435396, 49.422132, 753.0], [20.434704, 49.422304, 757.0], [20.434252, 49.422245, 752.0], [20.434374, 49.422411, 764.0], [20.434243, 49.422566, 772.0], [20.433654, 49.422696, 758.0], [20.433194, 49.422919, 751.0], [20.432277, 49.423092, 744.0], [20.432146, 49.423261, 752.0], [20.431641, 49.42347, 751.0], [20.431101, 49.424189, 732.0], [20.430594, 49.424471, 728.0], [20.429911, 49.424672, 738.0], [20.429525, 49.42454, 741.0], [20.428386, 49.424444, 734.0], [20.424743, 49.424859, 699.0], [20.424579, 49.424899, 698.0], [20.424209, 49.425431, 702.0], [20.423453, 49.425623, 702.0], [20.422836, 49.425374, 705.0], [20.421824, 49.425365, 707.0], [20.42121, 49.425848, 729.0], [20.421068, 49.426108, 735.0], [20.42092, 49.426131, 737.0], [20.42044, 49.426156, 743.0], [20.419367, 49.425995, 744.0], [20.417812, 49.426084, 730.0], [20.416039, 49.425524, 709.0], [20.41573, 49.425642, 712.0], [20.415478, 49.426101, 718.0], [20.413328, 49.426469, 689.0], [20.412622, 49.426071, 695.0], [20.412482, 49.425529, 692.0], [20.411023, 49.425012, 688.0], [20.410524, 49.424555, 680.0], [20.410666, 49.424409, 680.0], [20.411485, 49.424102, 690.0], [20.411495, 49.423781, 696.0], [20.41116, 49.423351, 704.0], [20.410036, 49.422644, 715.0]]}}, {"type": "Feature", "properties": {"kolor": "zolty"}, "geometry": {"type": "LineString", "coordinates": [[20.410036, 49.422644, 715.0], [20.409789, 49.421985, 726.0], [20.409309, 49.421607, 736.0], [20.409374, 49.421214, 748.0], [20.409008, 49.420366, 765.0], [20.40807, 49.419001, 780.0]]}}, {"type": "Feature", "properties": {"kolor": "niebieski"}, "geometry": {"type": "LineString", "coordinates": [[20.40807, 49.419001, 780.0], [20.409392, 49.418632, 807.0], [20.409902, 49.418639, 816.0], [20.410591, 49.418182, 835.0], [20.411404, 49.417997, 846.0], [20.412624, 49.417517, 878.0], [20.412944, 49.417171, 890.0], [20.413786, 49.416838, 908.0], [20.413889, 49.416583, 915.0], [20.413737, 49.416389, 923.0], [20.413424, 49.416303, 927.0], [20.413233, 49.416133, 933.0], [20.41341, 49.415559, 958.0], [20.413503, 49.415442, 960.0], [20.413979, 49.415345, 969.0], [20.414413, 49.415071, 988.0], [20.414622, 49.414652, 1000.0], [20.415172, 49.414467, 999.0], [20.414451, 49.414194, 994.0], [20.414188, 49.413823, 982.0], [20.414451, 49.414194, 994.0], [20.415172, 49.414467, 999.0], [20.414622, 49.414652, 1000.0], [20.414413, 49.415071, 988.0], [20.413979, 49.415345, 969.0], [20.413503, 49.415442, 960.0], [20.41341, 49.415559, 958.0], [20.413233, 49.416133, 933.0], [20.413424, 49.416303, 927.0], [20.413737, 49.416389, 923.0], [20.413889, 49.416583, 915.0], [20.413786, 49.416838, 908.0], [20.412944, 49.417171, 890.0], [20.412624, 49.417517, 878.0], [20.411404, 49.417997, 846.0], [20.410591, 49.418182, 835.0], [20.409902, 49.418639, 816.0], [20.409392, 49.418632, 807.0], [20.40807, 49.419001, 780.0], [20.40799, 49.419209, 784.0], [20.407539, 49.4194, 783.0], [20.406507, 49.419083, 791.0], [20.405047, 49.418955, 799.0], [20.403661, 49.418525, 811.0], [20.402185, 49.418297, 813.0], [20.401142, 49.418238, 808.0], [20.39993, 49.418471, 814.0], [20.399213, 49.41836, 813.0], [20.398221, 49.418354, 802.0], [20.397832, 49.418236, 796.0], [20.396928, 49.41769, 805.0], [20.396405, 49.417559, 801.0], [20.395987, 49.417644, 801.0], [20.395354, 49.417575, 795.0], [20.394758, 49.417876, 799.0], [20.394324, 49.417864, 793.0], [20.393471, 49.418046, 794.0], [20.39107, 49.417915, 798.0], [20.389997, 49.41765, 809.0], [20.389469, 49.417604, 814.0], [20.389244, 49.417736, 817.0], [20.388721, 49.418349, 816.0], [20.388377, 49.418541, 811.0], [20.387259, 49.418649, 804.0], [20.386049, 49.418548, 802.0], [20.384652, 49.418252, 804.0], [20.383294, 49.417777, 805.0], [20.381959, 49.417719, 804.0], [20.381036, 49.41796, 795.0], [20.379288, 49.418595, 799.0], [20.378689, 49.418569, 810.0], [20.3765, 49.419016, 815.0], [20.374843, 49.419115, 806.0], [20.374454, 49.419251, 806.0], [20.373113, 49.420202, 810.0], [20.371661, 49.420529, 803.0], [20.370631, 49.420931, 800.0], [20.370262, 49.42093, 798.0], [20.369451, 49.421204, 788.0], [20.368566, 49.421857, 780.0], [20.367504, 49.422445, 777.0], [20.366754, 49.423808, 764.0], [20.366061, 49.424302, 739.0], [20.365674, 49.424367, 730.0], [20.365006, 49.424684, 707.0], [20.364728, 49.424735, 701.0], [20.361862, 49.424363, 696.0], [20.360777, 49.424728, 695.0], [20.359114, 49.424847, 702.0], [20.358066, 49.424756, 702.0], [20.357167, 49.425018, 703.0], [20.35636, 49.42514, 694.0], [20.355292, 49.426082, 683.0], [20.352562, 49.42751, 679.0], [20.351565, 49.428195, 669.0], [20.35127, 49.428214, 667.0], [20.351346, 49.428319, 668.0], [20.350247, 49.429188, 664.0], [20.347392, 49.431119, 664.0], [20.344127, 49.432844, 679.0], [20.341512, 49.433526, 680.0], [20.336715, 49.435228, 666.0], [20.334993, 49.436072, 662.0], [20.334704, 49.436301, 661.0], [20.334093, 49.437232, 658.0], [20.333757, 49.437386, 656.0], [20.333666, 49.437197, 655.0], [20.333513, 49.43718, 655.0], [20.333249, 49.437378, 654.0], [20.332036, 49.437729, 649.0], [20.331407, 49.438101, 651.0]]}}, {"type": "Feature", "properties": {"kolor": "zielony"}, "geometry": {"type": "LineString", "coordinates": [[20.331407, 49.438101, 651.0], [20.330468, 49.437806, 649.0], [20.325225, 49.437178, 631.0], [20.324096, 49.436236, 616.0], [20.322787, 49.43602, 606.0], [20.320737, 49.435822, 591.0], [20.319922, 49.435936, 587.0], [20.318378, 49.435794, 587.0], [20.317159, 49.435882, 584.0], [20.316253, 49.436051, 575.0], [20.314717, 49.435959, 566.0], [20.314121, 49.435811, 566.0], [20.313695, 49.435309, 567.0], [20.313614, 49.434882, 566.0], [20.313267, 49.435022, 568.0], [20.313633, 49.434893, 566.0], [20.313695, 49.435309, 567.0], [20.314121, 49.435811, 566.0], [20.314981, 49.435976, 568.0], [20.314063, 49.436275, 554.0]]}}, {"type": "Feature", "properties": {"kolor": "brak"}, "geometry": {"type": "LineString", "coordinates": [[20.314063, 49.436275, 554.0], [20.314371, 49.436438, 551.0], [20.314178, 49.436646, 542.0], [20.314401, 49.436754, 539.0], [20.314027, 49.436942, 531.0], [20.314072, 49.437011, 532.0], [20.312697, 49.437058, 533.0], [20.31076, 49.436895, 531.0], [20.310249, 49.436588, 528.0], [20.309813, 49.436451, 526.0], [20.309254, 49.436414, 525.0], [20.309013, 49.436239, 524.0], [20.309013, 49.43576, 523.0], [20.310551, 49.433055, 524.0], [20.310616, 49.432353, 523.0], [20.311826, 49.431056, 523.0], [20.315521, 49.42525, 523.0], [20.316305, 49.42391, 522.0], [20.316119, 49.423337, 524.0], [20.316658, 49.423126, 524.0], [20.31673, 49.422776, 535.0], [20.317111, 49.422695, 535.0], [20.316978, 49.422285, 546.0], [20.317364, 49.422037, 549.0], [20.317162, 49.42193, 551.0], [20.317844, 49.421594, 555.0]]}}, {"type": "Feature", "properties": {"kolor": "niebieski"}, "geometry": {"type": "LineString", "coordinates": [[20.317844, 49.421594, 555.0], [20.317825, 49.421482, 557.0], [20.31812, 49.421121, 561.0], [20.318304, 49.420276, 559.0], [20.318326, 49.419626, 560.0], [20.318195, 49.419461, 560.0], [20.317846, 49.419434, 562.0], [20.317253, 49.419599, 568.0], [20.316398, 49.419344, 573.0], [20.315092, 49.419395, 580.0], [20.310226, 49.420746, 603.0], [20.308577, 49.420866, 610.0], [20.303161, 49.4199, 633.0], [20.301589, 49.419518, 644.0], [20.299918, 49.418871, 645.0], [20.29877, 49.418226, 646.0], [20.297269, 49.417173, 653.0], [20.296702, 49.417006, 652.0], [20.294985, 49.416802, 669.0], [20.291582, 49.417233, 689.0], [20.290436, 49.417255, 696.0], [20.288556, 49.417002, 705.0], [20.288283, 49.416809, 706.0], [20.28762, 49.416863, 710.0], [20.287328, 49.416796, 711.0], [20.284608, 49.416775, 727.0], [20.282342, 49.416524, 721.0], [20.281564, 49.416563, 714.0], [20.280172, 49.416259, 720.0], [20.278876, 49.416279, 725.0], [20.277669, 49.41646, 716.0], [20.275904, 49.416418, 698.0], [20.274547, 49.415908, 698.0], [20.273697, 49.415343, 696.0], [20.27327, 49.414702, 698.0], [20.27337, 49.414099, 704.0], [20.272739, 49.41373, 700.0], [20.271658, 49.413206, 693.0]]}}, {"type": "Feature", "properties": {"kolor": "brak"}, "geometry": {"type": "LineString", "coordinates": [[20.271658, 49.413206, 693.0], [20.268662, 49.412657, 709.0], [20.267565, 49.412176, 710.0], [20.266007, 49.412328, 712.0], [20.265014, 49.413132, 705.0]]}}, {"type": "Feature", "properties": {"kolor": "niebieski"}, "geometry": {"type": "LineString", "coordinates": [[20.265014, 49.413132, 705.0], [20.264102, 49.413641, 704.0], [20.260747, 49.414954, 705.0], [20.259481, 49.415168, 691.0], [20.258816, 49.415613, 684.0], [20.2588, 49.415793, 683.0], [20.257695, 49.416118, 683.0], [20.25759, 49.41626, 682.0], [20.25677, 49.416298, 682.0], [20.256329, 49.416182, 683.0], [20.25586, 49.416461, 684.0], [20.254758, 49.417381, 690.0], [20.252631, 49.4181, 705.0], [20.251845, 49.41892, 711.0], [20.251118, 49.419133, 718.0], [20.250643, 49.419134, 724.0], [20.249943, 49.418724, 738.0], [20.249423, 49.418728, 741.0], [20.24901, 49.418613, 746.0], [20.248972, 49.418309, 754.0], [20.249133, 49.418023, 761.0], [20.249069, 49.417698, 765.0], [20.248452, 49.417405, 775.0], [20.248328, 49.417046, 781.0], [20.24821, 49.417001, 781.0], [20.246628, 49.417091, 797.0], [20.245753, 49.416973, 799.0], [20.244938, 49.417164, 805.0], [20.243291, 49.417189, 814.0], [20.242546, 49.417112, 819.0], [20.241977, 49.416805, 823.0], [20.24144, 49.416683, 821.0], [20.240653, 49.416704, 827.0], [20.239984, 49.417124, 837.0], [20.239987, 49.417243, 839.0], [20.240328, 49.417523, 841.0], [20.240289, 49.417701, 841.0], [20.240137, 49.417761, 842.0], [20.238404, 49.417737, 847.0], [20.237573, 49.417876, 845.0], [20.235661, 49.417703, 837.0], [20.234073, 49.417954, 841.0], [20.229325, 49.418225, 874.0], [20.228684, 49.418197, 868.0], [20.226801, 49.418435, 860.0], [20.225728, 49.418267, 861.0], [20.223352, 49.418159, 865.0], [20.220984, 49.418291, 872.0], [20.220458, 49.417133, 813.0], [20.220385, 49.416386, 784.0], [20.219677, 49.415587, 757.0], [20.219468, 49.415001, 741.0], [20.219119, 49.414697, 730.0], [20.215665, 49.414481, 711.0], [20.214103, 49.414641, 712.0], [20.211382, 49.41444, 692.0], [20.211187, 49.414115, 675.0], [20.210834, 49.413955, 668.0], [20.208933, 49.41381, 656.0], [20.208594, 49.413443, 657.0], [20.208594, 49.412721, 658.0], [20.20816, 49.412495, 661.0], [20.207913, 49.412649, 663.0], [20.207511, 49.413315, 672.0], [20.207328, 49.413383, 674.0], [20.206818, 49.413404, 679.0], [20.204202, 49.413123, 691.0], [20.201607, 49.413348, 696.0], [20.192879, 49.413437, 731.0], [20.191821, 49.413266, 728.0]]}}, {"type": "Feature", "properties": {"kolor": "zielony"}, "geometry": {"type": "LineString", "coordinates": [[20.191821, 49.413266, 728.0], [20.191058, 49.413555, 727.0], [20.189821, 49.414409, 729.0], [20.188654, 49.415841, 725.0], [20.188413, 49.416013, 722.0], [20.186214, 49.417231, 713.0], [20.185948, 49.417472, 712.0], [20.184543, 49.419687, 726.0], [20.18226, 49.420753, 713.0], [20.181051, 49.421139, 704.0], [20.180733, 49.421327, 702.0], [20.180399, 49.421139, 705.0], [20.179573, 49.421212, 705.0], [20.178017, 49.420961, 694.0], [20.176375, 49.421, 686.0], [20.171864, 49.420424, 657.0], [20.170609, 49.420602, 652.0], [20.169928, 49.420522, 650.0], [20.169192, 49.420605, 644.0], [20.168838, 49.420525, 643.0], [20.167556, 49.420508, 637.0], [20.16709, 49.420616, 635.0], [20.165024, 49.420612, 626.0], [20.16308, 49.420829, 625.0], [20.162669, 49.420691, 623.0], [20.162035, 49.420631, 622.0], [20.161264, 49.420874, 621.0], [20.158182, 49.423051, 617.0], [20.158476, 49.423736, 616.0], [20.158524, 49.4243, 616.0], [20.158891, 49.424876, 611.0], [20.159187, 49.425703, 610.0], [20.159209, 49.425976, 610.0], [20.158977, 49.426323, 609.0], [20.159279, 49.428307, 601.0], [20.159486, 49.428667, 598.0], [20.16003, 49.42919, 600.0], [20.160165, 49.429652, 600.0], [20.160283, 49.430187, 601.0], [20.160018, 49.430769, 601.0], [20.160469, 49.431542, 599.0], [20.160657, 49.43236, 599.0], [20.160947, 49.432604, 599.0], [20.161372, 49.433509, 597.0], [20.16163, 49.434516, 594.0], [20.159258, 49.434463, 597.0], [20.158125, 49.434325, 596.0], [20.157677, 49.434405, 595.0], [20.154712, 49.436057, 593.0], [20.147378, 49.438858, 599.0], [20.145927, 49.439573, 602.0], [20.144021, 49.44077, 604.0]]}}]}