{"type": "FeatureCollection", "_uwaga": "Generowane: tools/trasy/kolory_odcinkow.py. Nie edytować ręcznie.", "features": [{"type": "Feature", "properties": {"kolor": "brak"}, "geometry": {"type": "LineString", "coordinates": [[20.45909, 49.42506, 429.8], [20.45956, 49.42444, 429.3], [20.46001, 49.4239, 428.9], [20.46012, 49.42375, 429.0]]}}, {"type": "Feature", "properties": {"kolor": "zielony"}, "geometry": {"type": "LineString", "coordinates": [[20.46012, 49.42375, 429.0], [20.46022, 49.42358, 429.6], [20.4602, 49.42349, 429.9], [20.4602, 49.42345, 429.9], [20.46013, 49.42335, 429.7], [20.45995, 49.42316, 429.5], [20.4597, 49.42286, 429.3], [20.45953, 49.42263, 429.3], [20.45929, 49.42232, 432.2]]}}, {"type": "Feature", "properties": {"kolor": "czerwony"}, "geometry": {"type": "LineString", "coordinates": [[20.45929, 49.42232, 432.2], [20.45915, 49.42209, 435.2], [20.45898, 49.42131, 438.8], [20.45892, 49.42115, 443.6], [20.45868, 49.42074, 449.1], [20.45843, 49.42042, 451.9], [20.45812, 49.42008, 454.4], [20.45793, 49.41986, 455.1], [20.45767, 49.41965, 453.5], [20.4571, 49.41924, 450.8], [20.4564, 49.41865, 447.9], [20.45627, 49.41856, 445.3], [20.456, 49.41837, 443.9], [20.45588, 49.41829, 443.6], [20.4554, 49.41806, 443.4], [20.455, 49.4179, 443.2], [20.45459, 49.41777, 442.6], [20.45421, 49.41764, 441.6], [20.45381, 49.41752, 440.2], [20.4537, 49.41748, 438.4], [20.45359, 49.41746, 436.5], [20.45341, 49.41743, 434.8], [20.45293, 49.41734, 433.4], [20.45268, 49.41729, 432.6], [20.45251, 49.41725, 432.3], [20.45235, 49.41719, 432.4], [20.45223, 49.41713, 432.8], [20.45214, 49.41709, 433.3], [20.45203, 49.41703, 433.5], [20.45191, 49.41698, 433.3], [20.45174, 49.41695, 432.7], [20.45155, 49.41695, 432.0], [20.45136, 49.41694, 431.1], [20.4512, 49.41691, 430.5], [20.45093, 49.41685, 430.4], [20.45071, 49.41676, 431.0], [20.45051, 49.41667, 432.2], [20.45027, 49.41658, 434.3], [20.45006, 49.41652, 436.2], [20.44985, 49.4165, 437.7], [20.44969, 49.41649, 438.6], [20.4494, 49.41651, 438.3], [20.44909, 49.41653, 436.9], [20.44885, 49.41656, 435.5], [20.44865, 49.4166, 434.1], [20.44846, 49.41663, 432.9], [20.44822, 49.41664, 432.1], [20.44804, 49.41665, 431.5], [20.44777, 49.41664, 431.0], [20.44752, 49.41663, 430.5], [20.44728, 49.4166, 430.1], [20.44715, 49.41656, 429.9], [20.44701, 49.41652, 429.9], [20.44684, 49.41647, 430.0], [20.44664, 49.4164, 430.4], [20.44653, 49.41633, 430.9], [20.44652, 49.41627, 432.4], [20.44652, 49.41625, 433.9], [20.44662, 49.41604, 436.6], [20.44661, 49.416, 440.7], [20.44668, 49.4159, 445.7], [20.4468, 49.41573, 449.7], [20.44707, 49.41557, 452.8], [20.44736, 49.41538, 454.0], [20.44766, 49.41513, 453.1], [20.44806, 49.41482, 450.6], [20.44844, 49.41451, 447.9], [20.44881, 49.41428, 445.4], [20.44889, 49.41422, 443.5], [20.44892, 49.41415, 442.0], [20.44896, 49.41413, 440.4], [20.44905, 49.41406, 438.9], [20.44917, 49.41397, 437.6], [20.44926, 49.41392, 436.4], [20.44938, 49.41387, 436.1], [20.44954, 49.41385, 436.8], [20.4497, 49.41385, 438.4], [20.44981, 49.41386, 442.4], [20.4499, 49.41388, 446.0], [20.45011, 49.41398, 448.1], [20.45028, 49.4139, 450.6]]}}]}