{"type": "FeatureCollection", "_uwaga": "Generowane: tools/trasy/kolory_odcinkow.py. Nie edytować ręcznie.", "features": [{"type": "Feature", "properties": {"kolor": "niebieski"}, "geometry": {"type": "LineString", "coordinates": [[20.42791, 49.44058, 426.5], [20.42775, 49.44061, 426.5], [20.42771, 49.44062, 426.5], [20.42766, 49.44061, 426.4], [20.42744, 49.4406, 426.3], [20.42691, 49.44057, 426.2], [20.42669, 49.4406, 426.0], [20.42651, 49.44063, 425.9], [20.42637, 49.44065, 425.8], [20.42606, 49.4407, 425.7], [20.4259, 49.44071, 425.6], [20.42584, 49.44074, 425.5], [20.42553, 49.44067, 425.4], [20.42529, 49.44062, 425.4], [20.42517, 49.44059, 425.4], [20.42499, 49.44055, 425.6], [20.42485, 49.44053, 426.1], [20.42469, 49.4405, 426.7], [20.42396, 49.4404, 427.3], [20.42373, 49.44038, 427.9], [20.42363, 49.44037, 428.5], [20.4235, 49.44037, 428.8], [20.42341, 49.44037, 429.0], [20.42331, 49.44037, 429.2], [20.4232, 49.44038, 429.4], [20.42307, 49.44039, 429.7], [20.42298, 49.44039, 430.0], [20.42278, 49.44041, 430.3], [20.42276, 49.44035, 430.6], [20.42274, 49.44033, 431.0], [20.42271, 49.44031, 431.7], [20.42265, 49.44027, 432.3], [20.4224, 49.44012, 433.3], [20.42234, 49.44009, 435.2], [20.42225, 49.43996, 437.7], [20.42193, 49.43953, 439.9], [20.42184, 49.43935, 442.5], [20.42181, 49.4393, 445.2], [20.42178, 49.43916, 446.9], [20.42187, 49.43893, 448.1], [20.42187, 49.43891, 450.0], [20.42188, 49.43882, 451.7], [20.42186, 49.43847, 453.3], [20.42187, 49.43838, 454.9], [20.42196, 49.43825, 457.0], [20.42201, 49.43822, 459.1], [20.42224, 49.438, 461.5], [20.42232, 49.43782, 465.2], [20.42232, 49.43774, 469.6], [20.42231, 49.43749, 474.1], [20.42232, 49.43739, 480.0], [20.42237, 49.43727, 486.2], [20.42257, 49.43689, 492.7], [20.42265, 49.43671, 498.8], [20.42261, 49.43628, 506.4], [20.42264, 49.43616, 512.4], [20.42303, 49.43552, 518.1], [20.42311, 49.43534, 522.4], [20.42329, 49.43517, 526.7], [20.42339, 49.43503, 529.1], [20.42348, 49.43489, 531.1], [20.4235, 49.43481, 532.6], [20.4235, 49.43473, 534.2], [20.42355, 49.43468, 535.8], [20.4236, 49.43454, 537.4], [20.42364, 49.43441, 539.1], [20.42363, 49.43434, 540.9], [20.42369, 49.43425, 542.8], [20.42369, 49.43417, 544.4], [20.42374, 49.43404, 546.4], [20.42376, 49.434, 549.0], [20.42374, 49.43387, 551.8], [20.4236, 49.43371, 554.3], [20.4236, 49.43363, 557.0], [20.4236, 49.4336, 559.7], [20.42361, 49.43352, 562.6], [20.42355, 49.43341, 565.6], [20.42344, 49.4332, 568.8], [20.42335, 49.43307, 572.9], [20.42326, 49.43301, 577.0], [20.42305, 49.43269, 580.3], [20.42299, 49.43253, 583.9], [20.42296, 49.43244, 590.7], [20.42279, 49.43223, 597.0], [20.42228, 49.4314, 603.3], [20.42212, 49.43124, 610.0], [20.42198, 49.43113, 616.2], [20.42186, 49.43101, 619.6], [20.42182, 49.43092, 623.5], [20.42176, 49.43071, 628.5], [20.42154, 49.43046, 633.3], [20.42128, 49.43012, 638.0], [20.4212, 49.43, 642.4], [20.42111, 49.42992, 645.8], [20.42096, 49.4298, 647.5], [20.42074, 49.4297, 648.9], [20.42055, 49.42965, 650.2], [20.42038, 49.42961, 651.8], [20.41981, 49.42935, 653.1], [20.41904, 49.42895, 654.0], [20.41802, 49.42854, 655.1], [20.41751, 49.42834, 656.6], [20.41681, 49.42803, 659.6], [20.41645, 49.42785, 666.2], [20.4156, 49.42752, 673.6], [20.41472, 49.42707, 681.0], [20.41437, 49.42687, 687.3], [20.41413, 49.42673, 690.8], [20.41385, 49.42664, 690.7], [20.41333, 49.42647, 690.3], [20.41308, 49.42639, 690.3], [20.41275, 49.42621, 691.2], [20.41262, 49.42607, 692.8], [20.41262, 49.42588, 694.4], [20.41259, 49.42567, 695.3], [20.41248, 49.42553, 695.6], [20.41227, 49.42542, 695.5], [20.41172, 49.42531, 694.8], [20.41102, 49.42501, 694.2], [20.41069, 49.42468, 694.0], [20.41057, 49.4246, 693.9], [20.41052, 49.42455, 693.7], [20.41053, 49.42453, 693.8], [20.41053, 49.42452, 693.8], [20.41054, 49.42449, 693.7], [20.41056, 49.42446, 693.6], [20.41067, 49.42441, 693.6], [20.41136, 49.42417, 694.1], [20.41148, 49.4241, 695.4], [20.41154, 49.42394, 698.1], [20.41149, 49.42378, 701.5], [20.41132, 49.42351, 705.6], [20.41116, 49.42335, 709.4], [20.41097, 49.42324, 713.0], [20.41082, 49.42315, 715.4], [20.41054, 49.42296, 717.4], [20.41037, 49.42285, 719.0], [20.41004, 49.42264, 720.4]]}}, {"type": "Feature", "properties": {"kolor": "zolty"}, "geometry": {"type": "LineString", "coordinates": [[20.41004, 49.42264, 720.4], [20.41, 49.42254, 721.7], [20.40998, 49.42237, 723.4], [20.40992, 49.42221, 725.3], [20.40979, 49.42198, 727.6], [20.40965, 49.42187, 730.1], [20.40943, 49.4217, 732.8], [20.40931, 49.42161, 735.2], [20.40926, 49.42148, 737.6], [20.40928, 49.42139, 739.5], [20.40936, 49.42129, 741.7], [20.40937, 49.42121, 743.9], [20.40931, 49.42111, 746.2], [20.40923, 49.42097, 749.6], [20.4092, 49.42086, 752.9], [20.40903, 49.42042, 757.2], [20.40901, 49.42037, 761.5], [20.40866, 49.41994, 767.6], [20.40858, 49.41981, 773.0], [20.40835, 49.41935, 778.6], [20.40819, 49.41918, 782.3], [20.40807, 49.419, 784.6], [20.40819, 49.41918, 782.3], [20.40835, 49.41935, 778.6], [20.40858, 49.41981, 773.0], [20.40866, 49.41994, 767.6], [20.40901, 49.42037, 761.5], [20.40903, 49.42042, 757.2], [20.4092, 49.42086, 752.9], [20.40923, 49.42097, 749.6], [20.40931, 49.42111, 746.2], [20.40937, 49.42121, 743.9], [20.40936, 49.42129, 741.7], [20.40928, 49.42139, 739.5], [20.40926, 49.42148, 737.6], [20.40931, 49.42161, 735.2], [20.40943, 49.4217, 732.8], [20.40965, 49.42187, 730.1], [20.40979, 49.42198, 727.6], [20.40992, 49.42221, 725.3], [20.40998, 49.42237, 723.4], [20.41, 49.42254, 721.7], [20.41004, 49.42264, 720.9]]}}, {"type": "Feature", "properties": {"kolor": "niebieski"}, "geometry": {"type": "LineString", "coordinates": [[20.41004, 49.42264, 720.9], [20.41037, 49.42285, 720.4], [20.41043, 49.42264, 720.2], [20.41046, 49.42252, 720.3], [20.41047, 49.42242, 721.3], [20.4105, 49.42233, 722.3], [20.41072, 49.42187, 723.3], [20.41081, 49.42175, 724.3], [20.41089, 49.42168, 725.3], [20.41103, 49.4216, 725.7], [20.41134, 49.42146, 726.0], [20.41142, 49.42142, 726.4], [20.41149, 49.42138, 727.2], [20.41153, 49.42134, 728.7], [20.41162, 49.42122, 731.0], [20.41175, 49.42108, 733.6], [20.41191, 49.42094, 736.4], [20.41202, 49.42089, 739.4], [20.41222, 49.42083, 742.0], [20.41251, 49.42077, 743.9], [20.41274, 49.42075, 745.3], [20.41295, 49.42075, 746.4], [20.41328, 49.4208, 747.3], [20.41362, 49.42084, 749.0], [20.41386, 49.42079, 750.8], [20.4142, 49.42066, 752.7], [20.41446, 49.4206, 754.5], [20.41466, 49.42056, 756.3], [20.41483, 49.42047, 757.6], [20.41515, 49.42025, 758.8], [20.41542, 49.41993, 760.6], [20.4155, 49.41982, 762.7], [20.41552, 49.41961, 764.9], [20.41548, 49.41947, 766.7], [20.41543, 49.41937, 768.4], [20.41546, 49.4193, 769.3], [20.41554, 49.41923, 769.2], [20.41569, 49.4192, 768.2], [20.41587, 49.4192, 767.1], [20.416, 49.41918, 766.3], [20.41612, 49.41911, 766.2], [20.4162, 49.41901, 767.3], [20.41624, 49.41891, 768.8], [20.41628, 49.41882, 770.3], [20.41644, 49.41874, 771.8], [20.41659, 49.41867, 772.4], [20.41673, 49.41859, 771.1], [20.4169, 49.41856, 769.1], [20.41718, 49.41861, 767.2], [20.41751, 49.41858, 765.9], [20.41778, 49.41852, 766.3], [20.41801, 49.41842, 768.6], [20.41822, 49.41827, 771.5], [20.41831, 49.41822, 773.9], [20.41837, 49.41823, 774.6], [20.41843, 49.41828, 772.9], [20.41854, 49.41844, 770.0], [20.41862, 49.41862, 766.8], [20.41869, 49.41875, 763.5], [20.41882, 49.41886, 760.6], [20.41894, 49.41894, 758.3], [20.4191, 49.41911, 756.1], [20.41917, 49.41923, 754.0], [20.41919, 49.41933, 752.3], [20.41927, 49.4194, 751.4], [20.41935, 49.41944, 750.9], [20.41956, 49.41954, 751.0], [20.4197, 49.41967, 752.5], [20.41991, 49.41982, 754.9], [20.41999, 49.41968, 757.8], [20.42006, 49.41957, 759.5], [20.42024, 49.41951, 762.3]]}}]}