{"type": "FeatureCollection", "_uwaga": "Generowane: tools/trasy/kolory_odcinkow.py. Nie edytować ręcznie.", "features": [{"type": "Feature", "properties": {"kolor": "czerwony"}, "geometry": {"type": "LineString", "coordinates": [[20.42791, 49.44058, 426.6], [20.4279, 49.44055, 426.6], [20.42789, 49.44052, 426.6], [20.42789, 49.44049, 426.6], [20.4279, 49.44046, 426.6], [20.42792, 49.4404, 426.5], [20.42795, 49.44033, 426.4], [20.42795, 49.44025, 426.4], [20.42794, 49.44012, 426.3], [20.42795, 49.44008, 426.2], [20.42795, 49.44005, 426.3], [20.42804, 49.43975, 426.3], [20.42831, 49.43926, 426.4], [20.42835, 49.43919, 426.4], [20.42839, 49.43913, 426.3], [20.42853, 49.43902, 426.2], [20.42886, 49.43871, 426.0], [20.42893, 49.43865, 426.1], [20.42907, 49.43853, 426.3], [20.42945, 49.43824, 426.6], [20.42988, 49.43798, 426.8], [20.42995, 49.43794, 426.8], [20.43025, 49.43774, 426.7], [20.4308, 49.4374, 426.5], [20.43084, 49.43737, 426.3], [20.43088, 49.43735, 426.2], [20.43095, 49.4373, 426.2], [20.43099, 49.43727, 426.3], [20.43115, 49.43717, 426.5], [20.43141, 49.43699, 426.8], [20.43157, 49.43689, 427.1], [20.43189, 49.43668, 427.4], [20.43206, 49.43656, 427.4], [20.43219, 49.43648, 427.3], [20.43248, 49.43628, 427.0], [20.43266, 49.43617, 426.7], [20.43282, 49.43606, 426.3], [20.43304, 49.43594, 426.2], [20.43343, 49.43572, 426.3], [20.43367, 49.43559, 426.6], [20.4343, 49.43525, 426.8], [20.43454, 49.43512, 427.1], [20.43484, 49.43498, 427.2], [20.43545, 49.43468, 427.2], [20.43578, 49.43454, 427.1], [20.43584, 49.43451, 427.0], [20.43592, 49.43444, 427.1], [20.43595, 49.43441, 427.2], [20.43603, 49.43431, 427.4], [20.43605, 49.43428, 427.7], [20.4364, 49.43382, 428.0], [20.43661, 49.43358, 428.1], [20.43665, 49.43353, 428.2], [20.43733, 49.43285, 427.7], [20.43736, 49.43282, 427.1], [20.43796, 49.43227, 426.4], [20.43804, 49.43217, 425.6], [20.43822, 49.4319, 425.2], [20.43841, 49.43156, 425.3], [20.43849, 49.4312, 427.0], [20.43849, 49.43119, 430.3], [20.43851, 49.43066, 435.0], [20.43857, 49.43035, 439.9], [20.43887, 49.42971, 443.8], [20.43911, 49.42906, 444.6], [20.43938, 49.42851, 442.4], [20.43968, 49.42819, 438.6], [20.44001, 49.42796, 434.0], [20.44006, 49.42793, 429.9], [20.44019, 49.42779, 427.2], [20.44033, 49.42756, 425.6], [20.44054, 49.42736, 425.2], [20.44066, 49.42707, 425.8], [20.4407, 49.42686, 427.0], [20.44066, 49.42662, 428.1], [20.44069, 49.42646, 430.9], [20.44072, 49.42638, 433.4], [20.44086, 49.42606, 435.9], [20.44109, 49.42573, 438.1], [20.44157, 49.42526, 440.6], [20.44183, 49.42505, 441.9], [20.44198, 49.42495, 443.8], [20.44267, 49.42466, 445.7], [20.44297, 49.42421, 448.8], [20.44306, 49.42396, 452.7], [20.44318, 49.42374, 458.0], [20.44327, 49.42354, 464.8], [20.44339, 49.42325, 472.1], [20.44342, 49.42284, 479.3], [20.44348, 49.42259, 487.4], [20.44348, 49.42247, 495.9], [20.44341, 49.42224, 502.9], [20.44344, 49.42187, 508.7], [20.44346, 49.4217, 514.5], [20.44373, 49.42151, 520.0], [20.44394, 49.42131, 524.5], [20.44396, 49.42115, 529.0], [20.44391, 49.42106, 533.9], [20.44378, 49.42099, 539.1], [20.44355, 49.42101, 544.8], [20.44346, 49.42093, 550.9], [20.44349, 49.42074, 557.5], [20.44351, 49.42056, 564.9], [20.44346, 49.4204, 572.1], [20.44335, 49.42026, 578.3], [20.4432, 49.4202, 583.9], [20.44306, 49.42017, 588.6], [20.44286, 49.42013, 592.0], [20.44265, 49.42017, 594.7], [20.44244, 49.42025, 597.5], [20.44227, 49.42032, 600.3], [20.44206, 49.4203, 603.9], [20.44191, 49.42026, 608.8], [20.44175, 49.42017, 614.8], [20.44159, 49.42002, 621.4], [20.44144, 49.41994, 628.1], [20.44121, 49.41991, 634.0], [20.441, 49.41991, 638.8], [20.44081, 49.41997, 643.1], [20.44066, 49.42, 646.7], [20.44049, 49.41997, 650.1], [20.44032, 49.41992, 653.5], [20.44022, 49.41983, 656.7], [20.43999, 49.41978, 659.3], [20.43986, 49.41977, 661.0], [20.4397, 49.41973, 661.8], [20.43933, 49.41961, 662.4], [20.43914, 49.41948, 664.1], [20.43925, 49.41937, 667.7], [20.43952, 49.4192, 672.2], [20.43989, 49.41892, 677.4], [20.43993, 49.41868, 682.7], [20.44002, 49.41854, 687.4], [20.44018, 49.41842, 689.7], [20.44045, 49.41827, 691.5], [20.44058, 49.41815, 692.5], [20.44077, 49.41808, 693.2]]}}]}