{"type": "FeatureCollection", "features": [{"type": "Feature", "properties": {"id": "KP22", "nazwa": "Barwinkowa Góra", "_zrodlo": "OpenStreetMap (route=hiking) + EU-DEM 25 m", "_licencja": "© OpenStreetMap contributors, ODbL"}, "geometry": {"type": "LineString", "coordinates": [[20.3191, 49.42151, 548.5], [20.31892, 49.42153, 548.7], [20.31882, 49.42154, 549.5], [20.31878, 49.42154, 550.7], [20.3182, 49.42155, 551.8], [20.31803, 49.42156, 552.9], [20.31793, 49.42158, 554.0], [20.31786, 49.42159, 554.8], [20.31786, 49.42155, 555.6], [20.31785, 49.42146, 556.7], [20.31812, 49.42112, 557.9], [20.31818, 49.42091, 559.5], [20.31821, 49.42084, 561.0], [20.3183, 49.42028, 562.2], [20.31833, 49.41963, 562.8], [20.31831, 49.41956, 563.4], [20.3183, 49.4195, 563.7], [20.31819, 49.41946, 564.0], [20.31804, 49.41943, 565.1], [20.31785, 49.41943, 566.6], [20.31744, 49.41957, 568.1], [20.31725, 49.4196, 569.7], [20.3171, 49.41959, 571.1], [20.31697, 49.41955, 571.8], [20.31666, 49.41939, 572.5], [20.31657, 49.41936, 573.9], [20.3164, 49.41934, 576.4], [20.31593, 49.41939, 579.4], [20.31509, 49.4194, 583.0], [20.31483, 49.41945, 587.0], [20.31435, 49.41959, 591.3], [20.31384, 49.41975, 594.7], [20.31081, 49.42059, 598.6], [20.31023, 49.42075, 602.2], [20.30894, 49.42086, 605.4], [20.30858, 49.42087, 607.9], [20.30842, 49.42085, 610.1], [20.30786, 49.42074, 611.4], [20.30765, 49.4207, 613.0], [20.30733, 49.42065, 615.1], [20.30624, 49.42042, 618.8], [20.30563, 49.42033, 622.7], [20.30376, 49.41999, 626.6], [20.30336, 49.41992, 630.0], [20.30316, 49.4199, 633.0], [20.30295, 49.41983, 634.6], [20.30256, 49.41975, 636.7], [20.30207, 49.41967, 639.2], [20.30159, 49.41952, 641.7], [20.3012, 49.41938, 644.0], [20.30079, 49.4192, 645.6], [20.30039, 49.41905, 646.3], [20.29992, 49.41887, 646.6], [20.29967, 49.41873, 646.7], [20.2993, 49.41853, 646.9], [20.29893, 49.41831, 648.9], [20.29877, 49.41823, 651.0], [20.29756, 49.41738, 653.1], [20.29727, 49.41717, 655.6], [20.29707, 49.4171, 658.3], [20.2967, 49.41701, 659.5], [20.2965, 49.41698, 661.1], [20.29623, 49.41697, 663.4], [20.29585, 49.41693, 665.3], [20.29499, 49.4168, 668.2], [20.29474, 49.41683, 671.6], [20.29385, 49.41694, 675.3], [20.29331, 49.41698, 680.1], [20.29281, 49.41707, 684.9], [20.29158, 49.41723, 688.6], [20.29106, 49.41724, 691.7], [20.2909, 49.41725, 694.4], [20.29044, 49.41725, 695.4], [20.29012, 49.41723, 696.3], [20.28991, 49.41722, 697.4], [20.28967, 49.4172, 698.3], [20.28952, 49.41715, 699.3], [20.28937, 49.4171, 700.5], [20.28898, 49.41705, 701.7], [20.28872, 49.41703, 702.8], [20.28856, 49.417, 703.9], [20.28845, 49.41694, 704.8], [20.28837, 49.41686, 705.5], [20.28828, 49.41681, 706.4], [20.28814, 49.41682, 707.6], [20.28788, 49.41686, 708.8], [20.28762, 49.41686, 710.0], [20.28745, 49.41683, 711.2], [20.28733, 49.4168, 712.1], [20.28715, 49.41679, 712.9], [20.28698, 49.4168, 713.7], [20.28682, 49.4168, 714.7], [20.28662, 49.4168, 715.7], [20.28646, 49.41681, 717.1], [20.28639, 49.4168, 719.2], [20.28605, 49.41679, 721.6], [20.28542, 49.41676, 724.1], [20.28461, 49.41678, 726.3], [20.28393, 49.41672, 727.1], [20.28305, 49.41658, 725.6], [20.28234, 49.41652, 723.1], [20.2818, 49.41656, 720.4], [20.28156, 49.41656, 718.8], [20.28116, 49.41645, 718.4], [20.28074, 49.41634, 719.5], [20.28049, 49.41627, 720.8], [20.28017, 49.41625, 722.2], [20.27965, 49.41627, 722.1], [20.27888, 49.41628, 721.2], [20.27767, 49.41646, 719.3], [20.27721, 49.41646, 716.5], [20.27673, 49.41647, 712.6], [20.27626, 49.41645, 709.1], [20.27588, 49.4164, 705.5], [20.27545, 49.41624, 703.0], [20.27455, 49.41591, 701.6], [20.27431, 49.41572, 700.6], [20.274, 49.4155, 699.8], [20.2737, 49.41534, 699.4], [20.27354, 49.41518, 698.7], [20.27343, 49.41503, 698.3], [20.27327, 49.4147, 698.3], [20.27328, 49.41461, 698.7], [20.27329, 49.41446, 699.5], [20.27333, 49.41431, 700.2], [20.2734, 49.41416, 700.8], [20.27337, 49.4141, 701.0], [20.27329, 49.41404, 700.7], [20.27299, 49.41386, 699.9], [20.27274, 49.41373, 698.6], [20.27247, 49.41361, 697.2], [20.27204, 49.41344, 695.9], [20.27182, 49.41331, 695.0], [20.27166, 49.41321, 693.9], [20.27134, 49.41329, 693.3], [20.2706, 49.41359, 692.9], [20.27028, 49.41367, 692.2], [20.26998, 49.4137, 691.6], [20.26898, 49.41375, 692.2], [20.26871, 49.41372, 693.6], [20.26816, 49.41343, 695.3], [20.26747, 49.41318, 697.2], [20.26678, 49.4131, 699.0], [20.26635, 49.41315, 700.9], [20.2657, 49.41335, 702.2], [20.26482, 49.41338, 703.2], [20.26454, 49.41343, 704.3], [20.26448, 49.41345, 705.5], [20.26435, 49.4135, 705.6], [20.26422, 49.41355, 705.6], [20.2641, 49.41364, 705.4], [20.264, 49.41366, 705.8], [20.26364, 49.41379, 706.6], [20.2627, 49.41418, 706.3], [20.26175, 49.41462, 705.4], [20.26075, 49.41495, 704.3], [20.26031, 49.41505, 702.0], [20.25994, 49.4151, 700.1], [20.25967, 49.41513, 698.8]]}}]}