{"type": "FeatureCollection", "features": [{"type": "Feature", "properties": {"id": "KP23", "nazwa": "Palenica", "_zrodlo": "OpenStreetMap (route=hiking) + EU-DEM 25 m", "_licencja": "© OpenStreetMap contributors, ODbL"}, "geometry": {"type": "LineString", "coordinates": [[20.48259, 49.42514, 475.7], [20.48233, 49.42528, 475.0], [20.48206, 49.4254, 474.3], [20.48187, 49.42547, 473.2], [20.48166, 49.42555, 471.8], [20.48153, 49.4256, 470.5], [20.48131, 49.42569, 469.4], [20.48107, 49.42578, 468.5], [20.48103, 49.42574, 467.7], [20.48097, 49.42564, 467.2], [20.48099, 49.42562, 466.6], [20.48104, 49.42555, 466.0], [20.48079, 49.42555, 465.4], [20.48074, 49.42557, 464.3], [20.48064, 49.42542, 462.7], [20.48034, 49.4255, 461.7], [20.48031, 49.4252, 460.8], [20.48047, 49.42517, 460.0], [20.48054, 49.42512, 459.5], [20.48058, 49.42508, 459.2], [20.48059, 49.42503, 458.7], [20.48057, 49.42497, 458.3], [20.48038, 49.42468, 457.9], [20.48037, 49.42467, 457.8], [20.48036, 49.42465, 457.9], [20.48025, 49.42441, 458.1], [20.48023, 49.42436, 458.3], [20.48021, 49.42433, 458.5], [20.4804, 49.42429, 458.6], [20.48087, 49.42423, 458.9], [20.48126, 49.42415, 459.2], [20.48145, 49.42411, 459.5], [20.4822, 49.42392, 460.3], [20.48249, 49.42385, 461.2], [20.48231, 49.42361, 462.2], [20.48225, 49.42357, 463.2], [20.48217, 49.42354, 464.3], [20.48205, 49.42354, 465.0], [20.48196, 49.42356, 465.5], [20.48193, 49.42356, 466.2], [20.48176, 49.42362, 466.8], [20.48154, 49.42362, 467.4], [20.48149, 49.42361, 468.2], [20.48146, 49.42359, 469.1], [20.48147, 49.42356, 470.2], [20.48151, 49.4235, 471.8], [20.48165, 49.42339, 474.2], [20.48182, 49.42324, 478.2], [20.48194, 49.42309, 484.3], [20.48211, 49.42285, 490.8], [20.48225, 49.42257, 497.9], [20.48229, 49.42244, 505.2], [20.48228, 49.42231, 511.5], [20.48219, 49.42222, 516.4], [20.48203, 49.42223, 521.1], [20.48182, 49.42227, 525.4], [20.48153, 49.42233, 529.6], [20.48131, 49.42236, 534.7], [20.48103, 49.42238, 540.4], [20.48073, 49.42232, 546.9], [20.48053, 49.42223, 553.6], [20.48038, 49.42206, 560.1], [20.48031, 49.42194, 566.3], [20.48028, 49.42183, 572.3], [20.48019, 49.42161, 578.0], [20.48008, 49.42143, 582.9], [20.47994, 49.42127, 587.4], [20.47987, 49.42125, 591.2], [20.47974, 49.42124, 594.8], [20.47939, 49.42129, 598.2], [20.47889, 49.42132, 603.0], [20.47865, 49.42127, 609.0], [20.47828, 49.42114, 616.0], [20.47805, 49.42101, 622.9], [20.47773, 49.42091, 629.8], [20.4775, 49.42084, 635.9], [20.47724, 49.42079, 641.2], [20.47701, 49.4207, 645.6], [20.47685, 49.42059, 649.9], [20.47675, 49.42047, 653.7], [20.4767, 49.42029, 657.6], [20.47671, 49.42019, 661.7], [20.47669, 49.42002, 665.8], [20.47666, 49.41989, 669.7], [20.47668, 49.41978, 673.6], [20.47679, 49.41968, 677.1], [20.47689, 49.41963, 680.4], [20.47692, 49.41953, 683.5], [20.477, 49.41943, 685.9], [20.47708, 49.41937, 688.2], [20.47707, 49.41935, 689.9], [20.47697, 49.41929, 691.2], [20.47691, 49.41925, 692.2], [20.4769, 49.41919, 693.2], [20.47681, 49.41916, 694.1], [20.47681, 49.41915, 694.9], [20.47687, 49.4191, 695.6], [20.47687, 49.41906, 696.1], [20.47684, 49.41904, 696.3], [20.47673, 49.41903, 696.4], [20.47652, 49.41904, 696.4], [20.4764, 49.41899, 696.4], [20.47635, 49.41893, 696.4], [20.47633, 49.41892, 696.7], [20.47631, 49.41886, 697.3], [20.47633, 49.41881, 697.5], [20.47645, 49.41871, 697.8]]}}]}