{"type": "FeatureCollection", "features": [{"type": "Feature", "properties": {"id": "R2", "nazwa": "Velo Czorsztyn", "_zrodlo": "Slad GPX (velo_czorsztyn.gpx) + EU-DEM 25 m"}, "geometry": {"type": "LineString", "coordinates": [[20.31778, 49.42157, 549.4], [20.31678, 49.42206, 547.3], [20.31491, 49.42231, 545.3], [20.31494, 49.42239, 542.3], [20.31181, 49.42358, 540.4], [20.31115, 49.42416, 537.1], [20.31066, 49.42489, 535.1], [20.31043, 49.42581, 534.5], [20.30959, 49.42609, 535.1], [20.30889, 49.42614, 534.3], [20.30837, 49.426, 534.1], [20.30805, 49.42521, 535.6], [20.30732, 49.42468, 536.2], [20.30677, 49.42627, 537.4], [20.30647, 49.42643, 538.8], [20.30472, 49.42654, 538.9], [20.30237, 49.42705, 537.3], [20.30024, 49.42698, 535.0], [20.29905, 49.42676, 534.0], [20.29856, 49.42703, 533.9], [20.29837, 49.42731, 532.2], [20.29673, 49.42755, 533.4], [20.29572, 49.42795, 534.0], [20.29455, 49.42769, 534.9], [20.29292, 49.4277, 536.5], [20.29212, 49.42783, 536.0], [20.29085, 49.42768, 536.1], [20.29035, 49.42782, 536.6], [20.29106, 49.42846, 536.6], [20.29342, 49.42884, 538.3], [20.29686, 49.42961, 540.5], [20.2986, 49.42973, 543.5], [20.29853, 49.42981, 547.7], [20.29604, 49.4299, 552.0], [20.29534, 49.43012, 559.8], [20.2942, 49.43018, 569.4], [20.28998, 49.43004, 580.0], [20.28676, 49.42959, 590.8], [20.28522, 49.42952, 601.1], [20.28124, 49.43033, 609.3], [20.27971, 49.43034, 615.6], [20.27764, 49.42996, 619.3], [20.27462, 49.42987, 620.8], [20.27575, 49.43093, 619.3], [20.27573, 49.43136, 614.3], [20.27538, 49.43168, 607.8], [20.27282, 49.43254, 598.2], [20.27049, 49.43282, 586.1], [20.27129, 49.43336, 576.6], [20.27319, 49.43416, 568.0], [20.27111, 49.43518, 559.4], [20.26918, 49.43538, 553.4], [20.26887, 49.4344, 549.7], [20.26843, 49.43441, 547.6], [20.26781, 49.43475, 545.6], [20.26699, 49.43456, 545.3], [20.2653, 49.43458, 546.6], [20.26398, 49.43474, 544.9], [20.26235, 49.43537, 543.0], [20.26136, 49.43619, 543.0], [20.2604, 49.43643, 542.5], [20.26027, 49.43692, 541.7], [20.26002, 49.43709, 538.6], [20.25912, 49.43706, 536.3], [20.25857, 49.43722, 535.8], [20.25831, 49.43749, 534.2], [20.25852, 49.43794, 534.5], [20.25734, 49.43871, 534.4], [20.25423, 49.43945, 534.0], [20.25318, 49.43981, 532.3], [20.25164, 49.44, 531.2], [20.24917, 49.44086, 532.3], [20.24634, 49.44123, 532.8], [20.24011, 49.44249, 532.4], [20.2392, 49.44237, 532.7], [20.23854, 49.44213, 532.4], [20.2384, 49.44239, 532.5], [20.23869, 49.44252, 532.3], [20.23879, 49.44275, 531.8], [20.23859, 49.44346, 530.7], [20.23782, 49.44431, 529.2], [20.23665, 49.4426, 528.1], [20.23888, 49.44758, 527.0], [20.23869, 49.44804, 526.0], [20.23583, 49.4511, 526.1], [20.23328, 49.45232, 526.5], [20.23157, 49.45388, 526.4], [20.2308, 49.4542, 527.8], [20.22346, 49.45556, 529.4], [20.21851, 49.45503, 531.0], [20.21802, 49.45544, 532.6], [20.21704, 49.45548, 534.3], [20.21548, 49.45585, 536.0], [20.21515, 49.45579, 536.9], [20.21471, 49.45597, 536.8], [20.21387, 49.45564, 536.3], [20.20945, 49.45996, 535.8], [20.20838, 49.46122, 535.0], [20.21563, 49.46306, 534.1], [20.22054, 49.46634, 533.3], [20.22175, 49.46653, 534.2], [20.22155, 49.46678, 535.2], [20.21997, 49.46671, 536.0], [20.22151, 49.46667, 537.0], [20.22553, 49.46769, 537.5], [20.2255, 49.46781, 537.5], [20.22436, 49.46752, 537.5], [20.2242, 49.46734, 538.3], [20.22426, 49.46701, 539.4], [20.22453, 49.46673, 538.1], [20.22622, 49.466, 536.8], [20.22668, 49.46643, 535.1], [20.22893, 49.46627, 533.6], [20.22996, 49.46586, 533.4], [20.23318, 49.46554, 533.3], [20.23432, 49.46529, 532.3], [20.23484, 49.46492, 531.0], [20.23514, 49.46493, 529.7], [20.23553, 49.46465, 529.3], [20.23703, 49.46407, 528.3], [20.23818, 49.46402, 528.5], [20.2407, 49.46359, 529.0], [20.24126, 49.46364, 528.4], [20.24221, 49.46333, 527.9], [20.24254, 49.46348, 528.0], [20.24275, 49.46339, 527.9], [20.24264, 49.46322, 528.0], [20.24282, 49.46305, 528.9], [20.24338, 49.46277, 530.2], [20.24416, 49.4626, 529.3], [20.2447, 49.46262, 528.3], [20.24505, 49.46288, 527.6], [20.24525, 49.46285, 528.9], [20.24528, 49.46231, 529.9], [20.2467, 49.46183, 530.0], [20.24744, 49.46138, 529.9], [20.24848, 49.46117, 528.7], [20.24847, 49.46097, 527.9], [20.24952, 49.46001, 529.1], [20.25089, 49.45911, 530.7], [20.25154, 49.45847, 532.4], [20.25183, 49.4585, 531.8], [20.25234, 49.45902, 531.1], [20.25295, 49.45925, 530.6], [20.25304, 49.45868, 530.1], [20.25236, 49.45795, 530.0], [20.25226, 49.45761, 528.9], [20.2526, 49.45715, 527.2], [20.25369, 49.45644, 525.4], [20.25423, 49.45586, 523.8], [20.25378, 49.45452, 523.2], [20.25413, 49.45391, 522.9], [20.25495, 49.45342, 522.9], [20.25518, 49.45337, 522.7], [20.25549, 49.45354, 523.7], [20.25572, 49.45327, 524.8], [20.25672, 49.45303, 525.7], [20.25709, 49.45315, 526.3], [20.25721, 49.45401, 527.1], [20.25745, 49.45375, 527.2], [20.25799, 49.45355, 527.8], [20.25813, 49.45326, 528.8], [20.25856, 49.4533, 530.0], [20.25895, 49.45298, 529.9], [20.25938, 49.45287, 530.3], [20.25987, 49.45297, 530.8], [20.25998, 49.45316, 531.3], [20.25981, 49.4534, 531.6], [20.26014, 49.4535, 531.5], [20.26053, 49.45331, 532.2], [20.26116, 49.45244, 532.6], [20.26147, 49.45239, 532.9], [20.26154, 49.45198, 533.0], [20.26225, 49.45222, 532.8], [20.26315, 49.45222, 532.9], [20.26353, 49.45252, 533.7], [20.26389, 49.45253, 534.5], [20.26374, 49.45186, 536.1], [20.26432, 49.45142, 536.8], [20.26546, 49.45167, 537.2], [20.26622, 49.45198, 537.3], [20.26711, 49.45203, 537.3], [20.26669, 49.45177, 537.4], [20.26608, 49.45177, 537.2], [20.26492, 49.45148, 536.2], [20.26449, 49.45124, 535.0], [20.26402, 49.4513, 533.8], [20.26373, 49.45147, 533.2], [20.26282, 49.4514, 532.6], [20.26243, 49.45114, 532.2], [20.26209, 49.45041, 532.0], [20.263, 49.45033, 531.5], [20.2656, 49.44955, 531.1], [20.26721, 49.44922, 531.5], [20.2694, 49.44776, 532.4], [20.26998, 49.44667, 533.3], [20.27074, 49.44604, 534.1], [20.27237, 49.44519, 534.8], [20.27378, 49.44583, 535.3], [20.27516, 49.44665, 535.3], [20.277, 49.44843, 535.7], [20.27862, 49.44911, 536.3], [20.2798, 49.45022, 535.7], [20.28049, 49.44979, 534.5], [20.28129, 49.45004, 533.3], [20.28169, 49.45001, 531.9], [20.28135, 49.44742, 530.9], [20.28152, 49.44567, 530.7], [20.28207, 49.4453, 531.0], [20.28298, 49.44509, 530.1], [20.28341, 49.44524, 529.1], [20.28368, 49.44563, 529.0], [20.28412, 49.44581, 528.9], [20.28462, 49.44452, 528.6], [20.28504, 49.44404, 528.9], [20.28592, 49.44353, 528.7], [20.2874, 49.44294, 527.4], [20.28814, 49.44273, 526.2], [20.28916, 49.44274, 526.2], [20.28939, 49.44222, 526.4], [20.28928, 49.44195, 526.5], [20.28953, 49.44194, 526.7], [20.29041, 49.44121, 526.9], [20.29073, 49.44121, 526.7], [20.29171, 49.44047, 526.6], [20.2924, 49.44015, 527.3], [20.29307, 49.43948, 527.9], [20.2937, 49.43915, 527.9], [20.29404, 49.43862, 527.6], [20.29454, 49.43839, 527.4], [20.29483, 49.43801, 526.9], [20.29455, 49.43764, 526.6], [20.2946, 49.43731, 526.5], [20.29515, 49.43691, 526.3], [20.29616, 49.43668, 525.3], [20.29707, 49.43667, 524.5], [20.2978, 49.437, 524.3], [20.29886, 49.43717, 524.9], [20.29934, 49.43751, 525.2], [20.2992, 49.43797, 525.6], [20.29935, 49.43858, 527.1], [20.29916, 49.43907, 527.2], [20.29973, 49.44099, 527.6], [20.29963, 49.44139, 529.2], [20.29913, 49.44185, 530.9], [20.29966, 49.44215, 532.6], [20.29999, 49.44352, 532.8], [20.29974, 49.44395, 533.7], [20.29959, 49.44598, 534.2], [20.29971, 49.44612, 534.0], [20.3016, 49.4449, 535.4], [20.30243, 49.44466, 538.1], [20.30288, 49.44329, 540.1], [20.30336, 49.44287, 540.8], [20.30411, 49.44267, 541.3], [20.30523, 49.44286, 543.1], [20.30557, 49.44282, 545.6], [20.30512, 49.44216, 548.8], [20.30506, 49.44181, 550.1], [20.30534, 49.44149, 547.8], [20.30631, 49.4409, 544.5], [20.30654, 49.44049, 543.5], [20.30693, 49.43788, 543.6], [20.30852, 49.43774, 542.0], [20.30892, 49.43795, 540.4], [20.30916, 49.43842, 537.2], [20.30988, 49.43848, 533.7], [20.30997, 49.43757, 531.9], [20.31046, 49.43729, 533.4], [20.31052, 49.43698, 535.1], [20.31075, 49.4369, 533.4]]}}]}