{"type":"FeatureCollection","features":[{"type":"Feature","properties":{"nazwa":"Rubin Szczawnicy"},"geometry":{"type":"LineString","coordinates":[[20.457927,49.419863,432.0],[20.458682,49.420745,432.0],[20.458923,49.421143,431.0],[20.459149,49.42209,430.0],[20.4602,49.423486,432.0],[20.460424,49.423486,432.0],[20.461718,49.423959,431.0],[20.46338,49.424036,433.0],[20.463317,49.424363,432.0],[20.46312,49.424409,432.0],[20.463227,49.424964,434.0],[20.463047,49.425227,436.0],[20.464386,49.425455,440.0],[20.464709,49.425776,442.0],[20.464718,49.426086,443.0],[20.465141,49.426688,444.0],[20.465625,49.427115,444.0],[20.466416,49.427343,445.0],[20.467323,49.427278,445.0],[20.468034,49.427763,450.0],[20.467944,49.42906,462.0],[20.467638,49.428996,463.0],[20.467468,49.428815,463.0],[20.467,49.428745,465.0],[20.466873,49.429159,474.0],[20.466263,49.429878,487.0],[20.464709,49.430199,508.0],[20.463757,49.430199,515.0],[20.46329,49.430311,519.0],[20.462967,49.431216,538.0],[20.46276,49.433202,572.0],[20.461789,49.435224,606.0],[20.46116,49.435849,619.0],[20.461017,49.436672,632.0],[20.461422,49.437887,637.0],[20.461843,49.438261,642.0],[20.462202,49.439272,652.0],[20.461466,49.441707,669.0],[20.461663,49.44228,671.0],[20.461565,49.44308,679.0],[20.461789,49.445002,691.0],[20.462229,49.445165,687.0],[20.462418,49.445329,686.0],[20.462554,49.446036,694.0],[20.463577,49.447414,704.0],[20.463631,49.447799,704.0],[20.463478,49.447975,702.0],[20.463487,49.448489,698.0],[20.463307,49.448699,695.0],[20.463271,49.448991,697.0],[20.463514,49.449347,704.0],[20.463541,49.449627,712.0],[20.462975,49.450392,722.0],[20.46312,49.450912,721.0],[20.463721,49.451519,731.0],[20.464233,49.452302,753.0],[20.46568,49.453155,780.0],[20.466183,49.453575,792.0],[20.466523,49.454241,808.0],[20.467359,49.454883,825.0],[20.467439,49.455193,832.0],[20.467709,49.455409,836.0],[20.467692,49.455853,844.0],[20.467468,49.45618,850.0],[20.467413,49.457575,872.0],[20.468338,49.459759,861.0],[20.467881,49.46123,855.0],[20.468131,49.461452,850.0],[20.468841,49.461768,848.0],[20.47,49.462941,873.0],[20.469785,49.463549,880.0],[20.469812,49.464185,891.0],[20.469992,49.464686,900.0],[20.4708,49.465242,915.0],[20.471374,49.465399,926.0],[20.471797,49.465405,931.0],[20.472722,49.465755,951.0],[20.473737,49.465691,956.0],[20.475929,49.465305,970.0],[20.47689,49.465615,972.0],[20.478013,49.465825,972.0],[20.479477,49.46548,984.0],[20.481634,49.464634,986.0],[20.482307,49.465264,968.0],[20.483475,49.465773,945.0],[20.485074,49.465989,935.0],[20.486817,49.465486,909.0],[20.487437,49.466164,893.0],[20.487687,49.466753,876.0],[20.48784,49.4668,871.0],[20.489467,49.466864,846.0],[20.490607,49.467104,844.0],[20.492188,49.467244,835.0],[20.494345,49.46732,847.0],[20.494874,49.467483,854.0],[20.495153,49.467687,860.0],[20.495603,49.468545,877.0],[20.497417,49.469334,872.0],[20.498297,49.470198,866.0],[20.498557,49.470823,871.0],[20.499232,49.471342,861.0],[20.499779,49.472211,856.0],[20.500201,49.472567,855.0],[20.500461,49.472667,854.0],[20.500947,49.472755,856.0],[20.501549,49.472539,853.0],[20.503956,49.472072,851.0],[20.50463,49.471867,841.0],[20.504935,49.471833,839.0],[20.505735,49.471949,829.0],[20.507019,49.471727,853.0],[20.508583,49.472235,893.0],[20.508853,49.472217,898.0],[20.510738,49.472673,919.0],[20.512491,49.473216,944.0],[20.512922,49.473467,952.0],[20.515069,49.473251,963.0],[20.516164,49.47293,976.0],[20.518267,49.472795,987.0],[20.51877,49.472766,993.0],[20.520386,49.473023,1020.0],[20.521959,49.47258,1058.0],[20.522749,49.472463,1074.0],[20.523828,49.472118,1095.0],[20.526235,49.471902,1123.0],[20.526585,49.471937,1127.0],[20.527816,49.47237,1136.0],[20.528858,49.472498,1136.0],[20.530143,49.472573,1134.0],[20.532541,49.472364,1146.0],[20.533888,49.472748,1141.0],[20.535479,49.472912,1134.0],[20.54068,49.472556,1146.0],[20.542395,49.472054,1128.0],[20.542764,49.471786,1129.0],[20.544309,49.470268,1131.0],[20.544865,49.469345,1138.0],[20.545171,49.469293,1139.0],[20.546672,49.469941,1130.0],[20.547678,49.469894,1126.0],[20.549303,49.469602,1133.0],[20.551747,49.468435,1139.0],[20.553687,49.4668,1148.0],[20.55455,49.466672,1145.0],[20.555681,49.466713,1142.0],[20.555412,49.466806,1144.0],[20.556679,49.466362,1139.0],[20.557236,49.466327,1142.0],[20.557999,49.466135,1145.0],[20.558341,49.465971,1148.0],[20.559689,49.464891,1160.0],[20.560083,49.465107,1161.0],[20.563138,49.466164,1128.0],[20.565526,49.466374,1130.0],[20.566434,49.466602,1132.0],[20.566937,49.466864,1133.0],[20.568329,49.466823,1137.0],[20.569398,49.466625,1143.0],[20.570333,49.466176,1149.0],[20.571321,49.46593,1155.0],[20.571671,49.46565,1159.0],[20.572084,49.465516,1160.0],[20.574519,49.466006,1170.0],[20.57539,49.465895,1171.0],[20.576756,49.46544,1181.0],[20.57734,49.464955,1185.0],[20.577376,49.46419,1184.0],[20.5776,49.46349,1186.0],[20.577637,49.462311,1204.0],[20.578004,49.461645,1209.0],[20.578256,49.461399,1213.0],[20.577564,49.459502,1214.0],[20.5776,49.45928,1210.0],[20.577771,49.459041,1205.0],[20.578203,49.458801,1202.0],[20.579029,49.457937,1195.0],[20.579631,49.457009,1198.0],[20.58035,49.456419,1196.0],[20.580916,49.455782,1202.0],[20.581014,49.454906,1210.0],[20.581795,49.453978,1208.0],[20.583664,49.453423,1175.0],[20.584885,49.45326,1159.0],[20.585811,49.453295,1155.0],[20.587491,49.452938,1160.0],[20.58935,49.453155,1162.0],[20.591686,49.453056,1172.0],[20.592701,49.453225,1183.0],[20.59368,49.453038,1191.0],[20.59438,49.452857,1198.0],[20.595261,49.452314,1198.0],[20.59643,49.452051,1197.0],[20.597569,49.451613,1206.0],[20.598756,49.450918,1217.0],[20.599663,49.450813,1223.0],[20.601648,49.450241,1239.0],[20.603275,49.449698,1258.0],[20.604693,49.449055,1259.0],[20.605772,49.448769,1248.0],[20.606733,49.448284,1243.0],[20.606841,49.447934,1237.0],[20.606194,49.446947,1201.0],[20.605844,49.445866,1164.0],[20.605412,49.445002,1139.0],[20.605385,49.44429,1126.0],[20.605575,49.443325,1121.0],[20.605852,49.442975,1119.0],[20.606391,49.442672,1114.0],[20.607038,49.442105,1107.0],[20.607596,49.441889,1108.0],[20.607946,49.44155,1116.0],[20.608225,49.440241,1141.0],[20.609833,49.439079,1145.0],[20.610586,49.438127,1145.0],[20.610605,49.438197,1146.0],[20.610093,49.437426,1145.0],[20.609365,49.436976,1152.0],[20.608672,49.43634,1152.0],[20.608386,49.435346,1136.0],[20.607873,49.434686,1120.0],[20.607533,49.434563,1112.0],[20.607011,49.43461,1104.0],[20.606355,49.434459,1098.0],[20.605816,49.433962,1090.0],[20.605035,49.433576,1089.0],[20.605286,49.431911,1059.0],[20.605098,49.431742,1055.0],[20.60517,49.431257,1045.0],[20.604891,49.430369,1028.0],[20.604756,49.428242,997.0],[20.605556,49.42712,981.0],[20.606454,49.42677,969.0],[20.60641,49.42611,962.0],[20.607856,49.425806,945.0],[20.608521,49.425467,940.0],[20.609185,49.425309,938.0],[20.609949,49.424941,936.0],[20.610964,49.424222,938.0],[20.611888,49.423258,943.0],[20.61303,49.422527,940.0],[20.614198,49.421961,935.0],[20.615878,49.420897,930.0],[20.616192,49.420576,930.0],[20.616892,49.420278,928.0],[20.616299,49.419741,924.0],[20.615833,49.419542,921.0],[20.61507,49.418998,917.0],[20.614836,49.418209,918.0],[20.614305,49.417356,923.0],[20.613605,49.416655,930.0],[20.612842,49.41614,933.0],[20.611628,49.414376,930.0],[20.611251,49.41347,930.0],[20.611242,49.412114,934.0],[20.611655,49.411582,934.0],[20.612096,49.410022,927.0],[20.611565,49.408765,927.0],[20.611475,49.407438,932.0],[20.611772,49.407181,933.0],[20.611988,49.40676,931.0],[20.612194,49.405491,918.0],[20.612904,49.404726,915.0],[20.613156,49.404258,915.0],[20.613075,49.403586,916.0],[20.613183,49.402768,922.0],[20.613049,49.402609,923.0],[20.61285,49.402563,923.0],[20.611871,49.402598,922.0],[20.610685,49.40244,921.0],[20.609724,49.40254,919.0],[20.609391,49.402481,917.0],[20.608592,49.402312,914.0],[20.607685,49.40185,911.0],[20.606041,49.401499,918.0],[20.605879,49.401364,919.0],[20.605898,49.39995,908.0],[20.605403,49.399488,900.0],[20.604829,49.398605,882.0],[20.60367,49.39795,874.0],[20.602896,49.397313,870.0],[20.602313,49.396413,868.0],[20.602187,49.395986,867.0],[20.601127,49.394992,854.0],[20.60093,49.394671,849.0],[20.600902,49.393981,840.0],[20.60173,49.391472,811.0],[20.601684,49.39118,808.0],[20.601451,49.390841,803.0],[20.60146,49.39042,800.0],[20.601208,49.389782,800.0],[20.600902,49.389227,804.0],[20.600346,49.388596,814.0],[20.599709,49.388093,826.0],[20.59899,49.387812,839.0],[20.598055,49.38725,859.0],[20.597822,49.386654,871.0],[20.597606,49.386461,876.0],[20.596133,49.38552,904.0],[20.595522,49.385292,915.0],[20.593285,49.383917,941.0],[20.59174,49.384116,941.0],[20.586673,49.385608,946.0],[20.585604,49.385526,951.0],[20.5852,49.385414,951.0],[20.584778,49.385157,949.0],[20.581885,49.384087,943.0],[20.579981,49.382923,950.0],[20.579639,49.381795,919.0],[20.578193,49.380508,905.0],[20.576935,49.378958,920.0],[20.576658,49.378063,939.0],[20.576316,49.37742,960.0],[20.575526,49.376982,969.0],[20.574744,49.376841,974.0],[20.573738,49.376888,982.0],[20.573019,49.377075,980.0],[20.572435,49.377425,979.0],[20.57036,49.377806,979.0],[20.569723,49.377993,974.0],[20.568742,49.378572,967.0],[20.567306,49.378976,949.0],[20.566075,49.379023,942.0],[20.563129,49.379449,942.0],[20.562437,49.379367,939.0],[20.562041,49.379174,942.0],[20.561718,49.379128,942.0],[20.561071,49.379145,938.0],[20.55915,49.378905,931.0],[20.558763,49.378958,932.0],[20.558161,49.379186,937.0],[20.557496,49.379742,944.0],[20.557236,49.380935,940.0],[20.556921,49.381362,934.0],[20.556014,49.382122,921.0],[20.555115,49.382408,923.0],[20.554244,49.382549,930.0],[20.553544,49.382046,957.0],[20.552781,49.381993,952.0],[20.552393,49.381865,955.0],[20.552825,49.381484,971.0],[20.553463,49.381251,990.0],[20.553947,49.380917,1004.0],[20.554406,49.381034,1018.0],[20.554666,49.381011,1022.0],[20.555448,49.380368,1037.0],[20.554666,49.381011,1022.0],[20.554406,49.381034,1018.0],[20.553947,49.380917,1004.0],[20.553463,49.381251,990.0],[20.552825,49.381484,971.0],[20.552393,49.381865,955.0],[20.551594,49.382321,955.0],[20.551297,49.382707,956.0],[20.551253,49.382941,945.0],[20.550705,49.383145,928.0],[20.54924,49.383981,933.0],[20.548091,49.384344,921.0],[20.547515,49.384637,910.0],[20.546483,49.385561,938.0],[20.544848,49.385584,931.0],[20.543401,49.38576,926.0],[20.540455,49.386508,925.0],[20.537805,49.387058,930.0],[20.537347,49.387099,930.0],[20.5359,49.386894,931.0],[20.534661,49.387058,926.0],[20.533223,49.387566,911.0],[20.530053,49.388929,883.0],[20.526845,49.389794,882.0],[20.525929,49.390145,878.0],[20.524034,49.390683,868.0],[20.52151,49.392098,833.0],[20.520549,49.392437,826.0],[20.519776,49.392636,827.0],[20.518751,49.39263,838.0],[20.517539,49.392495,859.0],[20.517027,49.392548,862.0],[20.515698,49.392741,875.0],[20.51488,49.393069,890.0],[20.513227,49.393338,894.0],[20.513595,49.393308,896.0],[20.513119,49.394419,853.0],[20.512562,49.395314,842.0],[20.512518,49.396524,820.0],[20.511161,49.39964,784.0],[20.509409,49.400809,763.0],[20.507998,49.401522,753.0],[20.507262,49.401756,754.0],[20.506319,49.402341,755.0],[20.505744,49.402709,760.0],[20.505205,49.40327,764.0],[20.504935,49.403399,766.0],[20.504855,49.403603,765.0],[20.503291,49.404071,763.0],[20.500911,49.40434,748.0],[20.497614,49.405235,720.0],[20.497075,49.405457,716.0],[20.495737,49.405597,708.0],[20.495027,49.405784,704.0],[20.493932,49.406474,700.0],[20.493266,49.406719,704.0],[20.491945,49.406877,719.0],[20.490842,49.406737,736.0],[20.490014,49.406982,736.0],[20.489861,49.40714,735.0],[20.489242,49.407415,729.0],[20.488622,49.408408,727.0],[20.487337,49.408548,714.0],[20.485632,49.409063,700.0],[20.484347,49.409577,704.0],[20.483116,49.40963,709.0],[20.482416,49.409782,712.0],[20.481445,49.410115,711.0],[20.480978,49.410472,706.0],[20.479917,49.410775,708.0],[20.479387,49.411214,728.0],[20.47875,49.411418,729.0],[20.477322,49.412511,710.0],[20.477034,49.413183,711.0],[20.476234,49.414078,738.0],[20.473288,49.414948,674.0],[20.472112,49.41541,663.0],[20.471393,49.415538,658.0],[20.470755,49.415766,651.0],[20.470036,49.415486,647.0],[20.469722,49.415475,645.0],[20.468904,49.415697,642.0],[20.46629,49.416082,626.0],[20.46426,49.416071,618.0],[20.464413,49.41603,619.0],[20.46382,49.415948,617.0],[20.463361,49.41572,611.0],[20.462778,49.415725,603.0],[20.462481,49.415936,591.0],[20.461969,49.416059,574.0],[20.461493,49.416298,560.0],[20.46152,49.41655,555.0],[20.461269,49.416696,547.0],[20.46073,49.416713,535.0],[20.459876,49.417292,510.0],[20.458799,49.417777,485.0],[20.457711,49.418081,468.0],[20.457765,49.418221,462.0],[20.457522,49.418601,459.0],[20.457604,49.418788,459.0],[20.457361,49.418788,457.0],[20.457235,49.418911,452.0],[20.457927,49.419711,437.0]]}}]}