{"type":"FeatureCollection","features":[{"type":"Feature","properties":{"nazwa":"Szmaragd Dunajca"},"geometry":{"type":"LineString","coordinates":[[20.547498,49.405982,560.0],[20.547228,49.405649,562.0],[20.547785,49.405176,566.0],[20.548037,49.404761,568.0],[20.547911,49.404246,572.0],[20.548055,49.404024,573.0],[20.547957,49.403855,574.0],[20.548154,49.403615,576.0],[20.548045,49.403118,579.0],[20.548953,49.402487,585.0],[20.548909,49.402084,587.0],[20.54906,49.401692,590.0],[20.54925,49.401499,592.0],[20.549798,49.401219,596.0],[20.550301,49.400669,611.0],[20.55066,49.398839,639.0],[20.551737,49.398178,653.0],[20.552242,49.398079,661.0],[20.552752,49.397325,675.0],[20.553139,49.397085,678.0],[20.553265,49.396764,683.0],[20.55367,49.396757,689.0],[20.553984,49.396869,691.0],[20.555098,49.395355,697.0],[20.555457,49.393723,700.0],[20.555133,49.392887,700.0],[20.554775,49.392601,700.0],[20.554972,49.392069,700.0],[20.55472,49.391595,702.0],[20.554882,49.391098,705.0],[20.554783,49.390934,706.0],[20.554532,49.390928,707.0],[20.554209,49.391472,714.0],[20.553733,49.391677,718.0],[20.553112,49.39228,725.0],[20.552618,49.392478,728.0],[20.552196,49.39287,733.0],[20.551917,49.392934,736.0],[20.551756,49.392695,739.0],[20.551576,49.391425,752.0],[20.551639,49.390672,764.0],[20.550903,49.390244,773.0],[20.550372,49.389507,779.0],[20.549502,49.388753,796.0],[20.54933,49.388753,798.0],[20.548261,49.389326,809.0],[20.548028,49.389274,811.0],[20.547399,49.388426,821.0],[20.549213,49.387063,850.0],[20.548171,49.387286,850.0],[20.544596,49.387806,871.0],[20.543186,49.38794,877.0],[20.540481,49.387906,890.0],[20.538802,49.388297,890.0],[20.537814,49.388824,890.0],[20.536628,49.38963,875.0],[20.53626,49.390414,858.0],[20.536961,49.389017,889.0],[20.536762,49.387005,930.0],[20.5359,49.386894,930.0],[20.535271,49.386935,928.0],[20.534661,49.387058,924.0],[20.533223,49.387566,912.0],[20.530053,49.388929,880.0],[20.526845,49.389794,880.0],[20.525929,49.390145,878.0],[20.524034,49.390683,867.0],[20.52151,49.392098,833.0],[20.520549,49.392437,830.0],[20.519776,49.392636,830.0],[20.518751,49.39263,837.0],[20.517539,49.392495,857.0],[20.517027,49.392548,863.0],[20.515698,49.392741,874.0],[20.514872,49.393069,888.0],[20.51338,49.393332,890.0],[20.510675,49.393361,861.0],[20.509275,49.392764,836.0],[20.509329,49.392589,832.0],[20.510038,49.392115,816.0],[20.510442,49.391431,800.0],[20.510262,49.391238,796.0],[20.509535,49.390887,784.0],[20.509006,49.390455,771.0],[20.508574,49.3898,759.0],[20.508493,49.389402,752.0],[20.507316,49.387865,732.0],[20.507136,49.387502,727.0],[20.506922,49.385169,700.0],[20.50639,49.383753,710.0],[20.506023,49.383456,713.0],[20.50357,49.382292,728.0],[20.502546,49.381853,733.0],[20.501819,49.381666,736.0],[20.499232,49.381754,735.0],[20.497964,49.382339,730.0],[20.495629,49.382812,717.0],[20.495171,49.382765,714.0],[20.494398,49.382848,710.0],[20.49403,49.382765,708.0],[20.493832,49.382806,708.0],[20.493616,49.382672,708.0],[20.49279,49.382806,716.0],[20.492018,49.382748,720.0],[20.491029,49.382859,722.0],[20.490158,49.383081,724.0],[20.485307,49.383672,740.0],[20.481229,49.3849,745.0],[20.480026,49.385105,754.0],[20.477618,49.385216,771.0],[20.475426,49.384818,784.0],[20.474124,49.384344,801.0],[20.472156,49.384403,810.0],[20.472013,49.384443,810.0],[20.471491,49.38497,810.0],[20.4708,49.385128,810.0],[20.470171,49.385408,810.0],[20.469946,49.386263,810.0],[20.469156,49.386654,802.0],[20.468653,49.386788,800.0],[20.467602,49.386707,800.0],[20.467143,49.386766,800.0],[20.464278,49.386292,816.0],[20.463371,49.386304,822.0],[20.462581,49.38642,829.0],[20.462202,49.386309,831.0],[20.459939,49.38621,842.0],[20.459292,49.386385,849.0],[20.457405,49.386309,871.0],[20.455986,49.386596,875.0],[20.455044,49.38666,878.0],[20.45392,49.386876,880.0],[20.452258,49.387245,877.0],[20.450759,49.387701,865.0],[20.450776,49.387964,859.0],[20.451252,49.38849,847.0],[20.451539,49.388666,842.0],[20.451585,49.389713,830.0],[20.450912,49.390636,840.0],[20.450076,49.391046,838.0],[20.449088,49.391858,817.0],[20.448073,49.391121,790.0],[20.447883,49.390736,781.0],[20.447893,49.390414,771.0],[20.447614,49.390174,762.0],[20.447228,49.390128,757.0],[20.446312,49.390204,749.0],[20.443967,49.39001,730.0],[20.442916,49.390046,722.0],[20.440985,49.389724,709.0],[20.440014,49.389385,704.0],[20.438199,49.389081,705.0],[20.437607,49.389589,710.0],[20.437535,49.390204,710.0],[20.43722,49.390385,710.0],[20.436681,49.390391,705.0],[20.434643,49.389707,677.0],[20.433996,49.389999,664.0],[20.4337,49.390268,652.0],[20.433501,49.390268,648.0],[20.433098,49.39004,639.0],[20.432073,49.390794,616.0],[20.431427,49.391554,602.0],[20.431058,49.391695,598.0],[20.429836,49.391718,582.0],[20.428435,49.391887,561.0],[20.428291,49.391811,558.0],[20.427941,49.391899,551.0],[20.427788,49.391753,546.0],[20.426234,49.391975,520.0],[20.425767,49.391905,512.0],[20.425228,49.392086,504.0],[20.423899,49.392221,487.0],[20.42309,49.392648,479.0],[20.422668,49.39325,473.0],[20.42123,49.394448,465.0],[20.420431,49.394811,462.0],[20.419911,49.394934,461.0],[20.41884,49.395624,460.0],[20.41858,49.395886,460.0],[20.418437,49.395875,460.0],[20.41771,49.397594,460.0],[20.416496,49.398605,460.0],[20.415787,49.399015,460.0],[20.416569,49.399839,458.0],[20.416263,49.400236,456.0],[20.416263,49.400476,456.0],[20.416622,49.40092,456.0],[20.416874,49.40185,455.0],[20.416846,49.402463,454.0],[20.416433,49.403399,452.0],[20.416443,49.404691,450.0],[20.416722,49.405199,450.0],[20.416892,49.405334,450.0],[20.417296,49.405439,450.0],[20.419093,49.405404,450.0],[20.419856,49.405263,450.0],[20.420368,49.405082,450.0],[20.421509,49.404404,450.0],[20.424293,49.403112,450.0],[20.426226,49.402528,450.0],[20.427268,49.402095,450.0],[20.427564,49.401861,450.0],[20.428947,49.398722,450.0],[20.429136,49.397997,450.0],[20.429953,49.396383,450.0],[20.430349,49.395951,450.0],[20.430878,49.395606,450.0],[20.431777,49.395553,450.0],[20.4337,49.396389,450.0],[20.434184,49.396764,450.0],[20.434706,49.397488,450.0],[20.435549,49.398856,450.0],[20.435702,49.399324,450.0],[20.435612,49.400476,450.0],[20.435163,49.401306,450.0],[20.435146,49.402153,450.0],[20.435343,49.402575,450.0],[20.436511,49.404013,450.0],[20.437373,49.405398,449.0],[20.43749,49.405749,448.0],[20.437472,49.40669,447.0],[20.437157,49.407181,446.0],[20.436681,49.407514,445.0],[20.435172,49.408151,444.0],[20.43405,49.408391,443.0],[20.433286,49.408478,442.0],[20.431876,49.408467,441.0],[20.429872,49.408058,440.0],[20.429234,49.408151,440.0],[20.42918,49.408373,440.0],[20.429683,49.409385,440.0],[20.4298,49.409893,440.0],[20.429836,49.411184,440.0],[20.429496,49.412155,440.0],[20.429746,49.412908,441.0],[20.429953,49.414311,444.0],[20.430564,49.416059,448.0],[20.431014,49.416433,449.0],[20.431471,49.416667,450.0],[20.43227,49.417046,450.0],[20.433574,49.41735,450.0],[20.43458,49.417467,450.0],[20.435702,49.417455,443.0],[20.436241,49.417368,440.0],[20.43652,49.417175,440.0],[20.437041,49.415521,439.0],[20.437912,49.414516,438.0],[20.438748,49.414253,438.0],[20.440473,49.414154,437.0],[20.442476,49.413721,436.0],[20.443123,49.413353,436.0],[20.444281,49.412307,435.0],[20.444964,49.412002,435.0],[20.446402,49.41164,434.0],[20.448638,49.411705,433.0],[20.449797,49.411886,433.0],[20.450283,49.411851,432.0],[20.451063,49.412114,432.0],[20.451621,49.412593,432.0],[20.451576,49.413037,431.0],[20.450776,49.413464,431.0],[20.450111,49.413973,431.0],[20.450587,49.414504,432.0],[20.451082,49.41465,434.0],[20.451531,49.414656,434.0],[20.45321,49.413978,438.0],[20.454046,49.413376,440.0],[20.456112,49.412727,444.0],[20.456489,49.412774,444.0],[20.457531,49.412161,448.0],[20.457621,49.412196,449.0],[20.459292,49.4115,453.0],[20.460307,49.41098,456.0],[20.46038,49.411219,459.0],[20.461277,49.411278,478.0],[20.461753,49.411214,490.0],[20.462652,49.410922,511.0],[20.463281,49.410851,523.0],[20.46391,49.410606,534.0],[20.46443,49.410728,542.0],[20.466066,49.410799,559.0],[20.468185,49.411453,580.0],[20.469084,49.411962,583.0],[20.46947,49.412359,586.0],[20.469263,49.413055,590.0],[20.469416,49.413476,592.0],[20.468967,49.413534,593.0],[20.467692,49.414078,598.0],[20.466093,49.414966,600.0],[20.464539,49.415603,612.0],[20.464252,49.416,617.0],[20.464602,49.416065,620.0],[20.466739,49.416053,629.0],[20.468904,49.415697,642.0],[20.470234,49.415311,651.0],[20.471697,49.415211,661.0],[20.472372,49.415311,666.0],[20.473288,49.414948,676.0],[20.476234,49.414078,730.0],[20.476737,49.413586,722.0],[20.476818,49.413932,720.0],[20.476684,49.414089,720.0],[20.476881,49.41427,720.0],[20.4769,49.41638,690.0],[20.476791,49.416749,690.0],[20.476315,49.417193,690.0],[20.476584,49.418204,703.0],[20.476307,49.418858,710.0],[20.476521,49.419045,710.0],[20.476837,49.419033,710.0],[20.47681,49.419168,705.0],[20.477079,49.419366,695.0],[20.476674,49.419782,675.0],[20.476747,49.420471,650.0],[20.477007,49.420699,643.0],[20.478651,49.421272,607.0],[20.479936,49.421272,583.0],[20.480385,49.42206,553.0],[20.480726,49.422318,538.0],[20.48131,49.422364,529.0],[20.482029,49.422224,516.0],[20.48228,49.422318,510.0],[20.48211,49.422855,494.0],[20.481463,49.423586,467.0],[20.482173,49.423545,460.0],[20.482487,49.423854,460.0],[20.480213,49.424327,457.0],[20.480592,49.425029,454.0],[20.480313,49.425204,456.0],[20.480322,49.425315,456.0]]}}]}