{"type": "FeatureCollection", "features": [{"type": "Feature", "properties": {"id": "TK1", "nazwa": "Trzy Korony ze Szczawnicy (przez przewóz i Sokolicę)", "_licencja": "© OpenStreetMap contributors, ODbL; routing © BRouter"}, "geometry": {"type": "LineString", "coordinates": [[20.45954, 49.423, 430.0], [20.45254, 49.4176, 425.0], [20.452539, 49.417599, 429.5], [20.452222, 49.417748, 428.0], [20.452065, 49.417838, 430.8], [20.451841, 49.417754, 431.5], [20.45138, 49.417567, 431.5], [20.451326, 49.417592, 433.8], [20.451248, 49.417589, 435.5], [20.451087, 49.417554, 438.8], [20.450921, 49.417548, 443.0], [20.450733, 49.417592, 448.0], [20.450259, 49.417667, 459.8], [20.449966, 49.417693, 466.8], [20.449698, 49.4177, 472.2], [20.449427, 49.417763, 480.5], [20.449179, 49.417937, 491.0], [20.449116, 49.418079, 493.5], [20.449068, 49.418435, 502.8], [20.448947, 49.418574, 505.5], [20.448767, 49.418651, 507.8], [20.448494, 49.418723, 510.2], [20.448161, 49.418772, 513.8], [20.447788, 49.418929, 519.8], [20.447303, 49.419016, 530.2], [20.447029, 49.419066, 534.2], [20.446828, 49.419112, 538.2], [20.446589, 49.419096, 540.2], [20.446351, 49.419063, 542.8], [20.446119, 49.419093, 548.5], [20.446093, 49.419096, 549.2], [20.445938, 49.419084, 551.8], [20.445795, 49.419087, 554.5], [20.445621, 49.419068, 556.5], [20.445404, 49.419028, 559.0], [20.445023, 49.419007, 565.2], [20.444701, 49.41895, 571.0], [20.444387, 49.418882, 577.8], [20.444218, 49.418855, 580.2], [20.444022, 49.418875, 585.5], [20.443829, 49.418883, 590.2], [20.443752, 49.418841, 592.5], [20.443711, 49.418777, 594.8], [20.443652, 49.418724, 597.5], [20.443497, 49.418668, 604.0], [20.443422, 49.418562, 608.8], [20.44333, 49.418529, 612.8], [20.443218, 49.418501, 617.0], [20.443167, 49.418431, 621.0], [20.443135, 49.418355, 624.8], [20.4431, 49.4183, 627.5], [20.442995, 49.418304, 631.2], [20.442942, 49.418257, 634.0], [20.442966, 49.418203, 634.5], [20.442915, 49.418173, 637.2], [20.442775, 49.418194, 642.0], [20.442711, 49.418149, 645.5], [20.44266, 49.418076, 650.0], [20.442515, 49.418074, 654.8], [20.442494, 49.418009, 657.0], [20.442488, 49.417932, 659.0], [20.442435, 49.417861, 662.2], [20.442333, 49.417883, 665.0], [20.442059, 49.418016, 668.8], [20.44191, 49.417992, 673.5], [20.441775, 49.417934, 679.0], [20.441783, 49.417876, 681.0], [20.441729, 49.417814, 685.2], [20.441622, 49.417821, 688.2], [20.441437, 49.417852, 691.5], [20.440581, 49.418145, 700.0], [20.440515, 49.418093, 704.5], [20.440363, 49.418073, 708.2], [20.44035, 49.418033, 711.5], [20.440604, 49.417895, 717.2], [20.440595, 49.417864, 719.8], [20.440488, 49.417862, 723.0], [20.440332, 49.417885, 725.0], [20.440262, 49.417866, 727.2], [20.440243, 49.417828, 730.0], [20.440262, 49.417786, 734.5], [20.440259, 49.417726, 725.5], [20.440402, 49.417681, 711.8], [20.440259, 49.417726, 725.5], [20.440262, 49.417786, 734.5], [20.440243, 49.417828, 730.0], [20.440262, 49.417866, 727.2], [20.440332, 49.417885, 725.0], [20.440488, 49.417862, 723.0], [20.440595, 49.417864, 719.8], [20.440604, 49.417895, 717.2], [20.44035, 49.418033, 711.5], [20.440363, 49.418073, 708.2], [20.440515, 49.418093, 704.5], [20.440581, 49.418145, 700.0], [20.44045, 49.418274, 695.2], [20.440184, 49.418423, 690.2], [20.440021, 49.418538, 689.5], [20.439935, 49.41868, 690.0], [20.43989, 49.418921, 680.0], [20.439516, 49.419199, 671.0], [20.439253, 49.419367, 663.2], [20.439135, 49.419477, 662.0], [20.439139, 49.419479, 657.5], [20.439135, 49.419477, 662.0], [20.438878, 49.419707, 659.0], [20.4388, 49.419824, 657.0], [20.438784, 49.42012, 655.2], [20.438739, 49.420267, 655.5], [20.438661, 49.420375, 660.8], [20.438537, 49.420434, 664.0], [20.438511, 49.420495, 666.5], [20.438556, 49.420625, 669.5], [20.438491, 49.420679, 670.0], [20.43824, 49.420803, 675.2], [20.438156, 49.42088, 677.0], [20.437984, 49.420946, 678.8], [20.437904, 49.421036, 681.5], [20.437998, 49.421109, 681.2], [20.438045, 49.421195, 684.5], [20.43787, 49.421173, 688.5], [20.437761, 49.421184, 692.0], [20.437962, 49.421301, 693.0], [20.438002, 49.421365, 695.0], [20.437734, 49.421367, 705.2], [20.437945, 49.421458, 702.5], [20.437679, 49.421471, 712.8], [20.437703, 49.421558, 717.0], [20.437751, 49.421619, 719.0], [20.437781, 49.421703, 721.8], [20.437794, 49.421773, 723.0], [20.437786, 49.421862, 725.5], [20.437749, 49.421912, 727.8], [20.43766, 49.421905, 729.5], [20.437529, 49.421834, 731.5], [20.437381, 49.421759, 736.2], [20.437269, 49.421728, 740.8], [20.43721, 49.421792, 744.0], [20.437164, 49.421926, 748.0], [20.437076, 49.421968, 750.5], [20.436955, 49.421979, 754.2], [20.436805, 49.421954, 759.2], [20.436346, 49.422012, 766.8], [20.435954, 49.422081, 764.2], [20.435396, 49.422132, 760.8], [20.435053, 49.422252, 759.5], [20.434704, 49.422304, 753.8], [20.434527, 49.422289, 755.5], [20.434369, 49.422258, 755.5], [20.434252, 49.422245, 753.2], [20.434345, 49.422326, 753.8], [20.434375, 49.422411, 752.8], [20.434345, 49.422469, 751.0], [20.434243, 49.422566, 746.0], [20.434238, 49.422567, 743.8], [20.434144, 49.422589, 743.8], [20.433927, 49.422655, 740.5], [20.433654, 49.422696, 745.2], [20.433444, 49.422823, 750.2], [20.433345, 49.422867, 749.2], [20.433194, 49.422919, 749.8], [20.432921, 49.422936, 753.5], [20.432733, 49.422983, 758.5], [20.432556, 49.423038, 762.2], [20.432429, 49.423062, 761.5], [20.432277, 49.423092, 761.5], [20.432181, 49.423167, 756.8], [20.432146, 49.423261, 753.0], [20.432052, 49.423306, 750.2], [20.431883, 49.423357, 747.0], [20.431641, 49.42347, 742.8], [20.43159, 49.423542, 742.5], [20.431558, 49.423664, 740.8], [20.431462, 49.423714, 739.2], [20.431316, 49.423814, 735.2], [20.431244, 49.423896, 732.2], [20.431193, 49.424048, 728.8], [20.431101, 49.424189, 726.2], [20.430928, 49.424301, 723.5], [20.430595, 49.424471, 722.8], [20.430362, 49.424819, 717.2], [20.430039, 49.425079, 706.2], [20.429437, 49.425241, 702.5], [20.42883, 49.425269, 705.0], [20.428463, 49.425382, 701.5], [20.428195, 49.425436, 701.0], [20.427736, 49.425499, 699.5], [20.427343, 49.425601, 697.8], [20.42709, 49.425625, 697.8], [20.426811, 49.425684, 697.8], [20.426607, 49.425708, 699.0], [20.426304, 49.425728, 699.2], [20.426054, 49.425792, 695.5], [20.42547, 49.425959, 686.2], [20.425224, 49.426045, 682.2], [20.42503, 49.426143, 679.8], [20.42485, 49.426286, 677.0], [20.424609, 49.426513, 674.5], [20.424544, 49.426659, 672.5], [20.424527, 49.4269, 667.2], [20.424504, 49.426965, 665.8], [20.424445, 49.427018, 664.0], [20.424246, 49.427092, 660.8], [20.424053, 49.427207, 656.0], [20.423957, 49.427298, 653.0], [20.423919, 49.427389, 651.0], [20.423989, 49.427614, 645.8], [20.423986, 49.42801, 642.8], [20.423913, 49.428311, 642.8], [20.423171, 49.428805, 640.5], [20.422447, 49.429462, 637.0], [20.422387, 49.429591, 634.5], [20.422372, 49.429726, 631.8], [20.422376, 49.429893, 629.8], [20.422348, 49.430081, 627.5], [20.422001, 49.430386, 623.8], [20.422016, 49.430466, 622.5], [20.422001, 49.430572, 620.5], [20.421763, 49.430712, 618.0], [20.421542, 49.43046, 623.8], [20.421197, 49.430002, 635.0], [20.421114, 49.429916, 637.0], [20.420959, 49.429799, 640.0], [20.420738, 49.429702, 643.2], [20.420383, 49.429614, 646.0], [20.419805, 49.429353, 646.0], [20.419043, 49.428954, 649.5], [20.418022, 49.428539, 646.5], [20.417506, 49.428341, 645.8], [20.416814, 49.428031, 646.0], [20.416455, 49.427849, 647.2], [20.415599, 49.427524, 654.2], [20.414723, 49.427072, 671.2], [20.414127, 49.426729, 681.5], [20.413328, 49.426469, 679.2], [20.413078, 49.426394, 678.0], [20.412751, 49.426206, 678.0], [20.412622, 49.426071, 680.0], [20.412624, 49.425882, 683.0], [20.412592, 49.425672, 683.8], [20.412482, 49.425529, 682.8], [20.412268, 49.425416, 681.2], [20.411724, 49.425306, 680.5], [20.411023, 49.425012, 678.0], [20.410689, 49.42468, 671.2], [20.410572, 49.424601, 671.5], [20.410524, 49.424555, 671.2], [20.410526, 49.424535, 671.0], [20.41053, 49.424516, 670.8], [20.410564, 49.424462, 670.0], [20.410666, 49.424409, 671.0], [20.411361, 49.424173, 678.8], [20.411485, 49.424102, 679.8], [20.411544, 49.42394, 682.8], [20.411495, 49.423781, 686.8], [20.411321, 49.423512, 693.2], [20.41116, 49.423352, 696.5], [20.410817, 49.423151, 701.5], [20.410543, 49.422957, 706.5], [20.410375, 49.422851, 709.0], [20.410429, 49.422636, 712.8], [20.410457, 49.422522, 714.2], [20.410471, 49.422422, 714.8], [20.410504, 49.422331, 714.8], [20.410719, 49.421867, 714.8], [20.410807, 49.421746, 715.2], [20.41089, 49.421682, 715.0], [20.411028, 49.421603, 715.2], [20.411423, 49.42142, 717.8], [20.411487, 49.421379, 718.8], [20.411529, 49.421338, 719.8], [20.411616, 49.421223, 722.8], [20.411755, 49.421082, 726.8], [20.411911, 49.42094, 730.2], [20.412021, 49.420886, 731.2], [20.41222, 49.420834, 731.8], [20.412515, 49.420769, 733.2], [20.41274, 49.420754, 730.5], [20.412946, 49.420752, 731.0], [20.413279, 49.420803, 730.8], [20.413624, 49.420842, 731.8], [20.413864, 49.420794, 734.8], [20.414202, 49.420659, 737.2], [20.414663, 49.420557, 739.8], [20.41483, 49.420469, 742.2], [20.415154, 49.420248, 747.5], [20.415425, 49.41993, 750.0], [20.415503, 49.41982, 748.2], [20.415521, 49.419613, 747.2], [20.415484, 49.419471, 749.0], [20.415433, 49.41937, 753.8], [20.41546, 49.4193, 755.8], [20.415537, 49.419229, 757.0], [20.415693, 49.419196, 759.2], [20.415865, 49.419201, 759.0], [20.416001, 49.41918, 757.0], [20.416122, 49.41911, 756.2], [20.4162, 49.419007, 757.2], [20.416283, 49.418822, 761.0], [20.416589, 49.418669, 752.2], [20.416731, 49.41859, 749.5], [20.416903, 49.418562, 748.2], [20.417182, 49.418609, 740.5], [20.417509, 49.418583, 732.5], [20.41778, 49.418524, 729.0], [20.418008, 49.418419, 727.8], [20.418223, 49.418269, 729.5], [20.418311, 49.418222, 729.2], [20.41837, 49.418232, 729.8], [20.418432, 49.418276, 730.8], [20.418536, 49.418444, 731.2], [20.418622, 49.418622, 732.2], [20.418694, 49.418749, 733.2], [20.418823, 49.418859, 735.5], [20.418936, 49.418943, 736.5], [20.419105, 49.419107, 737.2], [20.419174, 49.41923, 736.0], [20.419193, 49.41933, 733.0], [20.419274, 49.4194, 733.2], [20.419563, 49.419545, 736.8], [20.419695, 49.419674, 736.5], [20.419908, 49.41982, 745.8], [20.419993, 49.419684, 753.0], [20.420062, 49.419567, 759.5], [20.420238, 49.419512, 770.5], [20.420288, 49.419389, 770.5], [20.420298, 49.419292, 772.5], [20.420226, 49.419194, 773.8], [20.420084, 49.419037, 780.0], [20.420052, 49.41892, 785.0], [20.420105, 49.418829, 790.2], [20.420199, 49.418791, 794.5], [20.420314, 49.418801, 795.5], [20.420349, 49.418714, 797.8], [20.420314, 49.418623, 802.2], [20.420301, 49.418508, 806.8], [20.420188, 49.418351, 811.0], [20.42014, 49.418253, 814.5], [20.420111, 49.418119, 821.2], [20.420035, 49.418034, 824.2], [20.420062, 49.417889, 825.5], [20.420192, 49.417698, 831.8], [20.420247, 49.417571, 830.5], [20.420277, 49.417374, 828.0], [20.420207, 49.417067, 823.8], [20.41999, 49.416867, 824.5], [20.419931, 49.416748, 828.0], [20.41974, 49.416625, 833.8], [20.419571, 49.416483, 837.0], [20.419318, 49.416331, 842.8], [20.419088, 49.416156, 848.5], [20.418788, 49.415958, 855.8], [20.418636, 49.415708, 862.8], [20.418466, 49.415618, 866.5], [20.418303, 49.415497, 871.8], [20.41815, 49.415359, 877.0], [20.417953, 49.415084, 887.2], [20.417898, 49.414968, 891.2], [20.417871, 49.414837, 893.5], [20.417868, 49.414765, 894.5], [20.41784, 49.414699, 896.0], [20.41772, 49.414641, 899.2], [20.417666, 49.414634, 900.8], [20.417608, 49.414656, 903.5], [20.417573, 49.414688, 906.0], [20.417522, 49.414823, 908.0], [20.417436, 49.414868, 909.5], [20.417308, 49.414886, 911.5], [20.417085, 49.414875, 914.0], [20.416914, 49.414823, 917.5], [20.416825, 49.414774, 920.8], [20.416573, 49.414757, 924.8], [20.416267, 49.414685, 929.0], [20.416114, 49.414643, 931.0], [20.415891, 49.414481, 942.2], [20.415747, 49.414439, 948.2], [20.415613, 49.414441, 950.0], [20.415468, 49.414474, 950.5], [20.415291, 49.414476, 953.2], [20.415199, 49.414463, 955.0], [20.415176, 49.414435, 955.5], [20.415107, 49.414433, 956.0], [20.415034, 49.414411, 954.8], [20.414834, 49.414358, 952.0], [20.414717, 49.414294, 949.2], [20.414647, 49.414245, 949.2], [20.414543, 49.414226, 954.0], [20.414451, 49.414194, 959.8], [20.414414, 49.414165, 959.2], [20.414348, 49.41404, 958.0], [20.414338, 49.413977, 958.8], [20.414311, 49.413908, 960.2], [20.414216, 49.413833, 958.5]]}}]}