{"type": "FeatureCollection", "_uwaga": "Generowane: tools/trasy/kolory_odcinkow.py. Nie edytować ręcznie.", "features": [{"type": "Feature", "properties": {"kolor": "zolty"}, "geometry": {"type": "LineString", "coordinates": [[20.428563, 49.440705, 422.0], [20.428562, 49.440705, 422.0], [20.428153, 49.440635, 422.0], [20.428016, 49.440603, 422.0], [20.427915, 49.440575, 422.0], [20.42775, 49.440612, 422.0], [20.427661, 49.440614, 422.0], [20.427445, 49.440598, 422.0], [20.426909, 49.440571, 423.0], [20.426689, 49.440605, 423.0], [20.426515, 49.44063, 423.0], [20.426503, 49.440595, 422.8], [20.426095, 49.440638, 423.0], [20.425921, 49.440645, 423.0], [20.425318, 49.440539, 423.0], [20.425073, 49.440494, 423.0], [20.424335, 49.440384, 424.5], [20.423744, 49.440331, 424.8], [20.423515, 49.440321, 425.2], [20.423257, 49.440323, 425.8], [20.422968, 49.440351, 426.0], [20.42276, 49.440355, 426.8], [20.422712, 49.440306, 427.2], [20.422654, 49.440272, 427.8], [20.422398, 49.440122, 430.2], [20.422345, 49.44009, 430.5], [20.422248, 49.439958, 432.2], [20.421933, 49.439531, 439.0], [20.421843, 49.439353, 441.2], [20.421815, 49.439297, 442.0], [20.421776, 49.439159, 443.8], [20.421873, 49.438912, 447.8], [20.421885, 49.438821, 449.2], [20.421857, 49.438467, 456.2], [20.421873, 49.43838, 458.0], [20.421964, 49.438247, 461.8], [20.422007, 49.438216, 462.5], [20.422243, 49.437996, 468.5], [20.422315, 49.437819, 472.8], [20.422323, 49.437735, 475.0], [20.422306, 49.43749, 482.5], [20.42232, 49.437388, 485.8], [20.422369, 49.437275, 488.8], [20.42257, 49.436892, 499.8], [20.422648, 49.436706, 504.5], [20.422609, 49.436282, 513.5], [20.422642, 49.436158, 515.5], [20.423026, 49.435524, 524.2], [20.423112, 49.43534, 527.2], [20.423292, 49.435167, 530.0], [20.423392, 49.435032, 533.5], [20.423477, 49.43489, 536.8], [20.423497, 49.434814, 538.2], [20.423497, 49.434731, 540.0], [20.423546, 49.434683, 540.8], [20.423604, 49.434544, 543.0], [20.423635, 49.434411, 545.5], [20.423627, 49.434342, 547.0], [20.423686, 49.434249, 548.8], [20.423694, 49.434174, 550.5], [20.423741, 49.434045, 554.2], [20.423759, 49.433998, 555.8], [20.423736, 49.433867, 560.0], [20.423605, 49.43371, 563.8], [20.423598, 49.433629, 565.5], [20.423611, 49.433519, 567.5], [20.423552, 49.43341, 569.5], [20.423435, 49.433199, 574.0], [20.42335, 49.433073, 576.5], [20.423262, 49.433006, 577.8], [20.423048, 49.43269, 582.0], [20.422989, 49.432528, 584.0], [20.422956, 49.432439, 585.5], [20.422791, 49.432227, 589.8], [20.422283, 49.4314, 605.8], [20.422117, 49.431242, 609.0], [20.421985, 49.431132, 610.8], [20.421859, 49.431007, 613.2], [20.421823, 49.430916, 614.8], [20.421763, 49.430712, 618.0], [20.421542, 49.43046, 623.8], [20.421197, 49.430002, 635.0], [20.421114, 49.429916, 637.0], [20.420959, 49.429799, 640.0], [20.420738, 49.429702, 643.2], [20.420383, 49.429614, 646.0], [20.419805, 49.429353, 646.0], [20.419043, 49.428954, 649.5], [20.418022, 49.428539, 646.5], [20.417506, 49.428341, 645.8], [20.416814, 49.428031, 646.0], [20.416455, 49.427849, 647.2], [20.415599, 49.427524, 654.2], [20.414723, 49.427072, 671.2], [20.414127, 49.426729, 681.5], [20.413328, 49.426469, 679.2], [20.413773, 49.426415, 684.2], [20.4141, 49.426352, 688.5], [20.414432, 49.426248, 694.2], [20.4141, 49.426352, 688.5], [20.413773, 49.426415, 684.2], [20.413328, 49.426469, 679.2], [20.413078, 49.426394, 678.0], [20.412751, 49.426206, 678.0], [20.412622, 49.426071, 680.0], [20.412624, 49.425882, 683.0], [20.412592, 49.425672, 683.8], [20.412482, 49.425529, 682.8], [20.412268, 49.425416, 681.2], [20.411724, 49.425306, 680.5], [20.411023, 49.425012, 678.0], [20.410689, 49.42468, 671.2], [20.410572, 49.424601, 671.5], [20.410524, 49.424555, 671.2], [20.410526, 49.424535, 671.0], [20.41053, 49.424516, 670.8], [20.410564, 49.424462, 670.0], [20.410666, 49.424409, 671.0], [20.411361, 49.424173, 678.8], [20.411485, 49.424102, 679.8], [20.411544, 49.42394, 682.8], [20.411495, 49.423781, 686.8], [20.411321, 49.423512, 693.2], [20.41116, 49.423352, 696.5], [20.410817, 49.423151, 701.5], [20.410543, 49.422957, 706.5], [20.410375, 49.422851, 709.0], [20.410036, 49.422644, 712.8], [20.409996, 49.422542, 714.2], [20.409977, 49.422375, 715.8], [20.409921, 49.422212, 717.0], [20.409789, 49.421985, 719.2], [20.409653, 49.421867, 721.5], [20.409309, 49.421607, 726.2], [20.409258, 49.421483, 729.0], [20.409282, 49.421387, 731.2], [20.409355, 49.421286, 734.0], [20.409374, 49.421214, 735.5], [20.409232, 49.420971, 741.5], [20.409197, 49.420858, 743.5], [20.409008, 49.420366, 755.5], [20.408658, 49.419935, 764.0], [20.408582, 49.419813, 765.5], [20.408346, 49.419353, 774.2], [20.408191, 49.419178, 777.8], [20.40807, 49.419001, 779.0], [20.408068, 49.419, 768.0], [20.40807, 49.419001, 779.0]]}}, {"type": "Feature", "properties": {"kolor": "niebieski"}, "geometry": {"type": "LineString", "coordinates": [[20.40807, 49.419001, 779.0], [20.408478, 49.418902, 783.8], [20.40867, 49.418817, 786.8], [20.408868, 49.41875, 790.0], [20.409081, 49.4187, 794.8], [20.409295, 49.418675, 800.0], [20.409444, 49.418655, 804.0], [20.409505, 49.418646, 805.2], [20.409624, 49.418663, 807.5], [20.409777, 49.418642, 810.5], [20.409902, 49.418607, 813.0], [20.410294, 49.418309, 824.2], [20.410524, 49.418198, 828.5], [20.410921, 49.418059, 835.8], [20.411206, 49.417993, 839.8], [20.411409, 49.417958, 843.2], [20.411777, 49.417838, 849.8], [20.411937, 49.417744, 854.2], [20.412107, 49.417665, 857.5], [20.4123, 49.417613, 860.5], [20.412576, 49.417515, 866.5], [20.412802, 49.417397, 871.5], [20.412836, 49.417332, 874.0], [20.412861, 49.41722, 878.0], [20.412903, 49.417165, 880.2], [20.412997, 49.417128, 882.2], [20.413376, 49.417025, 889.2], [20.413536, 49.416969, 892.5], [20.413823, 49.416782, 901.2], [20.41385, 49.41672, 903.5], [20.413845, 49.416522, 908.8], [20.413805, 49.416437, 911.0], [20.413751, 49.416376, 913.0], [20.413673, 49.416339, 914.8], [20.413392, 49.41629, 919.8], [20.413295, 49.416255, 921.5], [20.413215, 49.416147, 924.0], [20.41322, 49.416011, 926.2], [20.413252, 49.41595, 927.0], [20.413335, 49.415829, 929.0], [20.4134, 49.415512, 934.8], [20.413448, 49.415451, 935.0], [20.413622, 49.415372, 938.0], [20.413952, 49.415339, 940.2], [20.414039, 49.415314, 941.2], [20.414123, 49.415251, 942.0], [20.414403, 49.415065, 942.5], [20.414497, 49.414965, 943.5], [20.414556, 49.414859, 945.8], [20.414574, 49.414779, 947.2], [20.414572, 49.414717, 948.5], [20.414602, 49.414657, 950.8], [20.41465, 49.414639, 952.0], [20.414813, 49.414614, 953.2], [20.414981, 49.414548, 954.8], [20.415107, 49.414521, 953.8], [20.415199, 49.414463, 955.0], [20.415176, 49.414435, 955.5], [20.415107, 49.414433, 956.0], [20.415034, 49.414411, 954.8], [20.414834, 49.414358, 952.0], [20.414717, 49.414294, 949.2], [20.414647, 49.414245, 949.2], [20.414543, 49.414226, 954.0], [20.414451, 49.414194, 959.8], [20.414414, 49.414165, 959.2], [20.414348, 49.41404, 958.0], [20.414338, 49.413977, 958.8], [20.414311, 49.413908, 960.2], [20.414216, 49.413833, 958.5]]}}]}