{"type": "FeatureCollection", "_uwaga": "Generowane: tools/trasy/kolory_odcinkow.py. Nie edytować ręcznie.", "features": [{"type": "Feature", "properties": {"kolor": "zolty"}, "geometry": {"type": "LineString", "coordinates": [[20.411087, 49.40519, 475.0], [20.411113, 49.405613, 475.8], [20.411085, 49.405721, 476.2], [20.411085, 49.406391, 477.2], [20.411021, 49.406604, 479.0], [20.410906, 49.4068, 481.2], [20.410734, 49.407039, 483.8], [20.410724, 49.407088, 484.0], [20.410635, 49.407165, 485.2], [20.410575, 49.407253, 486.8], [20.410565, 49.407406, 488.0], [20.410528, 49.407537, 489.2], [20.41044, 49.407663, 490.2], [20.410238, 49.407825, 493.2], [20.409986, 49.407982, 496.0], [20.409367, 49.408585, 505.0], [20.409261, 49.40871, 507.0], [20.408906, 49.409076, 512.0], [20.408665, 49.409345, 517.8], [20.40862, 49.409501, 518.8], [20.408617, 49.409824, 523.5], [20.408483, 49.4104, 535.8], [20.408413, 49.410449, 536.8], [20.408088, 49.410573, 539.8], [20.408018, 49.410631, 544.5], [20.407813, 49.410865, 546.8], [20.407624, 49.411117, 554.2], [20.407245, 49.41131, 562.8], [20.407113, 49.411409, 560.0], [20.407026, 49.411508, 562.8], [20.406697, 49.411684, 561.5], [20.406328, 49.412036, 571.2], [20.40615, 49.41215, 571.5], [20.406023, 49.412249, 571.5], [20.405672, 49.412602, 578.0], [20.405368, 49.412771, 578.8], [20.405352, 49.412863, 580.0], [20.405368, 49.412979, 582.0], [20.405362, 49.41323, 587.8], [20.405394, 49.413344, 592.0], [20.405421, 49.413446, 592.2], [20.405552, 49.413665, 590.5], [20.405581, 49.413811, 595.0], [20.405675, 49.413929, 598.8], [20.406297, 49.414398, 613.2], [20.40642, 49.414661, 617.5], [20.406483, 49.414795, 621.8], [20.406515, 49.414864, 623.2], [20.406537, 49.415014, 625.8], [20.406747, 49.415391, 636.2], [20.406808, 49.41554, 642.2], [20.406855, 49.415622, 644.2], [20.406874, 49.415752, 647.8], [20.406889, 49.415906, 652.8], [20.406832, 49.416081, 659.8], [20.406782, 49.416101, 659.8], [20.406597, 49.41614, 661.2], [20.406374, 49.416085, 667.5], [20.406284, 49.416132, 671.2], [20.406166, 49.416227, 677.5], [20.40597, 49.416284, 684.8], [20.405975, 49.416435, 689.8], [20.405846, 49.416482, 695.5], [20.405879, 49.416613, 699.8], [20.405775, 49.416625, 703.0], [20.405718, 49.416852, 709.8], [20.405629, 49.416913, 714.2], [20.405535, 49.416912, 717.0], [20.405393, 49.417066, 724.0], [20.405393, 49.417103, 725.0], [20.405445, 49.417148, 725.5], [20.40549, 49.417244, 728.0], [20.405505, 49.417347, 732.8], [20.405503, 49.417396, 735.2], [20.40553, 49.417453, 737.8], [20.405551, 49.417528, 740.8], [20.405669, 49.417598, 743.5], [20.405793, 49.417682, 745.8], [20.406055, 49.417851, 750.5], [20.406254, 49.417923, 753.0], [20.406466, 49.417977, 755.0], [20.406903, 49.418116, 760.8], [20.40741, 49.418417, 768.0], [20.408068, 49.419, 779.0], [20.40807, 49.419001, 779.0]]}}, {"type": "Feature", "properties": {"kolor": "niebieski"}, "geometry": {"type": "LineString", "coordinates": [[20.40807, 49.419001, 779.0], [20.408478, 49.418902, 783.8], [20.40867, 49.418817, 786.8], [20.408868, 49.41875, 790.0], [20.409081, 49.4187, 794.8], [20.409295, 49.418675, 800.0], [20.409444, 49.418655, 804.0], [20.409505, 49.418646, 805.2], [20.409624, 49.418663, 807.5], [20.409777, 49.418642, 810.5], [20.409902, 49.418607, 813.0], [20.410294, 49.418309, 824.2], [20.410524, 49.418198, 828.5], [20.410921, 49.418059, 835.8], [20.411206, 49.417993, 839.8], [20.411409, 49.417958, 843.2], [20.411777, 49.417838, 849.8], [20.411937, 49.417744, 854.2], [20.412107, 49.417665, 857.5], [20.4123, 49.417613, 860.5], [20.412576, 49.417515, 866.5], [20.412802, 49.417397, 871.5], [20.412836, 49.417332, 874.0], [20.412861, 49.41722, 878.0], [20.412903, 49.417165, 880.2], [20.412997, 49.417128, 882.2], [20.413376, 49.417025, 889.2], [20.413536, 49.416969, 892.5], [20.413823, 49.416782, 901.2], [20.41385, 49.41672, 903.5], [20.413845, 49.416522, 908.8], [20.413805, 49.416437, 911.0], [20.413751, 49.416376, 913.0], [20.413673, 49.416339, 914.8], [20.413392, 49.41629, 919.8], [20.413295, 49.416255, 921.5], [20.413215, 49.416147, 924.0], [20.41322, 49.416011, 926.2], [20.413252, 49.41595, 927.0], [20.413335, 49.415829, 929.0], [20.4134, 49.415512, 934.8], [20.413448, 49.415451, 935.0], [20.413622, 49.415372, 938.0], [20.413952, 49.415339, 940.2], [20.414039, 49.415314, 941.2], [20.414123, 49.415251, 942.0], [20.414403, 49.415065, 942.5], [20.414497, 49.414965, 943.5], [20.414556, 49.414859, 945.8], [20.414574, 49.414779, 947.2], [20.414572, 49.414717, 948.5], [20.414602, 49.414657, 950.8], [20.41465, 49.414639, 952.0], [20.414813, 49.414614, 953.2], [20.414981, 49.414548, 954.8], [20.415107, 49.414521, 953.8], [20.415199, 49.414463, 955.0], [20.415176, 49.414435, 955.5], [20.415107, 49.414433, 956.0], [20.415034, 49.414411, 954.8], [20.414834, 49.414358, 952.0], [20.414717, 49.414294, 949.2], [20.414647, 49.414245, 949.2], [20.414543, 49.414226, 954.0], [20.414451, 49.414194, 959.8], [20.414414, 49.414165, 959.2], [20.414348, 49.41404, 958.0], [20.414338, 49.413977, 958.8], [20.414311, 49.413908, 960.2], [20.414216, 49.413833, 958.5]]}}]}